Atoll,category,latitude,ORIG_FID,longitude,OBJECTID,capital,IslandName,categ2,islandCode,fname,v07,v03,FCODE,v02,v04,v01,longitude,latitude
AA,Inhabited,4.051099737658506,0,72.72557954115837,1,N,Feridhoo,Inhabited,2807,AA.Feridhoo,52,297,LD0287,247,492,544,72.72557954115837,4.051099737658506
AA,Inhabited,3.920784607574687,1,72.7440546710242,2,N,Himandhoo,Inhabited,2809,AA.Himandhoo,131,501,LD0874,384,754,885,72.7440546710242,3.920784607574687
AA,Inhabited,3.986344387702437,2,72.71943164415813,3,N,Maalhos,Inhabited,2808,AA.Maalhos,87,273,LD0004,243,429,516,72.71943164415813,3.986344387702437
AA,Inhabited,4.191914825446774,3,72.7462727830192,4,N,Mathiveri,Inhabited,2805,AA.Mathiveri,90,466,LD0132,412,788,878,72.7462727830192,4.191914825446774
AA,Inhabited,4.263116473108203,4,72.99186119190061,5,Y,Rasdhoo,Inhabited,2802,AA.Rasdhoo,204,755,LD0257,527,1078,1282,72.99186119190061,4.263116473108203
AA,Inhabited,4.437252754477485,5,72.95967114101018,6,N,Thoddoo,Inhabited,2801,AA.Thoddoo,395,1133,LD0501,791,1529,1924,72.95967114101018,4.437252754477485
AA,Inhabited,4.215162986636356,6,72.86425112395914,7,N,Ukulhas,Inhabited,2804,AA.Ukulhas,231,740,LD0916,544,1053,1284,72.86425112395914,4.215162986636356
ADh,Inhabited,3.607711647361769,7,72.95585504380085,8,N,Dhagethi,Inhabited,2906,ADh.Dhagethi,218,575,LD0273,361,718,936,72.95585504380085,3.607711647361769
ADh,Inhabited,3.484180377815163,8,72.87777932346371,9,N,Dhidhdhoo,Inhabited,2909,ADh.Dhidhdhoo,31,75,LD0459,66,110,141,72.87777932346371,3.484180377815163
ADh,Inhabited,3.532392582935455,9,72.92718650330289,10,N,Dhigurah,Inhabited,2907,ADh.Dhigurah,223,495,LD1047,266,538,761,72.92718650330289,3.532392582935455
ADh,Inhabited,3.489330485550703,10,72.78437901943542,11,N,Fenfushi,Inhabited,2908,ADh.Fenfushi,189,584,LD0513,416,811,1000,72.78437901943542,3.489330485550703
ADh,Inhabited,3.849258162365954,11,72.95522380229832,12,N,Hangnaameedhoo,Inhabited,2901,ADh.Hangnaameedhoo,71,269,"LD1023
",215,413,484,72.95522380229832,3.849258162365954
ADh,Inhabited,3.775673601043159,12,72.92577440259406,13,N,Kunburudhoo,Inhabited,2903,ADh.Kunburudhoo,28,259,LD0771,250,481,509,72.92577440259406,3.775673601043159
ADh,Inhabited,3.473904234364218,13,72.83461601679227,14,N,Maamigili,Inhabited,2910,ADh.Maamigili,495,1636,LD0158,1162,2303,2798,72.83461601679227,3.473904234364218
ADh,Inhabited,3.757232077328605,14,72.96905087788593,15,Y,Mahibadhoo,Inhabited,2904,ADh.Mahibadhoo,558,1458,LD0545,1122,2022,2580,72.96905087788593,3.757232077328605
ADh,Inhabited,3.697998536156772,15,72.70927481493531,16,N,Mandhoo,Inhabited,2905,ADh.Mandhoo,132,264,LD0168,154,286,418,72.70927481493531,3.697998536156772
ADh,Inhabited,3.791608264720191,16,72.96251140896784,17,N,Omadhoo,Inhabited,2902,ADh.Omadhoo,55,427,LD0009,486,858,913,72.96251140896784,3.791608264720191
B,Inhabited,5.1573485492041,17,73.13102319310734,18,N,Dharavandhoo,Inhabited,2508,B.Dharavandhoo,175,559,LD0844,438,822,997,73.13102319310734,5.1573485492041
B,Inhabited,5.187792470217106,18,73.1228919688512,19,N,Dhonfanu,Inhabited,2507,B.Dhonfanu,34,187,LD0348,211,364,398,73.1228919688512,5.187792470217106
B,Inhabited,5.102591801712933,19,73.0706639845349,20,Y,Eydhafushi,Inhabited,2510,B.Eydhafushi,264,1294,LD0204,1287,2317,2581,73.0706639845349,5.102591801712933
B,Inhabited,4.880740344834666,20,72.97307204574739,21,N,Fehendhoo,Inhabited,2515,B.Fehendhoo,26,115,LD0520,83,172,198,72.97307204574739,4.880740344834666
B,Inhabited,4.88497763941638,21,72.93394134504825,22,N,Fulhadhoo,Inhabited,2514,B.Fulhadhoo,101,213,LD0044,128,240,341,72.93394134504825,4.88497763941638
B,Inhabited,4.872868482798415,22,72.99887261592136,23,N,Goidhoo,Inhabited,2516,B.Goidhoo,75,300,LD0931,283,508,583,72.99887261592136,4.872868482798415
B,Inhabited,5.007269999533703,23,72.922965972345,24,N,Hithaadhoo,Inhabited,2513,B.Hithaadhoo,70,380,LD1000,364,674,744,72.922965972345,5.007269999533703
B,Inhabited,5.28203616013146,24,73.13691508025681,25,N,Kamadhoo,Inhabited,2502,B.Kamadhoo,209,338,LD0518,214,343,552,73.13691508025681,5.28203616013146
B,Inhabited,5.275367183620948,25,73.01022222680885,26,N,Kendhoo,Inhabited,2503,B.Kendhoo,141,533,LD0668,469,861,1002,73.01022222680885,5.275367183620948
B,Inhabited,5.215085581083206,26,73.12507251889036,27,N,Kihaadhoo,Inhabited,2506,B.Kihaadhoo,36,260,LD0363,221,445,481,73.12507251889036,5.215085581083206
B,Inhabited,5.300372074416274,27,73.07094627483043,28,N,Kudarikilu,Inhabited,2501,B.Kudarikilu,106,340,LD0059,217,451,557,73.07094627483043,5.300372074416274
B,Inhabited,5.134631737843362,28,73.10785040094414,29,N,Maalhos,Inhabited,2509,B.Maalhos,78,283,LD0637,289,494,572,73.10785040094414,5.134631737843362
B,Inhabited,5.021797379867312,29,72.84115494602871,30,N,Thulhaadhoo,Inhabited,2512,B.Thulhaadhoo,154,816,LD0677,809,1471,1625,72.84115494602871,5.021797379867312
Dh,Inhabited,2.936629162710815,30,72.99034434554014,31,N,Badidhoo,Inhabited,3302,Dh.Badidhoo,93,354,LD0066,275,536,629,72.99034434554014,2.936629162710815
Dh,Inhabited,2.858635909368802,31,72.84645276571942,32,N,Hulhudheli,Inhabited,3304,Dh.Hulhudheli,79,389,LD0662,375,685,764,72.84645276571942,2.858635909368802
Dh,Inhabited,2.670658480877441,32,72.89298925892787,33,Y,Kudahuvadhoo,Inhabited,3308,Dh.Kudahuvadhoo,464,1647,LD0499,1484,2667,3131,72.89298925892787,2.670658480877441
Dh,Inhabited,2.696006258066536,33,72.96332993151537,34,N,Maaeboodhoo,Inhabited,3307,Dh.Maaeboodhoo,29,342,LD0209,337,650,679,72.96332993151537,2.696006258066536
Dh,Inhabited,2.998080222180226,34,73.00741164458991,35,N,Meedhoo,Inhabited,3301,Dh.Meedhoo,261,660,LD1050,458,857,1118,73.00741164458991,2.998080222180226
Dh,Inhabited,2.924379472032765,35,72.89541712420048,36,N,Rinbudhoo,Inhabited,3303,Dh.Rinbudhoo,38,163,LD0334,153,278,316,72.89541712420048,2.924379472032765
F,Inhabited,3.118378846661459,36,72.98413484775925,37,N,Biledhdhoo,Inhabited,3203,F.Biledhdhoo,81,489,LD0606,478,886,967,72.98413484775925,3.118378846661459
F,Inhabited,3.062917734538642,37,72.92591673673205,38,N,Dharanboodhoo,Inhabited,3205,F.Dharanboodhoo,62,259,LD0970,196,393,455,72.92591673673205,3.062917734538642
F,Inhabited,3.270859845529687,38,73.00277063566595,39,N,Feeali,Inhabited,3201,F.Feeali,40,430,LD0008,492,882,922,73.00277063566595,3.270859845529687
F,Inhabited,3.056911615070905,39,72.8890248093281,40,Y,Nilandhoo,Inhabited,3206,F.Nilandhoo,174,947,LD1158,876,1649,1823,72.8890248093281,3.056911615070905
GA,Inhabited,0.619726159954933,40,73.46341861061157,41,N,Dhaandhoo,Inhabited,3605,GA.Dhaandhoo,187,607,LD0766,437,857,1044,73.46341861061157,0.619726159954933
GA,Inhabited,0.557079719533678,41,73.24214424012834,42,N,Dhevvadhoo,Inhabited,3606,GA.Dhevvadhoo,129,368,LD0412,231,470,599,73.24214424012834,0.557079719533678
GA,Inhabited,0.442723760822052,42,73.56831936305835,43,N,Gemanafushi,Inhabited,3609,GA.Gemanafushi,124,714,LD1182,604,1194,1318,73.56831936305835,0.442723760822052
GA,Inhabited,0.351137717302464,43,73.5395720417635,44,N,Kanduhulhudhoo,Inhabited,3610,GA.Kanduhulhudhoo,87,346,LD0856,273,532,619,73.5395720417635,0.351137717302464
GA,Inhabited,0.837795271169812,44,73.18472739982745,45,N,Kolamaafushi,Inhabited,3601,GA.Kolamaafushi,114,354,LD0743,282,522,636,73.18472739982745,0.837795271169812
GA,Inhabited,0.498691827384248,45,73.54884984396385,46,N,Kondey,Inhabited,3607,GA.Kondey,52,180,LD0435,148,276,328,73.54884984396385,0.498691827384248
GA,Inhabited,0.714216178807053,46,73.43919198406765,47,N,Maamendhoo,Inhabited,3603,GA.Maamendhoo,111,646,LD1085,555,1090,1201,73.43919198406765,0.714216178807053
GA,Inhabited,0.636237699855953,47,73.44645143824992,48,N,Nilandhoo,Inhabited,3604,GA.Nilandhoo,54,298,LD1091,247,491,545,73.44645143824992,0.636237699855953
GA,Inhabited,0.756495955597813,48,73.43534390559567,49,Y,Villingili,Inhabited,3602,GA.Villingili,357,1585,LD0247,1315,2543,2900,73.43534390559567,0.756495955597813
GDh,Inhabited,0.20188121268213,49,73.18460459475084,50,N,Fares-Maathodaa,Inhabited,3711,GDh.Fares-Maathodaa,96,463,LD0572,395,762,858,73.18460459475084,0.20188121268213
GDh,Inhabited,0.221874326743371,50,73.13667374851147,51,N,Fiyoari,Inhabited,3707,GDh.Fiyoari,85,341,LD0470,296,552,637,73.13667374851147,0.221874326743371
GDh,Inhabited,0.290053280367743,51,73.45758766781228,52,N,Gadhdhoo,Inhabited,3704,GDh.Gadhdhoo,163,776,LD0887,638,1251,1414,73.45758766781228,0.290053280367743
GDh,Inhabited,0.444472925870922,52,73.00398727113172,53,N,Hoadedhdhoo,Inhabited,3702,GDh.Hoadedhdhoo,95,490,LD0851,395,790,885,73.00398727113172,0.444472925870922
GDh,Inhabited,0.458486485150463,53,72.99871631637652,54,N,Madaveli,Inhabited,3701,GDh.Madaveli,74,633,LD0557,586,1145,1219,72.99871631637652,0.458486485150463
GDh,Inhabited,0.293402432888007,54,73.04070366860635,55,N,Nadalla,Inhabited,3703,GDh.Nadalla,39,293,LD0181,288,542,581,73.04070366860635,0.293402432888007
GDh,Inhabited,0.252699878778163,55,73.10455650105176,56,N,Rathafandhoo,Inhabited,3705,GDh.Rathafandhoo,65,253,LD0630,178,366,431,73.10455650105176,0.252699878778163
GDh,Inhabited,0.532183127736082,56,72.99761130373352,57,Y,Thinadhoo,Inhabited,3710,GDh.Thinadhoo,848,3230,LD0717,2987,5369,6217,72.99761130373352,0.532183127736082
GDh,Inhabited,0.227377295489127,57,73.27365395901401,58,N,Vaadhoo,Inhabited,3706,GDh.Vaadhoo,71,298,LD0195,218,445,516,73.27365395901401,0.227377295489127
Gn,Inhabited,-0.295762215939852,58,73.4248265190359,59,Y,Fuvahmulah,Inhabited,3802,Gn.Fuvahmulah,1270,4910,LD0726,4267,7907,9177,73.4248265190359,-0.295762215939852
HA,Inhabited,6.81856041027429,59,73.21273102442913,60,N,Baarah,Inhabited,2016,HA.Baarah,88,550,LD0987,591,1053,1141,73.21273102442913,6.81856041027429
HA,Inhabited,6.891758142759927,60,73.11077486563615,61,Y,Dhidhdhoo,Inhabited,2010,HA.Dhidhdhoo,286,1645,LD0568,1767,3126,3412,73.11077486563615,6.891758142759927
HA,Inhabited,6.874896737827045,61,73.2280527007193,62,N,Filladhoo,Inhabited,2011,HA.Filladhoo,30,268,LD0993,291,529,559,73.2280527007193,6.874896737827045
HA,Inhabited,6.977738886503312,62,72.8959777874393,63,N,Hoarafushi,Inhabited,2006,HA.Hoarafushi,187,985,LD0246,856,1654,1841,72.8959777874393,6.977738886503312
HA,Inhabited,6.954494711564646,63,72.92594353533539,64,N,Ihavandhoo,Inhabited,2007,HA.Ihavandhoo,174,1426,LD0908,1447,2699,2873,72.92594353533539,6.954494711564646
HA,Inhabited,6.954739880406326,64,73.21613164772907,65,N,Kelaa,Inhabited,2008,HA.Kelaa,148,581,LD0563,534,967,1115,73.21613164772907,6.954739880406326
HA,Inhabited,6.852614739492546,65,72.98418704428929,66,N,Maarandhoo,Inhabited,2012,HA.Maarandhoo,48,335,LD0695,333,620,668,72.98418704428929,6.852614739492546
HA,Inhabited,7.012350782868397,66,72.99808888767106,67,N,Molhadhoo,Inhabited,2005,HA.Molhadhoo,41,163,LD0901,123,245,286,72.99808888767106,7.012350782868397
HA,Inhabited,6.837936918604699,67,73.16733978192485,68,N,Muraidhoo,Inhabited,2015,HA.Muraidhoo,40,257,LD0701,277,494,534,73.16733978192485,6.837936918604699
HA,Inhabited,6.844069792245592,68,72.99555195885421,69,N,Thakandhoo,Inhabited,2013,HA.Thakandhoo,38,136,LD0984,143,241,279,72.99555195885421,6.844069792245592
HA,Inhabited,7.104338438655141,69,72.89925808868108,70,N,Thuraakunu,Inhabited,2001,HA.Thuraakunu,47,224,LD0915,203,380,427,72.89925808868108,7.104338438655141
HA,Inhabited,7.08197220683703,70,72.92744895298071,71,N,Uligamu,Inhabited,2002,HA.Uligamu,44,200,LD0488,200,356,400,72.92744895298071,7.08197220683703
HA,Inhabited,6.834903196844787,71,73.11269751555322,72,N,Utheemu,Inhabited,2014,HA.Utheemu,41,294,LD0507,318,571,612,73.11269751555322,6.834903196844787
HA,Inhabited,6.897708873178106,72,73.16262144623826,73,N,Vashafaru,Inhabited,2009,HA.Vashafaru,70,252,LD0232,224,406,476,73.16262144623826,6.897708873178106
HDh,Inhabited,6.745886076961411,73,73.05331693042598,74,N,Finey,Inhabited,2104,HDh.Finey,24,182,LD0441,227,385,409,73.05331693042598,6.745886076961411
HDh,Inhabited,6.761155878986216,74,73.17544804717939,75,N,Hanimaadhoo,Inhabited,2103,HDh.Hanimaadhoo,769,1534,LD0235,1130,1895,2664,73.17544804717939,6.761155878986216
HDh,Inhabited,6.724789989007731,75,73.02411626910128,76,N,Hirimaradhoo,Inhabited,2106,HDh.Hirimaradhoo,35,157,LD0199,136,258,293,73.02411626910128,6.724789989007731
HDh,Inhabited,6.623282629462097,76,73.06910152299254,77,Y,Kulhudhuffushi,Inhabited,2112,HDh.Kulhudhuffushi,797,4925,LD0048,5206,9334,10131,73.06910152299254,6.623282629462097
HDh,Inhabited,6.572100842915317,77,73.05232528885122,78,N,Kumundhoo,Inhabited,2113,HDh.Kumundhoo,56,465,LD0541,532,941,997,73.05232528885122,6.572100842915317
HDh,Inhabited,6.665591498559645,78,72.99670235441877,79,N,Kurin'bi,Inhabited,2110,HDh.Kurin'bi,13,227,LD0852,265,479,492,72.99670235441877,6.665591498559645
HDh,Inhabited,6.409565791403518,79,72.70508472447884,80,N,Makunudhoo,Inhabited,2117,HDh.Makunudhoo,61,608,LD0699,657,1204,1265,72.70508472447884,6.409565791403518
HDh,Inhabited,6.746895189467607,80,72.93501739106013,81,N,Naavaidhoo,Inhabited,2105,HDh.Naavaidhoo,59,238,LD0710,257,436,495,72.93501739106013,6.746895189467607
HDh,Inhabited,6.71514808548538,81,72.94680600309802,82,N,Nellaidhoo,Inhabited,2108,HDh.Nellaidhoo,48,480,LD0698,558,990,1038,72.94680600309802,6.71514808548538
HDh,Inhabited,6.542982148280785,82,72.97975097177286,83,N,Neykurendhoo,Inhabited,2114,HDh.Neykurendhoo,78,311,LD0686,330,563,641,72.97975097177286,6.542982148280785
HDh,Inhabited,6.662359300151129,83,73.08230819278825,84,N,Nolhivaramu,Inhabited,2109,HDh.Nolhivaramu,65,875,LD0658,1110,1920,1985,73.08230819278825,6.662359300151129
HDh,Inhabited,6.698716657313343,84,73.12084553758169,85,N,Nolhivaranfaru,Inhabited,2107,HDh.Nolhivaranfaru,124,602,LD0416,652,1130,1254,73.12084553758169,6.698716657313343
HDh,Inhabited,6.549703137754651,85,72.95322186803575,86,N,Vaikaradhoo,Inhabited,2115,HDh.Vaikaradhoo,81,403,LD0406,373,695,776,72.95322186803575,6.549703137754651
K,Inhabited,4.442995321748709,86,73.71447832961776,87,N,Dhiffushi,Inhabited,2703,K.Dhiffushi,249,746,LD0894,524,1021,1270,73.71447832961776,4.442995321748709
K,Inhabited,4.736263611408747,87,73.49951349403716,88,N,Gaafaru,Inhabited,2702,K.Gaafaru,98,657,LD0873,637,1196,1294,73.49951349403716,4.736263611408747
K,Inhabited,3.99074123867129,88,73.50901281631658,89,N,Gulhi,Inhabited,2711,K.Gulhi,164,579,LD0577,397,812,976,73.50901281631658,3.99074123867129
K,Inhabited,4.308102100492055,89,73.57099409531122,90,N,Himmafushi,Inhabited,2706,K.Himmafushi,520,1458,LD1129,554,1492,2012,73.57099409531122,4.308102100492055
K,Inhabited,4.333435784494317,90,73.60175312603025,91,N,Huraa,Inhabited,2705,K.Huraa,447,1086,LD0683,568,1207,1654,73.60175312603025,4.333435784494317
K,Inhabited,3.901533166844367,91,73.46753117031707,92,N,Guraidhoo,Inhabited,2713,K.Guraidhoo,175,978,LD0738,765,1568,1743,73.46753117031707,3.901533166844367
K,Inhabited,4.953866727302438,92,73.4595983383703,93,N,Kaashidhoo,Inhabited,2701,K.Kaashidhoo,695,1538,LD0665,990,1833,2528,73.4595983383703,4.953866727302438
K,Inhabited,3.940936173046734,93,73.48969739652196,94,N,Maafushi,Inhabited,2712,K.Maafushi,1276,3281,LD0069,1190,3195,4471,73.48969739652196,3.940936173046734
K,Inhabited,4.372932774474029,94,73.64805076672233,95,Y,Thulusdhoo,Inhabited,2704,K.Thulusdhoo,613,1188,LD0745,613,1188,1801,73.64805076672233,4.372932774474029
L,Inhabited,2.097136495079446,95,73.54610932713688,96,N,Dhabidhoo,Inhabited,3502,L.Dhabidhoo,39,301,LD1049,305,567,606,73.54610932713688,2.097136495079446
L,Inhabited,1.830152754032806,96,73.49902904826936,97,Y,Fonadhoo,Inhabited,3508,L.Fonadhoo,248,1579,LD1038,1407,2738,2986,73.49902904826936,1.830152754032806
L,Inhabited,1.92539969149046,97,73.54346719869547,98,N,Gamu,Inhabited,3506,L.Gamu,959,2460,LD0152,2355,3856,4815,73.54346719869547,1.92539969149046
L,Inhabited,1.797024887375129,98,73.38846720014641,99,N,Hithadoo,Inhabited,3511,L.Hithadoo,59,558,LD0265,550,1049,1108,73.38846720014641,1.797024887375129
L,Inhabited,2.118552501535579,99,73.56731483737035,100,N,Isdhoo,Inhabited,3501,L.Isdhoo,71,483,LD1070,446,858,929,73.56731483737035,2.118552501535579
L,Inhabited,1.782010761347302,100,73.36827356969327,101,N,Kunahandhoo,Inhabited,3512,L.Kunahandhoo,20,295,LD0323,306,581,601,73.36827356969327,1.782010761347302
L,Inhabited,2.02583161605749,101,73.53232418117771,102,N,Maabaidhoo,Inhabited,3503,L.Maabaidhoo,70,274,LD1053,291,495,565,73.53232418117771,2.02583161605749
L,Inhabited,1.817496424094352,102,73.3894724091851,103,N,Maamendhoo,Inhabited,3510,L.Maamendhoo,92,475,LD0484,404,787,879,73.3894724091851,1.817496424094352
L,Inhabited,1.885651256209494,103,73.24364712363318,104,N,Maavah,Inhabited,3507,L.Maavah,67,675,LD0938,704,1312,1379,73.24364712363318,1.885651256209494
L,Inhabited,2.01141404190886,104,73.53442201323672,105,N,Mundoo,Inhabited,3504,L.Mundoo,36,104,LD0102,72,140,176,73.53442201323672,2.01141404190886
Lh,Inhabited,5.492580160984325,105,73.41141881887305,106,N,Hinnavaru,Inhabited,2601,Lh.Hinnavaru,138,1087,LD0340,1199,2148,2286,73.41141881887305,5.492580160984325
Lh,Inhabited,5.333837228102802,106,73.46365605324257,107,N,Kurendhoo,Inhabited,2603,Lh.Kurendhoo,134,593,LD0510,578,1037,1171,73.46365605324257,5.333837228102802
Lh,Inhabited,5.444431499437524,107,73.36523251454484,108,Y,Naifaru,Inhabited,2602,Lh.Naifaru,718,2554,LD0020,2278,4114,4832,73.36523251454484,5.444431499437524
Lh,Uninhabited,5.278447799396887,108,73.60669489412513,109,N,Olhuvelifushi,Other,2604,Lh.Olhuvelifushi,48,350,LD0517,353,655,703,73.60669489412513,5.278447799396887
M,Inhabited,3.115309404003834,109,73.56195295464892,110,N,Dhiggaru,Inhabited,3108,M.Dhiggaru,115,541,LD0179,558,984,1099,73.56195295464892,3.115309404003834
M,Inhabited,2.77669171775797,110,73.42446801513326,111,N,Kolhufushi,Inhabited,3107,M.Kolhufushi,91,404,LD0061,389,702,793,73.42446801513326,2.77669171775797
M,Inhabited,3.105107892905864,111,73.57245787033712,112,N,Maduvvari,Inhabited,3109,M.Maduvvari,59,191,LD1166,127,259,318,73.57245787033712,3.105107892905864
M,Inhabited,2.946654130056059,112,73.58463447666021,113,N,Mulah,Inhabited,3104,M.Mulah,134,729,LD0531,697,1292,1426,73.58463447666021,2.946654130056059
M,Inhabited,2.917979068237885,113,73.58122116763893,114,Y,Muli,Inhabited,3105,M.Muli,180,550,LD0446,399,769,949,73.58122116763893,2.917979068237885
M,Inhabited,2.89506679443277,114,73.57740553294599,115,N,Naalaafushi,Inhabited,3106,M.Naalaafushi,42,223,LD0793,207,388,430,73.57740553294599,2.89506679443277
M,Inhabited,3.089795613956777,115,73.63907869814913,116,N,Raiymandhoo,Inhabited,3101,M.Raiymandhoo,49,107,LD0786,64,122,171,73.63907869814913,3.089795613956777
M,Inhabited,2.956300956452616,116,73.59994426874391,117,N,Veyvah,Inhabited,3103,M.Veyvah,69,196,LD1167,108,235,304,73.59994426874391,2.956300956452616
N,Inhabited,5.743781512217768,117,73.2159882444904,118,N,Fodhdhoo,Inhabited,2314,N.Fodhdhoo,71,210,LD0332,135,274,345,73.2159882444904,5.743781512217768
N,Inhabited,5.967736600645377,118,73.39297233552439,119,N,Hen'badhoo,Inhabited,2302,N.Hen'badhoo,50,310,LD0962,328,588,638,73.39297233552439,5.967736600645377
N,Inhabited,5.754865851021715,119,73.26303677324317,120,N,Holhudhoo,Inhabited,2313,N.Holhudhoo,132,652,LD1999,776,1296,1428,73.26303677324317,5.754865851021715
N,Inhabited,5.952657214889033,120,73.41587952602819,121,N,Kendhikulhudhoo,Inhabited,2303,N.Kendhikulhudhoo,75,750,LD0866,806,1481,1556,73.41587952602819,5.952657214889033
N,Inhabited,5.882852938268201,121,73.40024807530881,122,N,Kudafaree,Inhabited,2306,N.Kudafaree,77,334,LD0391,294,551,628,73.40024807530881,5.882852938268201
N,Inhabited,5.881759801599317,122,73.46624959495739,123,N,Landhoo,Inhabited,2307,N.Landhoo,57,343,LD0191,414,700,757,73.46624959495739,5.881759801599317
N,Inhabited,5.816171471285752,123,73.37768468448559,124,N,Lhohi,Inhabited,2309,N.Lhohi,81,354,LD0500,338,611,692,73.37768468448559,5.816171471285752
N,Inhabited,5.82392875953234,124,73.47553256045569,125,N,Maafaru,Inhabited,2308,N.Maafaru,73,462,LD0560,457,846,919,73.47553256045569,5.82392875953234
N,Inhabited,5.900878839796696,125,73.45647237754105,126,N,Maalhendhoo,Inhabited,2305,N.Maalhendhoo,50,353,LD0203,371,674,724,73.45647237754105,5.900878839796696
N,Inhabited,5.776510765144371,126,73.36252924854864,127,N,Magoodhoo,Inhabited,2311,N.Magoodhoo,21,150,LD0907,155,284,305,73.36252924854864,5.776510765144371
N,Inhabited,5.764887888430493,127,73.41110050225349,128,Y,Manadhoo,Inhabited,2312,N.Manadhoo,281,987,LD0392,758,1464,1745,73.41110050225349,5.764887888430493
N,Inhabited,5.79049660199895,128,73.36262585105564,129,N,Miladhoo,Inhabited,2310,N.Miladhoo,77,440,LD1068,494,857,934,73.36262585105564,5.79049660199895
N,Inhabited,5.664711280949319,129,73.27345845346031,130,N,Velidhoo,Inhabited,2315,N.Velidhoo,256,1023,LD0497,809,1576,1832,73.27345845346031,5.664711280949319
R,Inhabited,5.967201844464218,130,72.9539096896531,131,N,Alifushi,Inhabited,2401,R.Alifushi,362,1064,LD0588,795,1497,1859,72.9539096896531,5.967201844464218
R,Inhabited,5.792794914101336,131,73.00661059290812,132,N,An'golhitheemu,Inhabited,2404,R.An'golhitheemu,32,191,LD0281,190,349,381,73.00661059290812,5.792794914101336
R,Inhabited,5.629894370144931,132,73.04067991442159,133,N,Dhuvaafaru,Inhabited,2419,R.Dhuvaafaru,133,1709,LD0790,1612,3188,3321,73.04067991442159,5.629894370144931
R,Inhabited,5.463433170479194,133,73.03462049953319,134,N,Fainu,Inhabited,2414,R.Fainu,37,243,LD0924,180,386,423,73.03462049953319,5.463433170479194
R,Inhabited,5.76498081386169,134,73.01230397945956,135,N,Hulhudhuffaaru,Inhabited,2418,R.Hulhudhuffaaru,78,592,LD0600,636,1150,1228,73.01230397945956,5.76498081386169
R,Inhabited,5.477077853923642,135,73.03679772821461,136,N,Inguraidhoo,Inhabited,2413,R.Inguraidhoo,46,596,LD1121,682,1232,1278,73.03679772821461,5.477077853923642
R,Inhabited,5.549411811076316,136,73.04445271893671,137,N,Innamaadhoo,Inhabited,2411,R.Innamaadhoo,135,385,LD0564,278,528,663,73.04445271893671,5.549411811076316
R,Inhabited,5.448535234566493,137,73.02931873635947,138,N,Kinolhas,Inhabited,2417,R.Kinolhas,45,287,LD0194,256,498,543,73.02931873635947,5.448535234566493
R,Inhabited,5.606248417771426,138,73.04395134306957,139,N,Maakurathu,Inhabited,2409,R.Maakurathu,68,486,LD0180,470,888,956,73.04395134306957,5.606248417771426
R,Inhabited,5.485950389148543,139,72.89571025275993,140,N,Maduvvari,Inhabited,2412,R.Maduvvari,121,916,LD0573,844,1639,1760,72.89571025275993,5.485950389148543
R,Inhabited,5.458202628669237,140,72.95500450904687,141,N,Meedhoo,Inhabited,2416,R.Meedhoo,134,941,LD0605,931,1738,1872,72.95500450904687,5.458202628669237
R,Inhabited,5.807634607446347,141,73.00291115916575,142,N,Rasgetheemu,Inhabited,2403,R.Rasgetheemu,64,261,LD0178,276,473,537,73.00291115916575,5.807634607446347
R,Inhabited,5.563117627117574,142,73.04383791546442,143,N,Rasmaadhoo,Inhabited,2410,R.Rasmaadhoo,60,291,LD0423,263,494,554,73.04383791546442,5.563117627117574
R,Inhabited,5.668460258920827,143,73.02975618406295,144,Y,Ungoofaaru,Inhabited,2407,R.Ungoofaaru,223,908,LD1175,846,1531,1754,73.02975618406295,5.668460258920827
R,Inhabited,5.856693268964486,144,72.99145389429941,145,N,Vaadhoo,Inhabited,2402,R.Vaadhoo,37,231,LD0609,221,415,452,72.99145389429941,5.856693268964486
S,Inhabited,-0.584288615439392,145,73.2309671235253,146,N,Meedhoo,Inhabited,3901,S.Meedhoo,149,975,LD0272,917,1743,1892,73.2309671235253,-0.584288615439392
Sh,Inhabited,6.337755862574622,146,72.97482985044239,147,N,Bileffahi,Inhabited,2206,Sh.Bileffahi,26,250,LD1064,252,476,502,72.97482985044239,6.337755862574622
Sh,Inhabited,6.348942639884817,147,73.2092889581363,148,N,Feevah,Inhabited,2205,Sh.Feevah,60,342,LD1149,352,634,694,73.2092889581363,6.348942639884817
Sh,Inhabited,6.360617552179496,148,73.04878884344129,149,N,Feydhoo,Inhabited,2204,Sh.Feydhoo,73,412,LD1100,442,781,854,73.04878884344129,6.360617552179496
Sh,Inhabited,6.326654680096187,149,73.14936416997216,150,N,Foakaidhoo,Inhabited,2207,Sh.Foakaidhoo,83,743,LD0646,828,1488,1571,73.14936416997216,6.326654680096187
Sh,Inhabited,6.152495563557897,150,73.2896634448357,151,Y,Funadhoo,Inhabited,3607,Sh.Funadhoo,197,1140,LD0863,1115,2058,2255,73.2896634448357,6.152495563557897
Sh,Inhabited,6.430081980697145,151,72.92996514962125,152,N,Goidhoo,Inhabited,2203,Sh.Goidhoo,54,291,LD0836,301,538,592,72.92996514962125,6.430081980697145
Sh,Inhabited,6.440340613256187,152,72.9164580639862,153,N,Kaditheemu,Inhabited,2201,Sh.Kaditheemu,49,544,LD1092,649,1144,1193,72.9164580639862,6.440340613256187
Sh,Inhabited,6.05414507837922,153,73.05434110656421,154,N,Komandoo,Inhabited,2213,Sh.Komandoo,64,451,LD1058,470,857,921,73.05434110656421,6.05414507837922
Sh,Inhabited,6.164014194338305,154,73.25141852002302,155,N,Lhaimagu,Inhabited,2211,Sh.Lhaimagu,120,361,LD0978,323,564,684,73.25141852002302,6.164014194338305
Sh,Inhabited,6.036750225058768,155,73.2838506197195,156,N,Maaun'goodhoo,Inhabited,2214,Sh.Maaun'goodhoo,49,460,LD0016,484,895,944,73.2838506197195,6.036750225058768
Sh,Inhabited,6.209335876650065,156,73.06119133596805,157,N,Maroshi,Inhabited,2210,Sh.Maroshi,54,227,LD1144,252,425,479,73.06119133596805,6.209335876650065
Sh,Inhabited,6.286070591339272,157,73.24453951510071,158,N,Milandhoo,Inhabited,2216,Sh.Milandhoo,131,1012,LD0525,1082,1963,2094,73.24453951510071,6.286070591339272
Sh,Inhabited,6.264353790319158,158,73.21809560627068,159,N,Narudhoo,Inhabited,2208,Sh.Narudhoo,22,268,LD0551,276,522,544,73.21809560627068,6.264353790319158
Sh,Inhabited,6.434194340645602,159,73.0691036360828,160,N,Noomara,Inhabited,2202,Sh.Noomara,29,195,LD0985,176,342,371,73.0691036360828,6.434194340645602
Th,Inhabited,2.558992263886082,160,73.10665626014419,161,N,Buruni,Inhabited,3401,Th.Buruni,58,221,LD0254,193,356,414,73.10665626014419,2.558992263886082
Th,Inhabited,2.3396505443379,161,73.3368847525463,162,N,Dhiyamigili,Inhabited,3404,Th.Dhiyamigili,39,320,LD0200,329,610,649,73.3368847525463,2.3396505443379
Th,Inhabited,2.252441584624086,162,73.21287751359958,163,N,Gaadhiffushi,Inhabited,3409,Th.Gaadhiffushi,52,176,LD0427,141,265,317,73.21287751359958,2.252441584624086
Th,Inhabited,2.27018563145854,163,72.93049530018318,164,N,Hirilandhoo,Inhabited,3408,Th.Hirilandhoo,150,658,LD0350,488,996,1146,72.93049530018318,2.27018563145854
Th,Inhabited,2.168410415360064,164,73.06613059290768,165,N,Kinbidhoo,Inhabited,3412,Th.Kinbidhoo,35,361,LD0422,354,680,715,73.06613059290768,2.168410415360064
Th,Inhabited,2.356310135911521,165,73.35501213722212,166,N,Madifushi,Inhabited,3403,Th.Madifushi,79,413,LD0627,445,779,858,73.35501213722212,2.356310135911521
Th,Inhabited,2.167830534417852,166,73.02362985867433,167,N,Omadhoo,Inhabited,3413,Th.Omadhoo,30,222,LD0783,195,387,417,73.02362985867433,2.167830534417852
Th,Inhabited,2.322862329964907,167,73.31762771077584,168,N,Guraidhoo,Inhabited,3405,Th.Guraidhoo,103,623,LD1163,670,1190,1293,73.31762771077584,2.322862329964907
Th,Inhabited,2.32097067045498,168,72.91674976661437,169,N,Kandoodhoo,Inhabited,3406,Th.Kandoodhoo,73,258,LD0504,198,383,456,72.91674976661437,2.32097067045498
Th,Inhabited,2.208894154345741,169,73.14824484441532,170,N,Thimarafushi,Inhabited,3410,Th.Thimarafushi,185,686,LD0082,543,1044,1229,73.14824484441532,2.208894154345741
Th,Inhabited,2.291665487951553,170,72.94197494984532,171,N,Vandhoo,Inhabited,3407,Th.Vandhoo,55,206,LD0859,158,309,364,72.94197494984532,2.291665487951553
Th,Inhabited,2.186924390867765,171,73.09509070403674,172,Y,Veymandoo,Inhabited,3411,Th.Veymandoo,137,700,LD0694,621,1184,1321,73.09509070403674,2.186924390867765
Th,Inhabited,2.50331695144068,172,73.30847087431225,173,N,Vilufushi,Inhabited,3402,Th.Vilufushi,116,552,LD0205,529,965,1081,73.30847087431225,2.50331695144068
V,Inhabited,3.462235114881339,173,73.54995369492728,174,N,Keyodhoo,Inhabited,3004,V.Keyodhoo,121,348,LD0260,293,520,641,73.54995369492728,3.462235114881339
V,Inhabited,3.31495978496283,174,73.46988451668395,175,N,Rakeedhoo,Inhabited,3005,V.Rakeedhoo,14,49,LD0420,27,62,76,73.46988451668395,3.31495978496283
V,Inhabited,3.487648014100093,175,73.53841516761102,176,N,Thinadhoo,Inhabited,3002,V.Thinadhoo,184,230,LD1079,28,74,258,73.53841516761102,3.487648014100093
V,Inhabited,3.471982711222989,176,73.54716570089903,177,Y,Felidhoo,Inhabited,3003,V.Felidhoo,117,366,LD0075,254,503,620,73.54716570089903,3.471982711222989
V,Inhabited,3.680599831445946,177,73.41582961831585,178,N,Fulidhoo,Inhabited,3001,V.Fulidhoo,106,247,LD0182,153,294,400,73.41582961831585,3.680599831445946
F,Inhabited,3.077415493586466,178,72.9604251947238,179,N,Magoodhoo,Inhabited,3204,F.Magoodhoo,54,361,LD0085,341,648,702,72.9604251947238,3.077415493586466
AA,Inhabited,4.185698557568245,179,72.7734268467371,180,N,Bodufolhudhoo,Inhabited,2806,AA.Bodufolhudhoo,51,361,LD0474,343,653,704,72.7734268467371,4.185698557568245
Maale City,Inhabited,4.17326094261171,180,73.48523784449668,181,N,Vilin'gili,Inhabited,0,Maale City.Vilin'gili,863,3672,LD0268,3175,5984,6847,73.48523784449668,4.17326094261171
Maale City,Inhabited,4.174221583322432,181,73.50950774206065,182,Y,Maale,Inhabited,0,Maale City.Maale,37174,82841,LD0442,55212,100879,138053,73.50950774206065,4.174221583322432
K,Uninhabited,4.18331479305127,182,73.42152939781165,183,N,Thilafushi,Other,0,K.Thilafushi,0,0,LD0166,0,0,0,73.42152939781165,4.18331479305127
K,Uninhabited,4.196977362993346,183,73.51391797839713,184,N,Dhoonidhoo,Other,0,K.Dhoonidhoo,0,0,LD0389,0,0,0,73.51391797839713,4.196977362993346
K,Uninhabited,4.226665878596872,184,73.5198425134487,185,N,Vihamanaafushi,Tourism,0,K.Vihamanaafushi,0,0,LD1039,0,0,0,73.5198425134487,4.226665878596872
K,Uninhabited,4.230220563735067,185,73.49455497693177,186,N,Aarah,Other,0,K.Aarah,0,0,LD1089,0,0,0,73.49455497693177,4.230220563735067
K,Uninhabited,4.178981432904254,186,73.46903021297904,187,N,,Other,0,,0,0,LD1203,0,0,0,73.46903021297904,4.178981432904254
K,Uninhabited,4.193795924950432,187,73.52915591945012,188,N,Hulhule,Other,0,K.Hulhule,752,761,LD0890,41,50,802,73.52915591945012,4.193795924950432
K,Uninhabited,4.212794216226469,188,73.48440980741955,189,N,Feydhoofinolhu,Other,0,K.Feydhoofinolhu,0,0,LD0150,0,0,0,73.48440980741955,4.212794216226469
K,Uninhabited,4.247982715916221,189,73.54256850446916,190,N,,Tourism,0,,0,0,LD1746,0,0,0,73.54256850446916,4.247982715916221
K,Uninhabited,4.248225017416176,190,73.54443714375171,191,N,,Tourism,0,,0,0,LD1743,0,0,0,73.54443714375171,4.248225017416176
K,,4.199512757537052,191,73.39962359631832,192,,,,0,,0,0,,0,0,0,73.39962359631832,4.199512757537052
K,,4.226346227175949,192,73.42650635078128,193,,,,0,,0,0,,0,0,0,73.42650635078128,4.226346227175949
S,Inhabited,-0.594131850563449,193,73.22853309694979,194,N,Hulhudhoo,Inhabited,0,S.Hulhudhoo,183,687,LD0299,495,999,1182,73.22853309694979,-0.594131850563449
S,Uninhabited,-0.694110532646265,194,73.15351236222578,195,N,Gan,Other,0,S.Gan,0,0,LD0888,0,0,0,73.15351236222578,-0.694110532646265
S,Inhabited,-0.683156268269333,195,73.13442539301288,196,N,Feydhoo,Inhabited,0,S.Feydhoo,1232,2637,LD0947,1652,3057,4289,73.13442539301288,-0.683156268269333
S,Inhabited,-0.673951474604913,196,73.12463816570606,197,N,Maradhoofeydhoo,Inhabited,0,S.Maradhoofeydhoo,150,675,LD0081,723,1248,1398,73.12463816570606,-0.673951474604913
S,Inhabited,-0.666511911464591,197,73.1177501482451,198,N,Maradhoo,Inhabited,0,S.Maradhoo,332,1367,LD0288,1175,2210,2542,73.1177501482451,-0.666511911464591
S,Inhabited,-0.616115629416825,198,73.09349359462345,199,Y,Hithadhoo,Inhabited,0,S.Hithadhoo,2673,7758,LD1004,6001,11086,13759,73.09349359462345,-0.616115629416825
AA,Uninhabited,4.00253293911389,199,72.88170199566295,200,N,Kan'dholhudhoo,Tourism,0,AA.Kan'dholhudhoo,0,0,LD0027,0,0,0,72.88170199566295,4.00253293911389
AA,Uninhabited,4.122151033820488,200,72.74614612715585,201,N,Vihamaafaru,Fisheries,0,AA.Vihamaafaru,0,0,LD0099,0,0,0,72.74614612715585,4.122151033820488
AA,Uninhabited,3.989100125224184,201,72.95695467040333,202,N,Maagau,Other,0,AA.Maagau,0,0,LD0109,0,0,0,72.95695467040333,3.989100125224184
AA,Uninhabited,4.006183501883358,202,72.94911558089622,203,N,Ellaidhoo,Tourism,0,AA.Ellaidhoo,0,0,LD0201,0,0,0,72.94911558089622,4.006183501883358
AA,Uninhabited,3.943415976829495,203,72.88019162909795,204,N,Alikoirah,Other,0,AA.Alikoirah,0,0,LD0225,0,0,0,72.88019162909795,3.943415976829495
AA,Uninhabited,4.073591321733548,204,72.88759058454178,205,N,Maayafushi,Tourism,0,AA.Maayafushi,0,0,LD0300,0,0,0,72.88759058454178,4.073591321733548
AA,Uninhabited,4.220064956720429,205,72.75497277623109,206,N,Gangehi,Tourism,0,AA.Gangehi,0,0,LD0343,0,0,0,72.75497277623109,4.220064956720429
AA,Uninhabited,4.038373559391822,206,72.91936148092107,207,N,Halaveli,Tourism,0,AA.Halaveli,0,0,LD0375,0,0,0,72.91936148092107,4.038373559391822
AA,Uninhabited,4.118637357994429,207,72.93772882336948,208,N,Etheremadivaru,Other,0,AA.Etheremadivaru,0,0,LD0405,0,0,0,72.93772882336948,4.118637357994429
AA,Uninhabited,4.194816310049815,208,72.81898065835225,209,N,Velidhoo,Other,0,AA.Velidhoo,0,0,LD0411,0,0,0,72.81898065835225,4.194816310049815
AA,Uninhabited,4.265489564185303,209,73.00023125620523,210,N,Madivaru,Other,0,AA.Madivaru,0,0,LD0574,0,0,0,73.00023125620523,4.265489564185303
AA,Uninhabited,4.268295173277572,210,72.99964288298288,211,N,Madivarufinolhu,Other,0,AA.Madivarufinolhu,0,0,LD0645,0,0,0,72.99964288298288,4.268295173277572
AA,Uninhabited,4.293258374402569,211,73.0096240389397,212,N,Velifinolhu,Other,0,AA.Velifinolhu,0,0,LD0727,0,0,0,73.0096240389397,4.293258374402569
AA,Uninhabited,4.096053063164556,212,72.75290428847148,213,N,Madoogali,Other,0,AA.Madoogali,0,0,LD0760,0,0,0,72.75290428847148,4.096053063164556
AA,Uninhabited,3.95902717867658,213,72.91332330609762,214,N,Mushimasmigili,Tourism,0,AA.Mushimasmigili,0,0,LD0865,0,0,0,72.91332330609762,3.95902717867658
AA,Uninhabited,4.215660269372401,214,72.88349869461199,215,N,Fushi,Other,0,AA.Fushi,0,0,LD0868,0,0,0,72.88349869461199,4.215660269372401
AA,Uninhabited,4.181254798908792,215,72.76696041474956,216,N,Kudafolhudhoo,Tourism,0,AA.Kudafolhudhoo,0,0,LD0893,0,0,0,72.76696041474956,4.181254798908792
AA,Uninhabited,4.23271100583523,216,72.8650114200325,217,N,Gaagan'du,Other,0,AA.Gaagan'du,0,0,LD0964,0,0,0,72.8650114200325,4.23271100583523
AA,Uninhabited,4.023509626095609,217,72.81078061208339,218,N,Gaathafushi,Other,0,AA.Gaathafushi,0,0,LD0997,0,0,0,72.81078061208339,4.023509626095609
AA,Uninhabited,4.006881494999162,218,72.81102538169239,219,N,Fesdhoo,Tourism,0,AA.Fesdhoo,0,0,LD1002,0,0,0,72.81102538169239,4.006881494999162
AA,Uninhabited,4.070378868019489,219,72.9452471373182,220,N,Bathalaa,Tourism,0,AA.Bathalaa,0,0,LD1080,0,0,0,72.9452471373182,4.070378868019489
AA,Uninhabited,4.019048188450371,220,72.95837109806381,221,N,Fusfinolhu,Other,0,AA.Fusfinolhu,0,0,LD1021,0,0,0,72.95837109806381,4.019048188450371
AA,Uninhabited,4.258842212591427,221,72.98061107498808,222,N,Kuramathi,Tourism,0,AA.Kuramathi,0,0,LD1139,0,0,0,72.98061107498808,4.258842212591427
AA,Uninhabited,4.137319040473712,222,72.73237874194778,223,N,Dhinnolhufinolhu,Other,0,AA.Dhinnolhufinolhu,0,0,LD1154,0,0,0,72.73237874194778,4.137319040473712
AA,Uninhabited,4.185845746148622,223,72.750094865743,224,N,Mathivereefinolhu,Other,0,AA.Mathivereefinolhu,0,0,LD0356,0,0,0,72.750094865743,4.185845746148622
AA,Uninhabited,4.298820690165959,224,73.01153668180184,225,N,Veligan'du,Tourism,0,AA.Veligan'du,0,0,LD0807,0,0,0,73.01153668180184,4.298820690165959
AA,Uninhabited,3.998629862882422,225,72.94839125788623,226,N,,Other,0,,0,0,LD1579,0,0,0,72.94839125788623,3.998629862882422
ADh,Uninhabited,3.475217079010572,226,72.8550124992625,227,N,Ariyadhoo,Other,0,ADh.Ariyadhoo,0,0,LD0021,0,0,0,72.8550124992625,3.475217079010572
ADh,Uninhabited,3.475185756343262,227,72.82499828892203,228,N,Dhiffushi,Tourism,0,ADh.Dhiffushi,0,0,LD0080,0,0,0,72.82499828892203,3.475185756343262
ADh,Uninhabited,3.797621535826672,228,72.73255048467655,229,N,Innafushi,Other,0,ADh.Innafushi,0,0,LD0089,0,0,0,72.73255048467655,3.797621535826672
ADh,Uninhabited,3.858338084097879,229,72.91417343027723,230,N,Dhiggiri,Other,0,ADh.Dhiggiri,0,0,LD0120,0,0,0,72.91417343027723,3.858338084097879
ADh,Uninhabited,3.876030116388403,230,72.95455718909479,231,N,Bodukaashihuraa,Other,0,ADh.Bodukaashihuraa,0,0,LD0126,0,0,0,72.95455718909479,3.876030116388403
ADh,Uninhabited,3.666905275795365,231,72.7746832600838,232,N,Hurasdhoo,Other,0,ADh.Hurasdhoo,0,0,LD0165,0,0,0,72.7746832600838,3.666905275795365
ADh,Uninhabited,3.615831455504793,232,72.71727061373109,233,N,Rangaleefinolhu,Tourism,0,ADh.Rangaleefinolhu,0,0,LD0170,0,0,0,72.71727061373109,3.615831455504793
ADh,Uninhabited,3.669821701162501,233,72.90250391393272,234,N,Theluveligaa,Tourism,0,ADh.Theluveligaa,0,0,LD0175,0,0,0,72.90250391393272,3.669821701162501
ADh,Uninhabited,3.618047652850732,234,72.72332511857482,235,N,Rangali,Tourism,0,ADh.Rangali,0,0,LD0214,0,0,0,72.72332511857482,3.618047652850732
ADh,Uninhabited,3.494435328653091,235,72.76061721563129,236,N,Bodufinolhu,Tourism,0,ADh.Bodufinolhu,0,0,LD0220,0,0,0,72.76061721563129,3.494435328653091
ADh,Uninhabited,3.633802612857886,236,72.95835255286264,237,N,Vilamendhoo,Tourism,0,ADh.Vilamendhoo,0,0,LD0263,0,0,0,72.95835255286264,3.633802612857886
ADh,Uninhabited,3.652348854979303,237,72.8219236044238,238,N,Angaagau,Tourism,0,ADh.Angaagau,0,0,LD0316,0,0,0,72.8219236044238,3.652348854979303
ADh,Uninhabited,3.544333927757151,238,72.71977796686028,239,N,Huruelhi,Tourism,0,ADh.Huruelhi,0,0,LD0388,0,0,0,72.71977796686028,3.544333927757151
ADh,Uninhabited,3.653716951095102,239,72.95391943125165,240,N,Huvahendhoo,Tourism,0,ADh.Huvahendhoo,0,0,LD0419,0,0,0,72.95391943125165,3.653716951095102
ADh,Uninhabited,3.819419150396007,240,72.82830961445916,241,N,Heenfaru,Other,0,ADh.Heenfaru,0,0,LD0452,0,0,0,72.82830961445916,3.819419150396007
ADh,Uninhabited,3.619417683530554,241,72.78030311711449,242,N,Mirihi,Tourism,0,ADh.Mirihi,0,0,LD0461,0,0,0,72.78030311711449,3.619417683530554
ADh,Uninhabited,3.484863947948682,242,72.78987601478178,243,N,Tholhifushi,Other,0,ADh.Tholhifushi,0,0,LD0529,0,0,0,72.78987601478178,3.484863947948682
ADh,Uninhabited,3.573935834074403,243,72.9107744839219,244,N,Kudarah,Tourism,0,ADh.Kudarah,0,0,LD0581,0,0,0,72.9107744839219,3.573935834074403
ADh,Uninhabited,3.578663796458677,244,72.90199323420632,245,N,Vakarufalhi,Tourism,0,ADh.Vakarufalhi,0,0,LD0610,0,0,0,72.90199323420632,3.578663796458677
ADh,Uninhabited,3.479159406870675,245,72.87187573195422,246,N,Kudadhoo,Other,0,ADh.Kudadhoo,0,0,LD0641,0,0,0,72.87187573195422,3.479159406870675
ADh,Uninhabited,3.483318963701913,246,72.8017810719981,247,N,Nalaguraidhoo,Tourism,0,ADh.Nalaguraidhoo,0,0,LD0725,0,0,0,72.8017810719981,3.483318963701913
ADh,Uninhabited,3.479220608362868,247,72.87026582336907,248,N,Hiyafushi,Other,0,ADh.Hiyafushi,0,0,LD1102,0,0,0,72.87026582336907,3.479220608362868
ADh,Uninhabited,3.498710174284988,248,72.89630370002973,249,N,Dhihdhoofinolhu,Tourism,0,ADh.Dhihdhoofinolhu,0,0,LD1007,0,0,0,72.89630370002973,3.498710174284988
ADh,Uninhabited,3.611002577108373,249,72.72750714021313,250,N,Ranfinolhu,Tourism,0,ADh.Ranfinolhu,0,0,LD1337,0,0,0,72.72750714021313,3.611002577108373
ADh,Uninhabited,3.570415730119017,250,72.71873546989166,251,N,Hukurudhoo,Agriculture,0,ADh.Hukurudhoo,0,0,LD1093,0,0,0,72.71873546989166,3.570415730119017
ADh,Uninhabited,3.593849145825791,251,72.88350538028229,252,N,Mahchafushi,Tourism,0,ADh.Mahchafushi,0,0,LD1062,0,0,0,72.88350538028229,3.593849145825791
ADh,Uninhabited,3.603497580370051,252,72.90062962067427,253,N,Lonuboi,Other,0,ADh.Lonuboi,0,0,LD0966,0,0,0,72.90062962067427,3.603497580370051
ADh,Uninhabited,3.608026352994711,253,72.90031266200866,254,N,Maafushivaru,Tourism,0,ADh.Maafushivaru,0,0,LD1176,0,0,0,72.90031266200866,3.608026352994711
ADh,Uninhabited,3.618947571880644,254,72.95619509205187,255,N,Vilin'gilivaru,Other,0,ADh.Vilin'gilivaru,0,0,LD1010,0,0,0,72.95619509205187,3.618947571880644
ADh,Uninhabited,3.757645279069248,255,72.77084325755698,256,N,Fushidhigga,Other,0,ADh.Fushidhigga,0,0,LD1131,0,0,0,72.77084325755698,3.757645279069248
ADh,Uninhabited,3.786401015363783,256,72.73071079977,257,N,Thun'dufushi,Tourism,0,ADh.Thun'dufushi,0,0,LD1198,0,0,0,72.73071079977,3.786401015363783
ADh,Uninhabited,3.798709301473449,257,72.71048954587906,258,N,Kalhahan'dhihuraa,Other,0,ADh.Kalhahan'dhihuraa,0,0,LD0782,0,0,0,72.71048954587906,3.798709301473449
ADh,Uninhabited,3.815234106262487,258,72.75242329126777,259,N,En'boodhoo,Other,0,ADh.En'boodhoo,0,0,LD0784,0,0,0,72.75242329126777,3.815234106262487
ADh,Uninhabited,3.884822416818545,259,72.72771756941216,260,N,Moofushi,Tourism,0,ADh.Moofushi,0,0,LD0900,0,0,0,72.72771756941216,3.884822416818545
ADh,Uninhabited,3.887272845681859,260,72.81634434460847,261,N,Athurugau,Tourism,0,ADh.Athurugau,0,0,LD1147,0,0,0,72.81634434460847,3.887272845681859
ADh,Uninhabited,3.647831539825347,261,72.95570932314907,262,N,Athulivarufinolhu,Other,0,ADh.Athulivarufinolhu,0,0,LD1505,0,0,0,72.95570932314907,3.647831539825347
ADh,Uninhabited,3.574262935283218,262,72.86627864932406,263,N,,Other,0,,0,0,LD1592,0,0,0,72.86627864932406,3.574262935283218
ADh,Uninhabited,3.488021771919348,263,72.80205479152824,264,N,,Tourism,0,,0,0,LD1599,0,0,0,72.80205479152824,3.488021771919348
B,Uninhabited,5.369203090252852,264,73.06084010037259,265,N,Gaagan'dufaruhuraa,Other,0,B.Gaagan'dufaruhuraa,0,0,LD0594,0,0,0,73.06084010037259,5.369203090252852
B,Uninhabited,5.35715808586062,265,73.06076893680039,266,N,Bathalaahuraa,Other,0,B.Bathalaahuraa,0,0,LD1211,0,0,0,73.06076893680039,5.35715808586062
B,Uninhabited,5.346195830418544,266,73.07866042543354,267,N,Vinaneiyfaruhuraa,Other,0,B.Vinaneiyfaruhuraa,0,0,LD0742,0,0,0,73.07866042543354,5.346195830418544
B,Uninhabited,5.324081294424454,267,73.0865385377124,268,N,,Other,0,,0,0,LD0781,0,0,0,73.0865385377124,5.324081294424454
B,Uninhabited,5.316340163527993,268,73.07770096566179,269,N,Voavah,Tourism,0,B.Voavah,0,0,LD0654,0,0,0,73.07770096566179,5.316340163527993
B,Uninhabited,5.296110517833867,269,73.05697559591263,270,N,Kihavahhuravalhi,Tourism,0,B.Kihavahhuravalhi,0,0,LD1061,0,0,0,73.05697559591263,5.296110517833867
B,Uninhabited,5.297757755677577,270,72.99257198673791,271,N,Boifushi,Other,0,B.Boifushi,0,0,LD0937,0,0,0,72.99257198673791,5.297757755677577
B,Uninhabited,5.297202274708148,271,72.9684824817493,272,N,Kashidhoo,Agriculture,0,B.Kashidhoo,0,0,LD1137,0,0,0,72.9684824817493,5.297202274708148
B,Uninhabited,5.286270867262026,272,73.1124045692458,273,N,Lan'daagiraavaru,Tourism,0,B.Lan'daagiraavaru,0,0,LD0256,0,0,0,73.1124045692458,5.286270867262026
B,Uninhabited,5.274632263036064,273,73.04238229964777,274,N,Un'doodhoo,Agriculture,0,B.Un'doodhoo,0,0,LD0264,0,0,0,73.04238229964777,5.274632263036064
B,Uninhabited,5.274616073819509,274,73.03318697830667,275,N,Funadhoo,Other,0,B.Funadhoo,0,0,LD0776,0,0,0,73.03318697830667,5.274616073819509
B,Uninhabited,5.274849593857872,275,73.0251343306957,276,N,Hulhudhoo,Other,0,B.Hulhudhoo,0,0,LD0226,0,0,0,73.0251343306957,5.274849593857872
B,Uninhabited,5.275545249462396,276,73.01980123192845,277,N,Gemendhoo,Other,0,B.Gemendhoo,0,0,LD0502,0,0,0,73.01980123192845,5.275545249462396
B,Uninhabited,5.276719015048116,277,72.99599241856293,278,N,Keyodhoo,Other,0,B.Keyodhoo,0,0,LD1115,0,0,0,72.99599241856293,5.276719015048116
B,Uninhabited,5.2484954390459,278,72.89330128210305,279,N,Dhakandhoo,Other,0,B.Dhakandhoo,0,0,LD0687,0,0,0,72.89330128210305,5.2484954390459
B,Uninhabited,5.232212647670958,279,72.87743776788182,280,N,Fares,Tourism,0,B.Fares,0,0,LD0252,0,0,0,72.87743776788182,5.232212647670958
B,Uninhabited,5.228396888520159,280,72.85696536364212,281,N,Ahivaffushi,Other,0,B.Ahivaffushi,0,0,LD0861,0,0,0,72.85696536364212,5.228396888520159
B,Uninhabited,5.206549505495333,281,72.920441205508,282,N,Velavaru,Other,0,B.Velavaru,0,0,LD0162,0,0,0,72.920441205508,5.206549505495333
Baa,Uninhabited,5.184371059956535,282,72.93462489495958,283,N,Finolhufaru,Other,0,Baa.Finolhufaru,0,0,LD1504,0,0,0,72.93462489495958,5.184371059956535
B,Uninhabited,5.175014514358933,283,72.99552705199876,284,N,Mendhoo,Other,0,B.Mendhoo,0,0,LD0833,0,0,0,72.99552705199876,5.175014514358933
B,Uninhabited,5.181170427306959,284,73.03214739977803,285,N,,Other,0,,0,0,LD1222,0,0,0,73.03214739977803,5.181170427306959
B,Uninhabited,5.166695500727126,285,73.0566567261398,286,N,,Tourism,0,,0,0,LD0991,0,0,0,73.0566567261398,5.166695500727126
B,Uninhabited,5.162762576745901,286,73.05275393229064,287,N,Horubadhoo,Tourism,0,B.Horubadhoo,0,0,LD0185,0,0,0,73.05275393229064,5.162762576745901
B,Uninhabited,5.206734897914398,287,73.08466365860134,288,N,Mudhdhoo,Tourism,0,B.Mudhdhoo,0,0,LD1015,0,0,0,73.08466365860134,5.206734897914398
B,Uninhabited,5.233825305039408,288,73.11373711584561,289,N,Finolhas,Tourism,0,B.Finolhas,0,0,LD1041,0,0,0,73.11373711584561,5.233825305039408
B,Uninhabited,5.267161074300833,289,73.12839119554576,290,N,Milaidhoo,Tourism,0,B.Milaidhoo,0,0,LD1075,0,0,0,73.12839119554576,5.267161074300833
B,Uninhabited,5.26887716243879,290,73.16098066683685,291,N,Madhirivaadhoo,Other,0,B.Madhirivaadhoo,0,0,LD0841,0,0,0,73.16098066683685,5.26887716243879
B,Uninhabited,5.262286173463895,291,73.15528516232834,292,N,Thiladhoo,Tourism,0,B.Thiladhoo,0,0,LD0608,0,0,0,73.15528516232834,5.262286173463895
B,Uninhabited,5.248046248961516,292,73.15068176999795,293,N,Dhoogan'dufinolhu,Other,0,B.Dhoogan'dufinolhu,0,0,LD1216,0,0,0,73.15068176999795,5.248046248961516
B,Uninhabited,5.235218666622825,293,73.13852675769614,294,N,Dhigudhefaru,Other,0,B.Dhigudhefaru,0,0,LD0076,0,0,0,73.13852675769614,5.235218666622825
B,Uninhabited,5.25510293747619,294,73.16348748460614,295,N,Fonimagoodhoo,Tourism,0,B.Fonimagoodhoo,0,0,LD0451,0,0,0,73.16348748460614,5.25510293747619
B,Uninhabited,5.235921618001724,295,73.16809894992866,296,N,Dhandhoo,Other,0,B.Dhandhoo,0,0,LD0910,0,0,0,73.16809894992866,5.235921618001724
B,Uninhabited,5.217098044261964,296,73.15353388567914,297,N,Hirundhoo,Tourism,0,B.Hirundhoo,0,0,LD0732,0,0,0,73.15353388567914,5.217098044261964
B,Uninhabited,5.207489805312592,297,73.15287646033792,298,N,Huraafaru,Other,0,B.Huraafaru,0,0,LD1215,0,0,0,73.15287646033792,5.207489805312592
B,Uninhabited,5.187266636489374,298,73.16346880388552,299,N,Aidhoo,Agriculture,0,B.Aidhoo,0,0,LD0164,0,0,0,73.16346880388552,5.187266636489374
B,Uninhabited,5.190976098678864,299,73.13206908832967,300,N,Kihaadhuffaru,Tourism,0,B.Kihaadhuffaru,0,0,LD1197,0,0,0,73.13206908832967,5.190976098678864
B,Uninhabited,5.183270335029701,300,73.13268755012852,301,N,Hanifaru,Other,0,B.Hanifaru,0,0,LD0601,0,0,0,73.13268755012852,5.183270335029701
B,Uninhabited,5.14148463141091,301,73.1146516264557,302,N,Hibalhidhoo,Other,0,B.Hibalhidhoo,0,0,LD0438,0,0,0,73.1146516264557,5.14148463141091
B,Uninhabited,5.126290402151424,302,73.08416685269823,303,N,Nelivarufinolhu,Other,0,B.Nelivarufinolhu,0,0,LD0466,0,0,0,73.08416685269823,5.126290402151424
B,Uninhabited,5.112368459345157,303,73.07749598615264,304,N,Kunfunadhoo,Tourism,0,B.Kunfunadhoo,0,0,LD0217,0,0,0,73.07749598615264,5.112368459345157
B,Uninhabited,5.092893146437867,304,73.06271786597938,305,N,Maaddoo,Other,0,B.Maaddoo,0,0,LD0535,0,0,0,73.06271786597938,5.092893146437867
B,Uninhabited,5.07131670371632,305,73.03177725738037,306,N,Maaddoohulhudhoo,Other,0,B.Maaddoohulhudhoo,0,0,LD0889,0,0,0,73.03177725738037,5.07131670371632
B,Uninhabited,5.063207222832212,306,73.03121149762619,307,N,Miriandhoo,Tourism,0,B.Miriandhoo,0,0,LD0147,0,0,0,73.03121149762619,5.063207222832212
B,Uninhabited,5.028893289442774,307,72.99172932795236,308,N,Kudadhoo,Agriculture,0,B.Kudadhoo,0,0,LD0544,0,0,0,72.99172932795236,5.028893289442774
B,Uninhabited,5.011133222583048,308,72.9517879298102,309,N,Kanufushi,Tourism,0,B.Kanufushi,0,0,LD0022,0,0,0,72.9517879298102,5.011133222583048
B,Uninhabited,5.00917728530699,309,72.94193920440539,310,N,Maamaduvvari,Other,0,B.Maamaduvvari,0,0,LD0617,0,0,0,72.94193920440539,5.00917728530699
B,Uninhabited,5.001298264044238,310,72.90588617224329,311,N,Olhugiri,Other,0,B.Olhugiri,0,0,LD0672,0,0,0,72.90588617224329,5.001298264044238
B,Uninhabited,5.008042623457138,311,72.85740549374161,312,N,Bodufinolhu,Other,0,B.Bodufinolhu,0,0,LD0418,0,0,0,72.85740549374161,5.008042623457138
B,Uninhabited,5.039641776343232,312,72.88136025632889,313,N,Dhunikolhu,Tourism,0,B.Dhunikolhu,0,0,LD1146,0,0,0,72.88136025632889,5.039641776343232
B,Uninhabited,5.062051590551719,313,72.8370784006048,314,N,Gaavilin'gili,Other,0,B.Gaavilin'gili,0,0,LD0410,0,0,0,72.8370784006048,5.062051590551719
B,Uninhabited,5.063873337904021,314,72.85640067820766,315,N,En'boodhoo,Other,0,B.En'boodhoo,0,0,LD1200,0,0,0,72.85640067820766,5.063873337904021
B,Uninhabited,5.078316264207116,315,72.87809621925581,316,N,Muthaafushi,Other,0,B.Muthaafushi,0,0,LD1066,0,0,0,72.87809621925581,5.078316264207116
B,Uninhabited,5.133838254400058,316,72.91014963681816,317,N,Vakkaru,Tourism,0,B.Vakkaru,0,0,LD0660,0,0,0,72.91014963681816,5.133838254400058
B,Uninhabited,5.352148260111549,317,72.98978624471196,318,N,Dhigufaruvinagan'du,Tourism,0,B.Dhigufaruvinagan'du,0,0,LD0440,0,0,0,72.98978624471196,5.352148260111549
B,Uninhabited,5.342148270976201,318,72.96879489156693,319,N,Anhenunfushi,Agriculture,0,B.Anhenunfushi,0,0,LD0454,0,0,0,72.96879489156693,5.342148270976201
B,Uninhabited,5.33494853210571,319,72.95253686694771,320,N,Maarikilu,Agriculture,0,B.Maarikilu,0,0,LD1153,0,0,0,72.95253686694771,5.33494853210571
B,Uninhabited,4.882160947617986,320,72.89676980073244,321,N,Boadhaafushifinolhu,Other,0,B.Boadhaafushifinolhu,0,0,LD1280,0,0,0,72.89676980073244,4.882160947617986
B,Uninhabited,4.877824593385289,321,72.87970358182871,322,N,Innafushi,Other,0,B.Innafushi,0,0,LD0999,0,0,0,72.87970358182871,4.877824593385289
B,Uninhabited,4.816154871287793,322,72.89038517100754,323,N,Mathifaru,Other,0,B.Mathifaru,0,0,LD0968,0,0,0,72.89038517100754,4.816154871287793
B,Uninhabited,4.817463765974751,323,72.9100004218391,324,N,Dhashufaruhuraa,Other,0,B.Dhashufaruhuraa,0,0,LD1054,0,0,0,72.9100004218391,4.817463765974751
B,Uninhabited,5.01424661275852,324,72.96332624691743,325,N,Kanufusheegaathufinolhu,Other,0,B.Kanufusheegaathufinolhu,0,0,LD0197,0,0,0,72.96332624691743,5.01424661275852
B,Uninhabited,5.016095281619067,325,72.96696187142854,326,N,Medhufinolhugaathufinolhu,Other,0,B.Medhufinolhugaathufinolhu,0,0,LD0135,0,0,0,72.96696187142854,5.016095281619067
Dh,Uninhabited,2.911321223778141,326,72.86602181503453,327,N,Vommuli,Tourism,0,Dh.Vommuli,0,0,LD0012,0,0,0,72.86602181503453,2.911321223778141
Dh,Uninhabited,2.725403569610414,327,73.00276522088254,328,N,Vaanee,Other,0,Dh.Vaanee,0,0,LD0019,0,0,0,73.00276522088254,2.725403569610414
Dh,Uninhabited,2.696477133030739,328,72.85097915440119,329,N,Kedhigan'du,Tourism,0,Dh.Kedhigan'du,0,0,LD0104,0,0,0,72.85097915440119,2.696477133030739
Dh,Uninhabited,2.790714771841079,329,73.02555103574068,330,N,Ayyakaloahuraa,Other,0,Dh.Ayyakaloahuraa,0,0,LD0107,0,0,0,73.02555103574068,2.790714771841079
Dh,Uninhabited,2.706594862103669,330,72.98264605018264,331,N,Issari,Agriculture,0,Dh.Issari,0,0,LD0171,0,0,0,72.98264605018264,2.706594862103669
Dh,Uninhabited,2.78049967690142,331,73.02507051003373,332,N,Kiraidhoo,Agriculture,0,Dh.Kiraidhoo,0,0,LD0312,0,0,0,73.02507051003373,2.78049967690142
Dh,Uninhabited,3.003154579877322,332,73.00045051105968,333,N,Meedhuffushi,Tourism,0,Dh.Meedhuffushi,0,0,LD0337,0,0,0,73.00045051105968,3.003154579877322
Dh,Uninhabited,2.688073787338925,333,72.85929386992304,334,N,Maafushi,Tourism,0,Dh.Maafushi,0,0,LD0338,0,0,0,72.85929386992304,2.688073787338925
Dh,Uninhabited,2.856666263723194,334,73.02545637330596,335,N,Hulhuvahi,Other,0,Dh.Hulhuvahi,0,0,LD0352,0,0,0,73.02545637330596,2.856666263723194
Dh,Uninhabited,2.732234511711809,335,73.01139704344573,336,N,Kan'dinmaa,Tourism,0,Dh.Kan'dinmaa,0,0,LD0400,0,0,0,73.01139704344573,2.732234511711809
Dh,Uninhabited,2.917708740745236,336,72.88367889367144,337,N,Dhoores,Tourism,0,Dh.Dhoores,0,0,LD0448,0,0,0,72.88367889367144,2.917708740745236
Dh,Uninhabited,2.755213721992103,337,73.02254655570883,338,N,Thilabolhufushi,Agriculture,0,Dh.Thilabolhufushi,0,0,LD0503,0,0,0,73.02254655570883,2.755213721992103
Dh,Uninhabited,2.970565569165726,338,72.99070885101162,339,N,Uhdhoo,Agriculture,0,Dh.Uhdhoo,0,0,LD0530,0,0,0,72.99070885101162,2.970565569165726
Dh,Uninhabited,2.957024108640312,339,72.98537357757156,340,N,Lhohi,Agriculture and Fisheries,0,Dh.Lhohi,0,0,LD0636,0,0,0,72.98537357757156,2.957024108640312
Dh,Uninhabited,2.677780588725323,340,72.92810907191212,341,N,En'boodhoofushi,Tourism,0,Dh.En'boodhoofushi,0,0,LD0649,0,0,0,72.92810907191212,2.677780588725323
Dh,Uninhabited,2.766933054743557,341,73.02379177669742,342,N,Thinhuraa,Other,0,Dh.Thinhuraa,0,0,LD0697,0,0,0,73.02379177669742,2.766933054743557
Dh,Uninhabited,2.73056615751104,342,72.88796477334382,343,N,Vallalhohi,Other,0,Dh.Vallalhohi,0,0,LD0723,0,0,0,72.88796477334382,2.73056615751104
Dh,Uninhabited,2.884186280655581,343,72.83739032101779,344,N,Maadheli,Other,0,Dh.Maadheli,0,0,LD0741,0,0,0,72.83739032101779,2.884186280655581
Dh,Uninhabited,2.962854274567414,344,72.94670733987527,345,N,Faandhoo,Other,0,Dh.Faandhoo,0,0,LD0747,0,0,0,72.94670733987527,2.962854274567414
Dh,Uninhabited,2.924033401449781,345,73.02717992851038,346,N,Kanneiyfaru,Other,0,Dh.Kanneiyfaru,0,0,LD0755,0,0,0,73.02717992851038,2.924033401449781
Dh,Uninhabited,2.704376058647783,346,72.88263919679828,347,N,Valla,Other,0,Dh.Valla,0,0,LD0758,0,0,0,72.88263919679828,2.704376058647783
Dh,Uninhabited,2.712233005774176,347,72.98803792868623,348,N,Hiriyafushi,Other,0,Dh.Hiriyafushi,0,0,LD0772,0,0,0,72.98803792868623,2.712233005774176
Dh,Uninhabited,2.787298462511362,348,73.02549485672783,349,N,Dhebaidhoo,Other,0,Dh.Dhebaidhoo,0,0,LD0831,0,0,0,73.02549485672783,2.787298462511362
Dh,Uninhabited,2.68065665300909,349,72.93272829376313,350,N,Olhuveli,Tourism,0,Dh.Olhuveli,0,0,LD0932,0,0,0,72.93272829376313,2.68065665300909
Dh,Uninhabited,2.88205722192848,350,73.02563195208593,351,N,Maalefaru,Other,0,Dh.Maalefaru,0,0,LD0957,0,0,0,73.02563195208593,2.88205722192848
Dh,Uninhabited,2.894504334006934,351,72.90481329106946,352,N,Hudhufusheefinolhu,Other,0,Dh.Hudhufusheefinolhu,0,0,LD0974,0,0,0,72.90481329106946,2.894504334006934
Dh,Uninhabited,2.750306613932737,352,72.88746685068438,353,N,Minimasgali,Other,0,Dh.Minimasgali,0,0,LD1077,0,0,0,72.88746685068438,2.750306613932737
Dh,Uninhabited,2.703661951034017,353,72.84710720612415,354,N,Bodufushi,Other,0,Dh.Bodufushi,0,0,LD1106,0,0,0,72.84710720612415,2.703661951034017
Dh,Uninhabited,2.756734371138211,354,73.02304470066979,355,N,Kudathilabolhufushi,Other,0,Dh.Kudathilabolhufushi,0,0,LD1133,0,0,0,73.02304470066979,2.756734371138211
Dh,Uninhabited,2.97975692276698,355,73.0157140590627,356,N,Velavaru,Tourism,0,Dh.Velavaru,0,0,LD1185,0,0,0,73.0157140590627,2.97975692276698
Dh,Uninhabited,2.947643851030394,356,72.91468205817756,357,N,Maagau,Tourism,0,Dh.Maagau,0,0,LD1188,0,0,0,72.91468205817756,2.947643851030394
Dh,Uninhabited,2.986254771468954,357,73.00933475803834,358,N,,Tourism,0,,0,0,LD1387,0,0,0,73.00933475803834,2.986254771468954
Dh,Uninhabited,2.923190378245894,358,72.9602801941736,359,N,Sarakafushi,Other,0,Dh.Sarakafushi,0,0,LD1395,0,0,0,72.9602801941736,2.923190378245894
Dh,Uninhabited,2.9237927683263,359,72.96880398532217,360,N,Boarikifinolhu,Other,0,Dh.Boarikifinolhu,0,0,LD1396,0,0,0,72.96880398532217,2.9237927683263
Dh,Uninhabited,2.993624356418745,360,73.0018543856539,361,N,,Other,0,,0,0,LD1649,0,0,0,73.0018543856539,2.993624356418745
Dh,Uninhabited,2.797879373933839,361,73.025388972636,362,N,Gemendhoo,Other,0,Dh.Gemendhoo,0,0,LD0521,0,0,0,73.025388972636,2.797879373933839
Dh,Uninhabited,2.801087020165798,362,73.02582956642934,363,N,Fenfushi,Agriculture,0,Dh.Fenfushi,0,0,LD0084,0,0,0,73.02582956642934,2.801087020165798
Dh,Uninhabited,2.803691380542359,363,73.02608384020928,364,N,Hinaidhoo,Other,0,Dh.Hinaidhoo,0,0,LD0571,0,0,0,73.02608384020928,2.803691380542359
Dh,Uninhabited,2.806777277078716,364,73.02547599922143,365,N,Bulhalafushi,Other,0,Dh.Bulhalafushi,0,0,LD0864,0,0,0,73.02547599922143,2.806777277078716
Dh,Uninhabited,2.793805994472217,365,73.02564950311809,366,N,Than'balhaidhoo,Other,0,Dh.Than'balhaidhoo,0,0,LD0673,0,0,0,73.02564950311809,2.793805994472217
Dh,Uninhabited,2.813663459733434,366,73.02639714545082,367,N,Olhufushi,Other,0,Dh.Olhufushi,0,0,LD0688,0,0,0,73.02639714545082,2.813663459733434
F,Uninhabited,3.315886765650214,367,72.89785309018245,368,N,Kan'dumoonufushi,Other,0,F.Kan'dumoonufushi,0,0,LD1104,0,0,0,72.89785309018245,3.315886765650214
F,Uninhabited,3.258547159598952,368,72.92854966813097,369,N,Makunueri,Other,0,F.Makunueri,0,0,LD0752,0,0,0,72.92854966813097,3.258547159598952
F,Uninhabited,3.253889493431288,369,72.81858219843461,370,N,Himithi,Other,0,F.Himithi,0,0,LD1141,0,0,0,72.81858219843461,3.253889493431288
F,Uninhabited,3.242947918788488,370,72.83590662885196,371,N,Minimasgali,Other,0,F.Minimasgali,0,0,LD0417,0,0,0,72.83590662885196,3.242947918788488
F,Uninhabited,3.134022590435192,371,73.01797293854413,372,N,En'bulufushi,Other,0,F.En'bulufushi,0,0,LD0826,0,0,0,73.01797293854413,3.134022590435192
F,Uninhabited,3.138898583831799,372,73.00842406856609,373,N,Adhangau,Other,0,F.Adhangau,0,0,LD0013,0,0,0,73.00842406856609,3.138898583831799
F,Uninhabited,3.200676295507236,373,72.99782435459223,374,N,Jinnathugau,Other,0,F.Jinnathugau,0,0,LD0845,0,0,0,72.99782435459223,3.200676295507236
F,Uninhabited,3.21317961595102,374,72.98201908490161,375,N,Faanumaahuraa,Other,0,F.Faanumaahuraa,0,0,LD1143,0,0,0,72.98201908490161,3.21317961595102
F,Uninhabited,3.213182487237892,375,73.03711473689863,376,N,Filitheyo,Tourism,0,F.Filitheyo,0,0,LD0819,0,0,0,73.03711473689863,3.213182487237892
F,Uninhabited,3.246612772224027,376,73.02512856640493,377,N,Dhiguvarufinolhu,Other,0,F.Dhiguvarufinolhu,0,0,LD0233,0,0,0,73.02512856640493,3.246612772224027
F,Uninhabited,3.243465194273556,377,72.97908591027081,378,N,Maafushi,Other,0,F.Maafushi,0,0,LD0925,0,0,0,72.97908591027081,3.243465194273556
F,Uninhabited,3.266843577501057,378,73.01058786558977,379,N,Madivaruhuraa,Other,0,F.Madivaruhuraa,0,0,LD1135,0,0,0,73.01058786558977,3.266843577501057
F,Uninhabited,3.274189652581607,379,72.9985499648312,380,N,Vilin'gilivarufinolhu,Other,0,F.Vilin'gilivarufinolhu,0,0,LD0975,0,0,0,72.9985499648312,3.274189652581607
GA,Uninhabited,0.846597556546371,380,73.40794228109444,381,N,Maamutaa,Tourism,0,GA.Maamutaa,0,0,LD0024,0,0,0,73.40794228109444,0.846597556546371
GA,Uninhabited,0.658730646814526,381,73.43861884348141,382,N,Keredhdhoo,Other,0,GA.Keredhdhoo,0,0,LD0028,0,0,0,73.43861884348141,0.658730646814526
GA,Uninhabited,0.389521415701672,382,73.55613821965025,383,N,Maafehelaa,Other,0,GA.Maafehelaa,0,0,LD0054,0,0,0,73.55613821965025,0.389521415701672
GA,Uninhabited,0.684159092173186,383,73.2013702938093,384,N,Fulan'gi,Other,0,GA.Fulan'gi,0,0,LD0056,0,0,0,73.2013702938093,0.684159092173186
GA,Uninhabited,0.794920009297927,384,73.22489752999573,385,N,Beyrumauddoo,Other,0,GA.Beyrumauddoo,0,0,LD0071,0,0,0,73.22489752999573,0.794920009297927
GA,Uninhabited,0.513389627363195,385,73.54228284480412,386,N,Kodeyvilin'gili,Other,0,GA.Kodeyvilin'gili,0,0,LD0083,0,0,0,73.54228284480412,0.513389627363195
GA,Uninhabited,0.381624770423476,386,73.55730953192067,387,N,Innarehaa,Other,0,GA.Innarehaa,0,0,LD0093,0,0,0,73.55730953192067,0.381624770423476
GA,Uninhabited,0.678999743667731,387,73.43963963593515,388,N,Kodahuttaa,Tourism,0,GA.Kodahuttaa,0,0,LD0101,0,0,0,73.43963963593515,0.678999743667731
GA,Uninhabited,0.541315639750315,388,73.12382548592706,389,N,Minimessaa,Other,0,GA.Minimessaa,0,0,LD0136,0,0,0,73.12382548592706,0.541315639750315
GA,Uninhabited,0.54058672713067,389,73.34616106520777,390,N,Hirihuttaa,Other,0,GA.Hirihuttaa,0,0,LD0151,0,0,0,73.34616106520777,0.54058672713067
GA,Uninhabited,0.582653717441101,390,73.51375662212976,391,N,Mahahdhoo,Other,0,GA.Mahahdhoo,0,0,LD0153,0,0,0,73.51375662212976,0.582653717441101
GA,Uninhabited,0.853778254654536,391,73.20922736894225,392,N,Maarandhoo,Other,0,GA.Maarandhoo,0,0,LD0156,0,0,0,73.20922736894225,0.853778254654536
GA,Uninhabited,0.372379856072181,392,73.55380496447987,393,N,Medhuburiyaa,Other,0,GA.Medhuburiyaa,0,0,LD0188,0,0,0,73.55380496447987,0.372379856072181
GA,Uninhabited,0.60392579475397,393,73.4865302703249,394,N,Vodamulaa,Other,0,GA.Vodamulaa,0,0,LD0212,0,0,0,73.4865302703249,0.60392579475397
GA,Uninhabited,0.45211602309423,394,73.53508730811502,395,N,Araigahthaa,Other,0,GA.Araigahthaa,0,0,LD0222,0,0,0,73.53508730811502,0.45211602309423
GA,Uninhabited,0.866305979733577,395,73.19021853419372,396,N,Kan'duvilin'gili,Other,0,GA.Kan'duvilin'gili,0,0,LD0228,0,0,0,73.19021853419372,0.866305979733577
GA,Uninhabited,0.361588217577582,396,73.54404947180825,397,N,Medharehaa,Other,0,GA.Medharehaa,0,0,LD0229,0,0,0,73.54404947180825,0.361588217577582
GA,Uninhabited,0.845599786011048,397,73.17969697451238,398,N,Maagihuttaa,Other,0,GA.Maagihuttaa,0,0,LD0237,0,0,0,73.17969697451238,0.845599786011048
GA,Uninhabited,0.811948256231084,398,73.20714777321362,399,N,Maakanaarataa,Other,0,GA.Maakanaarataa,0,0,LD0301,0,0,0,73.20714777321362,0.811948256231084
GA,Uninhabited,0.569775306109564,399,73.5200301355554,400,N,Funadhooviligillaa,Other,0,GA.Funadhooviligillaa,0,0,LD0373,0,0,0,73.5200301355554,0.569775306109564
GA,Uninhabited,0.60469612395053,400,73.30921373187195,401,N,Dhevvalaabadhoo,Other,0,GA.Dhevvalaabadhoo,0,0,LD0380,0,0,0,73.30921373187195,0.60469612395053
GA,Uninhabited,0.767805824282774,401,73.42909934636921,402,N,Raaverrehaa,Fisheries,0,GA.Raaverrehaa,0,0,LD0383,0,0,0,73.42909934636921,0.767805824282774
Gaafu Alifu,Uninhabited,0.519018255793994,402,73.21595014138131,403,N,Viligalaa,Other,0,Gaafu Alifu.Viligalaa,0,0,LD0396,0,0,0,73.21595014138131,0.519018255793994
GA,Uninhabited,0.733632428432493,403,73.43353074427475,404,N,Kooddoo,Other,0,GA.Kooddoo,0,0,LD0443,0,0,0,73.43353074427475,0.733632428432493
GA,Uninhabited,0.381080737900231,404,73.49776407593053,405,N,Bakehthaa,Other,0,GA.Bakehthaa,0,0,LD0457,0,0,0,73.49776407593053,0.381080737900231
GA,Uninhabited,0.649315424437332,405,73.13586187930564,406,N,Kisserahaa,Other,0,GA.Kisserahaa,0,0,LD0456,0,0,0,73.13586187930564,0.649315424437332
GA,Uninhabited,0.434526065378656,406,73.56940957486732,407,N,Kaludirehaa,Other,0,GA.Kaludirehaa,0,0,LD0467,0,0,0,73.56940957486732,0.434526065378656
GA,Uninhabited,0.478787441724235,407,73.55800980861224,408,N,Dhiyadhoo,Other,0,GA.Dhiyadhoo,0,0,LD0514,0,0,0,73.55800980861224,0.478787441724235
GA,Uninhabited,0.630218216094873,408,73.34441074257623,409,N,Hinaamaagalaa,Other,0,GA.Hinaamaagalaa,0,0,LD0540,0,0,0,73.34441074257623,0.630218216094873
GA,Uninhabited,0.530243809070014,409,73.53717146415146,410,N,Galamedhuvaa,Other,0,GA.Galamedhuvaa,0,0,LD0542,0,0,0,73.53717146415146,0.530243809070014
GA,Uninhabited,0.413030989898761,410,73.5723479574826,411,N,Boduhuttaa,Other,0,GA.Boduhuttaa,0,0,LD0543,0,0,0,73.5723479574826,0.413030989898761
GA,Uninhabited,0.840952845354239,411,73.18131652817968,412,N,Baaberehutta,Other,0,GA.Baaberehutta,0,0,LD0590,0,0,0,73.18131652817968,0.840952845354239
GA,Uninhabited,0.84837644651153,412,73.17893192766324,413,N,Kalhehuttaa,Other,0,GA.Kalhehuttaa,0,0,LD0595,0,0,0,73.17893192766324,0.84837644651153
GA,Uninhabited,0.562494935756663,413,73.52605180399406,414,N,Funadhoo,Agriculture,0,GA.Funadhoo,0,0,LD0613,0,0,0,73.52605180399406,0.562494935756663
GA,Uninhabited,0.505758870208084,414,73.45383618119756,415,N,Han'dahaa,Tourism,0,GA.Han'dahaa,0,0,LD0618,0,0,0,73.45383618119756,0.505758870208084
GA,Uninhabited,0.89677455096086,415,73.34936757567118,416,N,Kudalafari,Other,0,GA.Kudalafari,0,0,LD0631,0,0,0,73.34936757567118,0.89677455096086
GA,Uninhabited,0.885255810503558,416,73.33626248669553,417,N,Matu,Other,0,GA.Matu,0,0,LD0749,0,0,0,73.33626248669553,0.885255810503558
GA,Uninhabited,0.855142977033728,417,73.4030173859544,418,N,Bodehuttaa,Other,0,GA.Bodehuttaa,0,0,LD0787,0,0,0,73.4030173859544,0.855142977033728
GA,Uninhabited,0.846500811391212,418,73.20767140307636,419,N,Hurendhoo,Other,0,GA.Hurendhoo,0,0,LD0792,0,0,0,73.20767140307636,0.846500811391212
GA,Uninhabited,0.713875754207109,419,73.28546031178988,420,N,Fenfuttaa,Other,0,GA.Fenfuttaa,0,0,LD0799,0,0,0,73.28546031178988,0.713875754207109
GA,Uninhabited,0.671831590635898,420,73.43849559218557,421,N,Falhumaafushi,Tourism,0,GA.Falhumaafushi,0,0,LD0802,0,0,0,73.43849559218557,0.671831590635898
GA,Uninhabited,0.842821158622166,421,73.18057106196684,422,N,Kodagehuttaa,Other,0,GA.Kodagehuttaa,0,0,LD0805,0,0,0,73.18057106196684,0.842821158622166
GA,Uninhabited,0.819974934819157,422,73.20188994175399,423,N,Lhossaa,Other,0,GA.Lhossaa,0,0,LD0806,0,0,0,73.20188994175399,0.819974934819157
GA,Uninhabited,0.689939281740243,423,73.44117153925149,424,N,Dhigurah,Tourism,0,GA.Dhigurah,0,0,LD0811,0,0,0,73.44117153925149,0.689939281740243
GA,Uninhabited,0.571391781637739,424,73.19164864304189,425,N,Dhevvaamaagalaa,Other,0,GA.Dhevvaamaagalaa,0,0,LD0820,0,0,0,73.19164864304189,0.571391781637739
GA,Uninhabited,0.849083404082096,425,73.24248770108042,426,N,Hithaadhoo,Other,0,GA.Hithaadhoo,0,0,LD0828,0,0,0,73.24248770108042,0.849083404082096
GA,Uninhabited,0.727145035799965,426,73.28500332438323,427,N,Kendheraa,Other,0,GA.Kendheraa,0,0,LD1045,0,0,0,73.28500332438323,0.727145035799965
GA,Uninhabited,0.826812891428057,427,73.2522329029669,428,N,Hithaadhoogalaa,Other,0,GA.Hithaadhoogalaa,0,0,LD0270,0,0,0,73.2522329029669,0.826812891428057
GA,Uninhabited,0.705844569042489,428,73.33065601563011,429,N,Boadduvaa,Other,0,GA.Boadduvaa,0,0,LD0869,0,0,0,73.33065601563011,0.705844569042489
GA,Uninhabited,0.857587901302708,429,73.1794890793537,430,N,Melaimaa,Other,0,GA.Melaimaa,0,0,LD0878,0,0,0,73.1794890793537,0.857587901302708
GA,Uninhabited,0.872390865112157,430,73.24459587184771,431,N,Faruhulhedhoo,Other,0,GA.Faruhulhedhoo,0,0,LD0881,0,0,0,73.24459587184771,0.872390865112157
GA,Uninhabited,0.461509584128704,431,73.56394365098113,432,N,Maarehaa,Other,0,GA.Maarehaa,0,0,LD0911,0,0,0,73.56394365098113,0.461509584128704
GA,Uninhabited,0.533787326456708,432,73.19004362431166,433,N,Funamauddaa,Tourism,0,GA.Funamauddaa,0,0,LD0926,0,0,0,73.19004362431166,0.533787326456708
GA,Uninhabited,0.52146084486189,433,73.53997966379175,434,N,Baavanadhoo,Other,0,GA.Baavanadhoo,0,0,LD0945,0,0,0,73.53997966379175,0.52146084486189
GA,Uninhabited,0.595713980919157,434,73.50052805367336,435,N,Munandhuvaa,Other,0,GA.Munandhuvaa,0,0,LD0946,0,0,0,73.50052805367336,0.595713980919157
GA,Uninhabited,0.422055080480053,435,73.57091737965263,436,N,Bihurehaa,Other,0,GA.Bihurehaa,0,0,LD0989,0,0,0,73.57091737965263,0.422055080480053
GA,Uninhabited,0.874404088062351,436,73.2555068890577,437,N,Faruhulhudhoo,Other,0,GA.Faruhulhudhoo,0,0,LD1006,0,0,0,73.2555068890577,0.874404088062351
GA,Uninhabited,0.408043016141795,437,73.56977970563683,438,N,Idhimaa,Other,0,GA.Idhimaa,0,0,LD1017,0,0,0,73.56977970563683,0.408043016141795
GA,Uninhabited,0.703607481572458,438,73.44005920844727,439,N,Hulhimendhoo,Other,0,GA.Hulhimendhoo,0,0,LD1032,0,0,0,73.44005920844727,0.703607481572458
GA,Uninhabited,0.688667481046145,439,73.26671862393414,440,N,Maadhigavara,Other,0,GA.Maadhigavara,0,0,LD1057,0,0,0,73.26671862393414,0.688667481046145
GA,Uninhabited,0.50578073750622,440,73.4981822677552,441,N,Kon'deymatheelaabadhoo,Other,0,GA.Kon'deymatheelaabadhoo,0,0,LD1171,0,0,0,73.4981822677552,0.50578073750622
GA,Uninhabited,0.586932902636514,441,73.0933254678785,442,N,Meradhoo,Tourism,0,GA.Meradhoo,0,0,LD0462,0,0,0,73.0933254678785,0.586932902636514
GA,Uninhabited,0.542710670042866,442,73.53457043661281,443,N,Dhigudhoo,Other,0,GA.Dhigudhoo,0,0,LD0174,0,0,0,73.53457043661281,0.542710670042866
GA,Uninhabited,0.368451765708731,443,73.55285596673484,444,N,Mahthurehaa,Other,0,GA.Mahthurehaa,0,0,LD0242,0,0,0,73.55285596673484,0.368451765708731
GA,Uninhabited,0.467086892639729,444,73.56188487626606,445,N,Medhehuttaa,Other,0,GA.Medhehuttaa,0,0,LD0376,0,0,0,73.56188487626606,0.467086892639729
GA,Uninhabited,0.415695826296285,445,73.57253737528585,446,N,Fenrehaa,Other,0,GA.Fenrehaa,0,0,LD1088,0,0,0,73.57253737528585,0.415695826296285
GA,Uninhabited,0.409673508048185,446,73.56751544917691,447,N,Bodubon'deyyaa,Other,0,GA.Bodubon'deyyaa,0,0,LD1156,0,0,0,73.56751544917691,0.409673508048185
GA,Uninhabited,0.671930179416473,447,73.2826578146367,448,N,Maadhigavara,Other,0,GA.Maadhigavara,0,0,LD1680,0,0,0,73.2826578146367,0.671930179416473
GDh,Uninhabited,0.510732457866166,448,73.14779724076546,449,N,Goshi,Other,0,GDh.Goshi,0,0,LD0928,0,0,0,73.14779724076546,0.510732457866166
GDh,Uninhabited,0.494902918059929,449,73.17216368343834,450,N,Baulhegalla,Other,0,GDh.Baulhegalla,0,0,LD0431,0,0,0,73.17216368343834,0.494902918059929
GDh,Uninhabited,0.398540243005229,450,73.36975045287595,451,N,Ulegalaa,Other,0,GDh.Ulegalaa,0,0,LD0835,0,0,0,73.36975045287595,0.398540243005229
GDh,Uninhabited,0.369711285932455,451,73.37938732153162,452,N,Maagalaa,Other,0,GDh.Maagalaa,0,0,LD0762,0,0,0,73.37938732153162,0.369711285932455
GDh,Uninhabited,0.368079058099554,452,73.39151889183324,453,N,Kodegalaa,Other,0,GDh.Kodegalaa,0,0,LD0728,0,0,0,73.39151889183324,0.368079058099554
GDh,Uninhabited,0.337437611457569,453,73.51050660209371,454,N,Maavaaruloo,Other,0,GDh.Maavaaruloo,0,0,LD0357,0,0,0,73.51050660209371,0.337437611457569
GDh,Uninhabited,0.332555624944283,454,73.4979173040257,455,N,Kodaanahuttaa,Other,0,GDh.Kodaanahuttaa,0,0,LD1164,0,0,0,73.4979173040257,0.332555624944283
GDh,Uninhabited,0.328072740917198,455,73.49711549893739,456,N,Farehulhehdhoo,Other,0,GDh.Farehulhehdhoo,0,0,LD0010,0,0,0,73.49711549893739,0.328072740917198
GDh,Uninhabited,0.324519377115516,456,73.4940205247481,457,N,Dhoonirehaa,Agriculture,0,GDh.Dhoonirehaa,0,0,LD0814,0,0,0,73.4940205247481,0.324519377115516
GDh,Uninhabited,0.324697122042286,457,73.49142961872761,458,N,Menthandhuvaa,Agriculture,0,GDh.Menthandhuvaa,0,0,LD0770,0,0,0,73.49142961872761,0.324697122042286
GDh,Uninhabited,0.310497935991371,458,73.47356608229357,459,N,Maavehdhoo,Other,0,GDh.Maavehdhoo,0,0,LD1069,0,0,0,73.47356608229357,0.310497935991371
GDh,Uninhabited,0.277307814142941,459,73.43272101021766,460,N,Gan,Other,0,GDh.Gan,0,0,LD0112,0,0,0,73.43272101021766,0.277307814142941
GDh,Uninhabited,0.312800629099918,460,73.44887409615527,461,N,Veraaviligillaa,Other,0,GDh.Veraaviligillaa,0,0,LD0146,0,0,0,73.44887409615527,0.312800629099918
GDh,Uninhabited,0.335315918654782,461,73.43672404162137,462,N,Kaashidhoo,Other,0,GDh.Kaashidhoo,0,0,LD0607,0,0,0,73.43672404162137,0.335315918654782
GDh,Uninhabited,0.302069754074097,462,73.41664255251051,463,N,Lonudhoohuttaa,Other,0,GDh.Lonudhoohuttaa,0,0,LD0751,0,0,0,73.41664255251051,0.302069754074097
GDh,Uninhabited,0.308757551406969,463,73.41349721547967,464,N,Lonudhoo,Other,0,GDh.Lonudhoo,0,0,LD0381,0,0,0,73.41349721547967,0.308757551406969
GDh,Uninhabited,0.29998367363235,464,73.40407370642423,465,N,Faanehuttaa,Other,0,GDh.Faanehuttaa,0,0,LD1434,0,0,0,73.40407370642423,0.29998367363235
GDh,Uninhabited,0.266922292847713,465,73.37683768728826,466,N,Gazeeraa,Other,0,GDh.Gazeeraa,0,0,LD0430,0,0,0,73.37683768728826,0.266922292847713
GDh,Uninhabited,0.319512455406577,466,73.38064422442318,467,N,Odagallaa,Other,0,GDh.Odagallaa,0,0,LD1019,0,0,0,73.38064422442318,0.319512455406577
GDh,Uninhabited,0.357571081209005,467,73.31970670243238,468,N,Gahevelegalaa,Other,0,GDh.Gahevelegalaa,0,0,LD0032,0,0,0,73.31970670243238,0.357571081209005
GDh,Uninhabited,0.462756606433268,468,73.15483264234163,469,N,Konottaa,Tourism,0,GDh.Konottaa,0,0,LD0940,0,0,0,73.15483264234163,0.462756606433268
GDh,Uninhabited,0.523173200744304,469,73.07434932766542,470,N,Havodigalaa,Other,0,GDh.Havodigalaa,0,0,LD0425,0,0,0,73.07434932766542,0.523173200744304
GDh,Uninhabited,0.51709881148926,470,72.99316782839801,471,N,Kafena,Other,0,GDh.Kafena,0,0,LD0115,0,0,0,72.99316782839801,0.51709881148926
GDh,Uninhabited,0.506409737421914,471,72.98998153935851,472,N,Maagoderehaa,Other,0,GDh.Maagoderehaa,0,0,LD0367,0,0,0,72.98998153935851,0.506409737421914
GDh,Uninhabited,0.500662546126269,472,72.98951342922335,473,N,Kudherataa,Other,0,GDh.Kudherataa,0,0,LD0788,0,0,0,72.98951342922335,0.500662546126269
GDh,Uninhabited,0.496587509193292,473,72.99005291460547,474,N,Rahadhuvaa,Other,0,GDh.Rahadhuvaa,0,0,LD0904,0,0,0,72.99005291460547,0.496587509193292
GDh,Uninhabited,0.487525999382813,474,72.99386432715869,475,N,Kaadehdhoo,Other,0,GDh.Kaadehdhoo,0,0,LD1124,0,0,0,72.99386432715869,0.487525999382813
GDh,Uninhabited,0.492664362987996,475,72.98829861213036,476,N,Maallaarehaa,Other,0,GDh.Maallaarehaa,0,0,LD0578,0,0,0,72.98829861213036,0.492664362987996
GDh,Uninhabited,0.448694329677547,476,72.99831513863766,477,N,Haadhoo,Other,0,GDh.Haadhoo,0,0,LD0778,0,0,0,72.99831513863766,0.448694329677547
GDh,Uninhabited,0.450044289378981,477,72.99785414038797,478,N,Dhinmanaa,Other,0,GDh.Dhinmanaa,0,0,LD0172,0,0,0,72.99785414038797,0.450044289378981
GDh,Uninhabited,0.454321077919075,478,72.9978185278341,479,N,Kudhehulhehdhoo,Other,0,GDh.Kudhehulhehdhoo,0,0,LD0291,0,0,0,72.9978185278341,0.454321077919075
GDh,Uninhabited,0.434867900714979,479,73.00231017957553,480,N,Hunigoderehaa,Other,0,GDh.Hunigoderehaa,0,0,LD0995,0,0,0,73.00231017957553,0.434867900714979
GDh,Uninhabited,0.428391956076005,480,73.00373129042347,481,N,Kadevaarehaa,Other,0,GDh.Kadevaarehaa,0,0,LD0575,0,0,0,73.00373129042347,0.428391956076005
GDh,Uninhabited,0.421318180912582,481,73.00475895742126,482,N,Dhigurehaa,Agriculture,0,GDh.Dhigurehaa,0,0,LD0481,0,0,0,73.00475895742126,0.421318180912582
GDh,Uninhabited,0.418295997963647,482,73.00512656775436,483,N,Uhurehaa,Other,0,GDh.Uhurehaa,0,0,LD0942,0,0,0,73.00512656775436,0.418295997963647
GDh,Uninhabited,0.413224589404745,483,73.00531603660122,484,N,Uherehaa,Other,0,GDh.Uherehaa,0,0,LD0505,0,0,0,73.00531603660122,0.413224589404745
GDh,Uninhabited,0.412400667165528,484,73.00518016241688,485,N,Kodedhoo,Other,0,GDh.Kodedhoo,0,0,LD0791,0,0,0,73.00518016241688,0.412400667165528
GDh,Uninhabited,0.402390197978774,485,73.00500449705083,486,N,Anhenerehaa,Other,0,GDh.Anhenerehaa,0,0,LD1031,0,0,0,73.00500449705083,0.402390197978774
GDh,Uninhabited,0.401401797511876,486,73.00485353098448,487,N,Faredhoo,Other,0,GDh.Faredhoo,0,0,LD0342,0,0,0,73.00485353098448,0.401401797511876
GDh,Uninhabited,0.400204666313448,487,73.00583088135238,488,N,Hulhehdhoo,Other,0,GDh.Hulhehdhoo,0,0,LD0731,0,0,0,73.00583088135238,0.400204666313448
GDh,Uninhabited,0.396561603534324,488,73.0078022967868,489,N,Dhatekarunahuttaa,Other,0,GDh.Dhatekarunahuttaa,0,0,LD0740,0,0,0,73.0078022967868,0.396561603534324
GDh,Uninhabited,0.394829450831824,489,73.00651860434621,490,N,Kautihulhadhoo,Agriculture,0,GDh.Kautihulhadhoo,0,0,LD0846,0,0,0,73.00651860434621,0.394829450831824
GDh,Uninhabited,0.390689579781324,490,73.01275730977163,491,N,Keraminthaa,Agriculture,0,GDh.Keraminthaa,0,0,LD0003,0,0,0,73.01275730977163,0.390689579781324
GDh,Uninhabited,0.392390215741684,491,73.01157957480729,492,N,Han'dhebalanerehaa,Other,0,GDh.Han'dhebalanerehaa,0,0,LD0292,0,0,0,73.01157957480729,0.392390215741684
GDh,Uninhabited,0.393068217295851,492,73.00865288275511,493,N,Lifadhoo,Other,0,GDh.Lifadhoo,0,0,LD0754,0,0,0,73.00865288275511,0.393068217295851
GDh,Uninhabited,0.386262073921738,493,73.01232305383336,494,N,Boderehaa,Other,0,GDh.Boderehaa,0,0,LD0245,0,0,0,73.01232305383336,0.386262073921738
GDh,Uninhabited,0.383673514603917,494,73.01538189443018,495,N,Dhekaamba,Other,0,GDh.Dhekaamba,0,0,LD0042,0,0,0,73.01538189443018,0.383673514603917
GDh,Uninhabited,0.373506619080407,495,73.02230077668918,496,N,Kodurataa,Other,0,GDh.Kodurataa,0,0,LD0537,0,0,0,73.02230077668918,0.373506619080407
GDh,Uninhabited,0.37206361191727,496,73.02412760957414,497,N,Fereythavilin'gili,Other,0,GDh.Fereythavilin'gili,0,0,LD0774,0,0,0,73.02412760957414,0.37206361191727
GDh,Uninhabited,0.370316892712112,497,73.02482221244264,498,N,Thinehuttaa,Other,0,GDh.Thinehuttaa,0,0,LD0652,0,0,0,73.02482221244264,0.370316892712112
GDh,Uninhabited,0.367904642294966,498,73.02540527248951,499,N,Kadhefala,Other,0,GDh.Kadhefala,0,0,LD0815,0,0,0,73.02540527248951,0.367904642294966
GDh,Uninhabited,0.359986019345383,499,73.02598555262003,500,N,Olhimuntaa,Other,0,GDh.Olhimuntaa,0,0,LD0693,0,0,0,73.02598555262003,0.359986019345383
GDh,Uninhabited,0.342962232758358,500,73.02639489507058,501,N,Rodaadhoo,Other,0,GDh.Rodaadhoo,0,0,LD1027,0,0,0,73.02639489507058,0.342962232758358
GDh,Uninhabited,0.340632216125193,501,73.02665269015762,502,N,Farehalehuttaa,Other,0,GDh.Farehalehuttaa,0,0,LD0552,0,0,0,73.02665269015762,0.340632216125193
GDh,Uninhabited,0.329050481476862,502,73.02567691928694,503,N,Kalhehuttaa,Other,0,GDh.Kalhehuttaa,0,0,LD0761,0,0,0,73.02567691928694,0.329050481476862
GDh,Uninhabited,0.325056305081786,503,73.0257812569194,504,N,Neimaahutta,Other,0,GDh.Neimaahutta,0,0,LD0277,0,0,0,73.0257812569194,0.325056305081786
GDh,Uninhabited,0.210548093984015,504,73.16265058859605,505,N,Dhigelaabadhuvaa,Other,0,GDh.Dhigelaabadhuvaa,0,0,LD0006,0,0,0,73.16265058859605,0.210548093984015
GDh,Uninhabited,0.306034254361067,505,73.02939150946345,506,N,Kudhemathaidhoo,Other,0,GDh.Kudhemathaidhoo,0,0,LD0885,0,0,0,73.02939150946345,0.306034254361067
GDh,Uninhabited,0.303914657820794,506,73.0267883288076,507,N,Mathaidhoo,Other,0,GDh.Mathaidhoo,0,0,LD1012,0,0,0,73.0267883288076,0.303914657820794
GDh,Uninhabited,0.306139868938509,507,73.02702065051047,508,N,Fatefandhoo,Other,0,GDh.Fatefandhoo,0,0,LD0941,0,0,0,73.02702065051047,0.306139868938509
GDh,Uninhabited,0.307873854091849,508,73.02576249459469,509,N,Keredhirehaa,Other,0,GDh.Keredhirehaa,0,0,LD1029,0,0,0,73.02576249459469,0.307873854091849
GDh,Uninhabited,0.308359475657282,509,73.02580522900028,510,N,Kaafarataa,Other,0,GDh.Kaafarataa,0,0,LD1496,0,0,0,73.02580522900028,0.308359475657282
GDh,Uninhabited,0.301576019036933,510,73.02858119375541,511,N,Dhiyanegili,Other,0,GDh.Dhiyanegili,0,0,LD1074,0,0,0,73.02858119375541,0.301576019036933
GDh,Uninhabited,0.300575306105597,511,73.0305805792963,512,N,Hevaahulhudhoo,Other,0,GDh.Hevaahulhudhoo,0,0,LD1060,0,0,0,73.0305805792963,0.300575306105597
GDh,Uninhabited,0.288638774122351,512,73.33726220341404,513,N,Vaareyadhuvaa,Other,0,GDh.Vaareyadhuvaa,0,0,LD0511,0,0,0,73.33726220341404,0.288638774122351
GDh,Uninhabited,0.253363348192593,513,73.3309111712314,514,N,Kalherehaa,Other,0,GDh.Kalherehaa,0,0,LD0685,0,0,0,73.3309111712314,0.253363348192593
GDh,Uninhabited,0.317719984529101,514,73.48236186545009,515,N,Kalhehamalaa,Other,0,GDh.Kalhehamalaa,0,0,LD0570,0,0,0,73.48236186545009,0.317719984529101
GDh,Uninhabited,0.309993160452645,515,73.02548107375749,516,N,Bolimathaidhua,Other,0,GDh.Bolimathaidhua,0,0,LD0038,0,0,0,73.02548107375749,0.309993160452645
GDh,Uninhabited,0.313369888718498,516,73.0247839404728,517,N,Kadelerataa,Other,0,GDh.Kadelerataa,0,0,LD0216,0,0,0,73.0247839404728,0.313369888718498
GDh,Uninhabited,0.299350650594989,517,73.03221570527771,518,N,Hakandoo,Other,0,GDh.Hakandoo,0,0,LD0039,0,0,0,73.03221570527771,0.299350650594989
GDh,Uninhabited,0.277647456068634,518,73.35669600939214,519,N,Maguhdhuvaa,Tourism,0,GDh.Maguhdhuvaa,0,0,LD0635,0,0,0,73.35669600939214,0.277647456068634
GDh,Uninhabited,0.253022061924764,519,73.34603643785705,520,N,Mudhimaahutta,Other,0,GDh.Mudhimaahutta,0,0,LD0360,0,0,0,73.34603643785705,0.253022061924764
GDh,Uninhabited,0.260927067183739,520,73.34451978972952,521,N,Bodehuttaa,Other,0,GDh.Bodehuttaa,0,0,LD0302,0,0,0,73.34451978972952,0.260927067183739
GDh,Uninhabited,0.25619145311232,521,73.34018246918488,522,N,Mathihuttaa,Other,0,GDh.Mathihuttaa,0,0,LD0638,0,0,0,73.34018246918488,0.25619145311232
GDh,Uninhabited,0.250544331307363,522,73.34145797654986,523,N,Laihaa,Other,0,GDh.Laihaa,0,0,LD0296,0,0,0,73.34145797654986,0.250544331307363
GDh,Uninhabited,0.250058677721434,523,73.23377014258415,524,N,Raaverinkolhihuttaa,Other,0,GDh.Raaverinkolhihuttaa,0,0,LD1432,0,0,0,73.23377014258415,0.250058677721434
GDh,Uninhabited,0.293069277632851,524,73.19260267710158,525,N,Maahutigalaa,Other,0,GDh.Maahutigalaa,0,0,LD0615,0,0,0,73.19260267710158,0.293069277632851
GDh,Uninhabited,0.288846225294889,525,73.20095704702223,526,N,Kodehutigalaa,Other,0,GDh.Kodehutigalaa,0,0,LD0692,0,0,0,73.20095704702223,0.288846225294889
GDh,Uninhabited,0.225263779709724,526,73.21644362116731,527,N,Kan'dahalagalaa,Other,0,GDh.Kan'dahalagalaa,0,0,LD0198,0,0,0,73.21644362116731,0.225263779709724
GDh,Uninhabited,0.195878759037834,527,73.22615829384289,528,N,Farukolhuhuttaa,Other,0,GDh.Farukolhuhuttaa,0,0,LD0395,0,0,0,73.22615829384289,0.195878759037834
GDh,Uninhabited,0.194238989155724,528,73.21882083433663,529,N,Isdhuhuttaa,Other,0,GDh.Isdhuhuttaa,0,0,LD0450,0,0,0,73.21882083433663,0.194238989155724
GDh,Uninhabited,0.193354567026766,529,73.21388017549612,530,N,Faathiyehuttaa,Agriculture,0,GDh.Faathiyehuttaa,0,0,LD0439,0,0,0,73.21388017549612,0.193354567026766
GDh,Uninhabited,0.202738442296067,530,73.18167892414796,531,N,Hoothodeyaa,Other,0,GDh.Hoothodeyaa,0,0,LD0313,0,0,0,73.18167892414796,0.202738442296067
GDh,Uninhabited,0.204175580009065,531,73.17953492271096,532,N,Kelaihuttaa,Other,0,GDh.Kelaihuttaa,0,0,LD0839,0,0,0,73.17953492271096,0.204175580009065
GDh,Uninhabited,0.207785899358295,532,73.17540023070099,533,N,Ekelondaa,Other,0,GDh.Ekelondaa,0,0,LD0651,0,0,0,73.17540023070099,0.207785899358295
GDh,Uninhabited,0.209308077657414,533,73.17104305432805,534,N,Uhehootirataa,Other,0,GDh.Uhehootirataa,0,0,LD0382,0,0,0,73.17104305432805,0.209308077657414
GDh,Uninhabited,0.192024987620737,534,73.19736850727854,535,N,,Other,0,,0,0,LD1770,0,0,0,73.19736850727854,0.192024987620737
GDh,Uninhabited,0.195556012863031,535,73.19995987168126,536,N,Bodehuttaa,Other,0,GDh.Bodehuttaa,0,0,LD0810,0,0,0,73.19995987168126,0.195556012863031
GDh,Uninhabited,0.296692798377416,536,73.03399802870629,537,N,Kalhehigillaa,Other,0,GDh.Kalhehigillaa,0,0,LD0173,0,0,0,73.03399802870629,0.296692798377416
GDh,Uninhabited,0.29755364467388,537,73.03645434096264,538,N,Haveyyerataa,Other,0,GDh.Haveyyerataa,0,0,LD0286,0,0,0,73.03645434096264,0.29755364467388
GDh,Uninhabited,0.290797970906278,538,73.04616341465244,539,N,Maarehaa,Other,0,GDh.Maarehaa,0,0,LD0919,0,0,0,73.04616341465244,0.290797970906278
GDh,Uninhabited,0.28926704026219,539,73.05011131407385,540,N,Kureikeymaahuttaa,Other,0,GDh.Kureikeymaahuttaa,0,0,LD0519,0,0,0,73.05011131407385,0.28926704026219
GDh,Uninhabited,0.288043356840759,540,73.05257371115573,541,N,Thelehuttaa,Other,0,GDh.Thelehuttaa,0,0,LD0883,0,0,0,73.05257371115573,0.288043356840759
GDh,Uninhabited,0.286875100168859,541,73.05455735510398,542,N,Ehivakaa,Other,0,GDh.Ehivakaa,0,0,LD0936,0,0,0,73.05455735510398,0.286875100168859
GDh,Uninhabited,0.227164666210855,542,73.13127697288176,543,N,Kaalhehuttaa,Other,0,GDh.Kaalhehuttaa,0,0,LD0290,0,0,0,73.13127697288176,0.227164666210855
GDh,Uninhabited,0.229538297011179,543,73.1296014310596,544,N,Viligillaa,Other,0,GDh.Viligillaa,0,0,LD0768,0,0,0,73.1296014310596,0.229538297011179
GDh,Uninhabited,0.300363163291558,544,73.03852797040695,545,N,Filaarataa,Other,0,GDh.Filaarataa,0,0,LD0207,0,0,0,73.03852797040695,0.300363163291558
GDh,Uninhabited,0.299226745903254,545,73.0404806213009,546,N,Bodehuttaa,Other,0,GDh.Bodehuttaa,0,0,LD1195,0,0,0,73.0404806213009,0.299226745903254
GDh,Uninhabited,0.285796867950473,546,73.05710989303785,547,N,Kudhe-ehivakaa,Other,0,GDh.Kudhe-ehivakaa,0,0,LD0748,0,0,0,73.05710989303785,0.285796867950473
GDh,Uninhabited,0.284534479762632,547,73.05892039455253,548,N,Haveyyerataa,Other,0,GDh.Haveyyerataa,0,0,LD0365,0,0,0,73.05892039455253,0.284534479762632
GDh,Uninhabited,0.283225389183591,548,73.05978862551702,549,N,Fonehigillaa,Other,0,GDh.Fonehigillaa,0,0,LD0775,0,0,0,73.05978862551702,0.283225389183591
GDh,Uninhabited,0.282375488185194,549,73.06164191960013,550,N,Kudhebeeraahuttaa,Other,0,GDh.Kudhebeeraahuttaa,0,0,LD1174,0,0,0,73.06164191960013,0.282375488185194
GDh,Uninhabited,0.281436068670474,550,73.06058573831248,551,N,Badefodiyaa,Other,0,GDh.Badefodiyaa,0,0,LD0339,0,0,0,73.06058573831248,0.281436068670474
GDh,Uninhabited,0.280571354374204,551,73.06098760336236,552,N,Beeraahuttaa,Other,0,GDh.Beeraahuttaa,0,0,LD0100,0,0,0,73.06098760336236,0.280571354374204
GDh,Uninhabited,0.27982719629386,552,73.06256430752485,553,N,Athihuttaa,Other,0,GDh.Athihuttaa,0,0,LD0329,0,0,0,73.06256430752485,0.27982719629386
GDh,Uninhabited,0.275798731691856,553,73.06472907749405,554,N,Oinigillaa,Other,0,GDh.Oinigillaa,0,0,LD0930,0,0,0,73.06472907749405,0.275798731691856
GDh,Uninhabited,0.23065446384355,554,73.12790765409399,555,N,Aakirahuttaa,Other,0,GDh.Aakirahuttaa,0,0,LD1090,0,0,0,73.12790765409399,0.23065446384355
GDh,Uninhabited,0.232803983997615,555,73.12638879693911,556,N,Bolimathaidhoo,Other,0,GDh.Bolimathaidhoo,0,0,LD1168,0,0,0,73.12638879693911,0.232803983997615
GDh,Uninhabited,0.272314215174717,556,73.06875795577655,557,N,Kanandhoo,Other,0,GDh.Kanandhoo,0,0,LD0847,0,0,0,73.06875795577655,0.272314215174717
GDh,Uninhabited,0.271092078468664,557,73.07602022452726,558,N,Maadhoo,Other,0,GDh.Maadhoo,0,0,LD0479,0,0,0,73.07602022452726,0.271092078468664
GDh,Uninhabited,0.269315569918674,558,73.08115125515607,559,N,Meragihuttaa,Other,0,GDh.Meragihuttaa,0,0,LD1008,0,0,0,73.08115125515607,0.269315569918674
GDh,Uninhabited,0.268656470787557,559,73.08395368875804,560,N,Dhoonirehaa,Other,0,GDh.Dhoonirehaa,0,0,LD0690,0,0,0,73.08395368875804,0.268656470787557
GDh,Uninhabited,0.266467327595819,560,73.08758719614053,561,N,Fenevenehuttaa,Other,0,GDh.Fenevenehuttaa,0,0,LD1030,0,0,0,73.08758719614053,0.266467327595819
GDh,Uninhabited,0.235762531616786,561,73.12374506205978,562,N,Raabodaafeheerataa,Other,0,GDh.Raabodaafeheerataa,0,0,LD0111,0,0,0,73.12374506205978,0.235762531616786
GDh,Uninhabited,0.237319101100398,562,73.1224172917015,563,N,Dhathaidhuaa,Other,0,GDh.Dhathaidhuaa,0,0,LD0773,0,0,0,73.1224172917015,0.237319101100398
GDh,Uninhabited,0.24026957908656,563,73.121455932269,564,N,Kudhehaadhuaa,Other,0,GDh.Kudhehaadhuaa,0,0,LD0870,0,0,0,73.121455932269,0.24026957908656
GDh,Uninhabited,0.239140299750856,564,73.12196855935281,565,N,Haadhuaa,Other,0,GDh.Haadhuaa,0,0,LD1161,0,0,0,73.12196855935281,0.239140299750856
GDh,Uninhabited,0.238846257771021,565,73.11974468672669,566,N,Bodeinsa,Other,0,GDh.Bodeinsa,0,0,LD0561,0,0,0,73.11974468672669,0.238846257771021
GDh,Uninhabited,0.265611594617342,566,73.08963710086013,567,N,Meehinethiyenehuttaa,Other,0,GDh.Meehinethiyenehuttaa,0,0,LD0251,0,0,0,73.08963710086013,0.265611594617342
GDh,Uninhabited,0.264008879746203,567,73.09224765832712,568,N,Aakirahuttaa,Other,0,GDh.Aakirahuttaa,0,0,LD0896,0,0,0,73.09224765832712,0.264008879746203
GDh,Uninhabited,0.262293431632271,568,73.09454871421212,569,N,Hiyanigilihuttaa,Other,0,GDh.Hiyanigilihuttaa,0,0,LD0243,0,0,0,73.09454871421212,0.262293431632271
GDh,Uninhabited,0.261004080335528,569,73.09625269687767,570,N,Hadahahuttaa,Other,0,GDh.Hadahahuttaa,0,0,LD0867,0,0,0,73.09625269687767,0.261004080335528
GDh,Uninhabited,0.258221417206805,570,73.09929840940319,571,N,Kurehdhoo,Other,0,GDh.Kurehdhoo,0,0,LD0407,0,0,0,73.09929840940319,0.258221417206805
GDh,Uninhabited,0.25615141187173,571,73.10094413739337,572,N,Dhiyanigillaa,Other,0,GDh.Dhiyanigillaa,0,0,LD0532,0,0,0,73.10094413739337,0.25615141187173
GDh,Uninhabited,0.239561139180983,572,73.11860257379145,573,N,Ekurukerataa,Other,0,GDh.Ekurukerataa,0,0,LD0704,0,0,0,73.11860257379145,0.239561139180983
GDh,Uninhabited,0.24190770091169,573,73.11767364984016,574,N,Maanaidhoo,Other,0,GDh.Maanaidhoo,0,0,LD0336,0,0,0,73.11767364984016,0.24190770091169
GDh,Uninhabited,0.244140396639659,574,73.11381871739088,575,N,Femunaidhoo,Other,0,GDh.Femunaidhoo,0,0,LD0522,0,0,0,73.11381871739088,0.244140396639659
GDh,Uninhabited,0.249325746551868,575,73.1082774391959,576,N,Dherukerehaa,Other,0,GDh.Dherukerehaa,0,0,LD0393,0,0,0,73.1082774391959,0.249325746551868
GDh,Uninhabited,0.247102879763395,576,73.10981719058215,577,N,Faahuttaa,Other,0,GDh.Faahuttaa,0,0,LD0221,0,0,0,73.10981719058215,0.247102879763395
GDh,Uninhabited,0.246028529610164,577,73.11200667082663,578,N,Meyragillaa,Other,0,GDh.Meyragillaa,0,0,LD0278,0,0,0,73.11200667082663,0.246028529610164
GDh,Uninhabited,0.353533621683834,578,73.02579124984223,579,N,Keyhuvadhoo,Other,0,GDh.Keyhuvadhoo,0,0,LD1498,0,0,0,73.02579124984223,0.353533621683834
GDh,Uninhabited,0.309655272568968,579,73.47584222357293,580,N,,Other,0,,0,0,LD1694,0,0,0,73.47584222357293,0.309655272568968
GDh,Uninhabited,0.287195801492268,580,73.05670137362758,581,N,Huttaa,Other,0,GDh.Huttaa,0,0,LD1696,0,0,0,73.05670137362758,0.287195801492268
GDh,Uninhabited,0.540261879273895,581,73.09521125630539,582,N,Havoddaa,Tourism,0,GDh.Havoddaa,0,0,LD0255,0,0,0,73.09521125630539,0.540261879273895
GDh,Uninhabited,0.316102770821049,582,73.02480574793418,583,N,Olhurataa,Other,0,GDh.Olhurataa,0,0,LD1094,0,0,0,73.02480574793418,0.316102770821049
GDh,Uninhabited,0.328204523210782,583,73.48687792249265,584,N,Hulhuvaarulaa,Agriculture,0,GDh.Hulhuvaarulaa,0,0,LD0023,0,0,0,73.48687792249265,0.328204523210782
GDh,Uninhabited,0.320354653205306,584,73.48639473843586,585,N,Golhaallaa,Agriculture,0,GDh.Golhaallaa,0,0,LD0664,0,0,0,73.48639473843586,0.320354653205306
GDh,Uninhabited,0.256779338839041,585,73.2960984812162,586,N,Vatavarrehaa,Other,0,GDh.Vatavarrehaa,0,0,LD0586,0,0,0,73.2960984812162,0.256779338839041
GDh,Uninhabited,0.295284729555104,586,73.3296928374345,587,N,,Other,0,,0,0,LD1688,0,0,0,73.3296928374345,0.295284729555104
GDh,Uninhabited,0.52401817856991,587,73.0397412123344,588,N,Maakirigalla,Other,0,GDh.Maakirigalla,0,0,LD1691,0,0,0,73.0397412123344,0.52401817856991
GDh,Uninhabited,0.310258276303898,588,73.02492795609413,589,N,Dhatemulaidhua,Other,0,GDh.Dhatemulaidhua,0,0,LD1497,0,0,0,73.02492795609413,0.310258276303898
GDh,Uninhabited,0.452286967639704,589,73.00018940399025,590,N,Kannigilla,Other,0,GDh.Kannigilla,0,0,LD0598,0,0,0,73.00018940399025,0.452286967639704
HA,Uninhabited,7.027526276949358,590,72.81904367589895,591,N,Matheerah,Other,0,HA.Matheerah,0,0,LD0103,0,0,0,72.81904367589895,7.027526276949358
HA,Uninhabited,6.844470953467813,591,73.05047232688584,592,N,Dhonakulhi,Tourism,0,HA.Dhonakulhi,0,0,LD0129,0,0,0,73.05047232688584,6.844470953467813
HA,Uninhabited,6.836269601849644,592,73.0113214607058,593,N,Mulidhoo,Agriculture,0,HA.Mulidhoo,0,0,LD0227,0,0,0,73.0113214607058,6.836269601849644
HA,Uninhabited,7.073214076540298,593,72.81087356621421,594,N,Innafinolhu,Other,0,HA.Innafinolhu,0,0,LD0326,0,0,0,72.81087356621421,7.073214076540298
HA,Uninhabited,6.946661512699659,594,72.98316660520989,595,N,Gallandhoo,Other,0,HA.Gallandhoo,0,0,LD0328,0,0,0,72.98316660520989,6.946661512699659
HA,Uninhabited,6.928958974678737,595,73.13744474011237,596,N,Beenaafushi,Other,0,HA.Beenaafushi,0,0,LD0408,0,0,0,73.13744474011237,6.928958974678737
HA,Uninhabited,7.039276070213773,596,72.98444836687955,597,N,Gaamathikulhudhoo,Other,0,HA.Gaamathikulhudhoo,0,0,LD0433,0,0,0,72.98444836687955,7.039276070213773
HA,Uninhabited,6.861934109801266,597,73.10220884705042,598,N,Alidhuffarufinolhu,Other,0,HA.Alidhuffarufinolhu,0,0,LD0458,0,0,0,73.10220884705042,6.861934109801266
HA,Uninhabited,6.97155952128945,598,72.9008960171067,599,N,Un'gulifinolhu,Other,0,HA.Un'gulifinolhu,0,0,LD0494,0,0,0,72.9008960171067,6.97155952128945
HA,Uninhabited,6.925649173860957,599,73.13009595567891,600,N,Kan'daalifinolhu,Other,0,HA.Kan'daalifinolhu,0,0,LD0508,0,0,0,73.13009595567891,6.925649173860957
HA,Uninhabited,7.047547512464964,600,72.97141706920173,601,N,Berinmadhoo,Other,0,HA.Berinmadhoo,0,0,LD0528,0,0,0,72.97141706920173,7.047547512464964
HA,Uninhabited,6.997206402748147,601,72.93992046744019,602,N,Manafaru,Tourism,0,HA.Manafaru,0,0,LD0548,0,0,0,72.93992046744019,6.997206402748147
HA,Uninhabited,7.093149310068481,602,72.87818896507106,603,N,Van'gaaru,Other,0,HA.Van'gaaru,0,0,LD0593,0,0,0,72.87818896507106,7.093149310068481
HA,Uninhabited,6.830179788744112,603,73.15410398275976,604,N,Maafahi,Agriculture and Fisheries,0,HA.Maafahi,0,0,LD0611,0,0,0,73.15410398275976,6.830179788744112
HA,Uninhabited,7.012773389792382,604,72.91917988575337,605,N,Govvaafushi,Other,0,HA.Govvaafushi,0,0,LD0801,0,0,0,72.91917988575337,7.012773389792382
HA,Uninhabited,6.828930455309679,605,72.9719299518118,606,N,Maarandhoofarufinolhu,Other,0,HA.Maarandhoofarufinolhu,0,0,LD0824,0,0,0,72.9719299518118,6.828930455309679
HA,Uninhabited,6.994174311557352,606,72.87464725306657,607,N,Velifinolhu,Other,0,HA.Velifinolhu,0,0,LD0862,0,0,0,72.87464725306657,6.994174311557352
HA,Uninhabited,7.01100439373462,607,72.93513790707566,608,N,Medhafushi,Other,0,HA.Medhafushi,0,0,LD0880,0,0,0,72.93513790707566,7.01100439373462
HA,Uninhabited,7.054800026580841,608,72.95326305201152,609,N,Madulu,Other,0,HA.Madulu,0,0,LD0909,0,0,0,72.95326305201152,7.054800026580841
HA,Uninhabited,7.002396146948095,609,72.8623889231233,610,N,Maafinolhu,Other,0,HA.Maafinolhu,0,0,LD0983,0,0,0,72.8623889231233,7.002396146948095
HA,Uninhabited,6.849002044734793,610,73.15228082099216,611,N,Alidhoo,Other,0,HA.Alidhoo,0,0,LD1033,0,0,0,73.15228082099216,6.849002044734793
HA,Uninhabited,6.915230333332156,611,73.21131517871244,612,N,Dhapparuhuraa,Other,0,HA.Dhapparuhuraa,0,0,LD1037,0,0,0,73.21131517871244,6.915230333332156
HA,Uninhabited,6.959056870865106,612,72.90526542766754,613,N,Huvahandhoo,Other,0,HA.Huvahandhoo,0,0,LD1097,0,0,0,72.90526542766754,6.959056870865106
HA,Uninhabited,7.00957406966722,613,72.85094330300934,614,N,Umuraifinolhu,Other,0,HA.Umuraifinolhu,0,0,LD1132,0,0,0,72.85094330300934,7.00957406966722
HA,Uninhabited,6.895005687912954,614,73.12675474051844,615,N,Naridhoo,Other,0,HA.Naridhoo,0,0,LD1155,0,0,0,73.12675474051844,6.895005687912954
HA,Uninhabited,7.020105299717531,615,72.83060156973409,616,N,Hathifushi,Other,0,HA.Hathifushi,0,0,LD1189,0,0,0,72.83060156973409,7.020105299717531
HA,Uninhabited,6.925203742123688,616,72.97005696715685,617,N,Dhigufaruhuraa,Other,0,HA.Dhigufaruhuraa,0,0,LD1459,0,0,0,72.97005696715685,6.925203742123688
HDh,Uninhabited,6.778172783140469,617,73.12143315299444,618,N,Hon'daafushi,Tourism,0,HDh.Hon'daafushi,0,0,LD1192,0,0,0,73.12143315299444,6.778172783140469
HDh,Uninhabited,6.7697974270716,618,73.08750888732688,619,N,Hon'daidhoo,Agriculture,0,HDh.Hon'daidhoo,0,0,LD0959,0,0,0,73.08750888732688,6.7697974270716
HDh,Uninhabited,6.784996295118865,619,73.05394986129075,620,N,Faridhoo,Other,0,HDh.Faridhoo,0,0,LD1018,0,0,0,73.05394986129075,6.784996295118865
HDh,Uninhabited,6.740250036597028,620,73.03340086558337,621,N,Theefaridhoo,Agriculture,0,HDh.Theefaridhoo,0,0,LD0303,0,0,0,73.03340086558337,6.740250036597028
HDh,Uninhabited,6.754378092635621,621,72.93828247370723,622,N,Veligan'du,Other,0,HDh.Veligan'du,0,0,LD0017,0,0,0,72.93828247370723,6.754378092635621
HDh,Uninhabited,6.759042352517024,622,72.93904857907242,623,N,Ruffushi,Other,0,HDh.Ruffushi,0,0,LD0130,0,0,0,72.93904857907242,6.759042352517024
HDh,Uninhabited,6.70532875923629,623,72.89936379948905,624,N,Kanamana,Other,0,HDh.Kanamana,0,0,LD0858,0,0,0,72.89936379948905,6.70532875923629
HDh,Uninhabited,6.701714475771449,624,72.94816745679671,625,N,Hirinaidhoo,Other,0,HDh.Hirinaidhoo,0,0,LD1126,0,0,0,72.94816745679671,6.701714475771449
HDh,Uninhabited,6.658332436115814,625,73.02739802343707,626,N,Kun'burudhoo,Other,0,HDh.Kun'burudhoo,0,0,LD1040,0,0,0,73.02739802343707,6.658332436115814
HDh,Uninhabited,6.658135563980959,626,72.93629379496726,627,N,Muiri,Other,0,HDh.Muiri,0,0,LD1196,0,0,0,72.93629379496726,6.658135563980959
HDh,Uninhabited,6.669233635751221,627,72.89816198908746,628,N,Naagoashi,Other,0,HDh.Naagoashi,0,0,LD0369,0,0,0,72.89816198908746,6.669233635751221
HDh,Uninhabited,6.642924618897413,628,72.92015421616476,629,N,Kudamuraidhoo,Other,0,HDh.Kudamuraidhoo,0,0,LD0346,0,0,0,72.92015421616476,6.642924618897413
HDh,Uninhabited,6.602882245805081,629,73.00911107901246,630,N,Keylakunu,Other,0,HDh.Keylakunu,0,0,LD0969,0,0,0,73.00911107901246,6.602882245805081
HDh,Uninhabited,6.566579440723235,630,72.98296376921242,631,N,Kattalafushi,Agriculture,0,HDh.Kattalafushi,0,0,LD0370,0,0,0,72.98296376921242,6.566579440723235
HDh,Uninhabited,6.541974866759248,631,72.90007463504527,632,N,Vaikaramuraidhoo,Other,0,HDh.Vaikaramuraidhoo,0,0,LD1138,0,0,0,72.90007463504527,6.541974866759248
HDh,Uninhabited,6.515500961517858,632,73.05389602033634,633,N,Maavaidhoo,Other,0,HDh.Maavaidhoo,0,0,LD0708,0,0,0,73.05389602033634,6.515500961517858
HDh,Uninhabited,6.396374791521515,633,72.69424418056728,634,N,Fenboahuraa,Other,0,HDh.Fenboahuraa,0,0,LD0882,0,0,0,72.69424418056728,6.396374791521515
HDh,Uninhabited,6.409047679951758,634,72.64544408541856,635,N,Innafushi,Other,0,HDh.Innafushi,0,0,LD0047,0,0,0,72.64544408541856,6.409047679951758
HDh,Uninhabited,6.31903935872665,635,72.64061379201604,636,N,Dhipparufushi,Tourism,0,HDh.Dhipparufushi,0,0,LD0663,0,0,0,72.64061379201604,6.31903935872665
L,Uninhabited,1.988031787001578,636,73.53681646058993,637,N,Kalhaidhoo,Other,0,L.Kalhaidhoo,0,0,LD0031,0,0,0,73.53681646058993,1.988031787001578
L,Uninhabited,1.826831958868724,637,73.27806763483994,638,N,Burrahaa,Other,0,L.Burrahaa,0,0,LD0060,0,0,0,73.27806763483994,1.826831958868724
L,Uninhabited,1.827272986527262,638,73.27131961524202,639,N,Bodufenrahaa,Other,0,L.Bodufenrahaa,0,0,LD0065,0,0,0,73.27131961524202,1.827272986527262
L,Uninhabited,1.828565083973772,639,73.27472625945718,640,N,Aarahaa,Other,0,L.Aarahaa,0,0,LD0067,0,0,0,73.27472625945718,1.828565083973772
L,Uninhabited,1.7880835530694,640,73.35212021472292,641,N,Olhutholhu,Other,0,L.Olhutholhu,0,0,LD0094,0,0,0,73.35212021472292,1.7880835530694
L,Uninhabited,1.952307451543087,641,73.54012006370006,642,N,Gasgan'dufinolhu,Other,0,L.Gasgan'dufinolhu,0,0,LD0192,0,0,0,73.54012006370006,1.952307451543087
L,Uninhabited,1.989222284842418,642,73.30904311841296,643,N,Bodumungnafushi,Other,0,L.Bodumungnafushi,0,0,LD0223,0,0,0,73.30904311841296,1.989222284842418
L,Uninhabited,2.068557114165851,643,73.53885006586096,644,N,Holhurahaa,Other,0,L.Holhurahaa,0,0,LD0244,0,0,0,73.53885006586096,2.068557114165851
L,Uninhabited,1.818475408534336,644,73.44797920780465,645,N,Gaadhoo,Agriculture,0,L.Gaadhoo,0,0,LD0261,0,0,0,73.44797920780465,1.818475408534336
L,Uninhabited,2.074742239024941,645,73.54025826454881,646,N,Thun'buri,Other,0,L.Thun'buri,0,0,LD0308,0,0,0,73.54025826454881,2.074742239024941
L,Uninhabited,1.919355275465533,646,73.25356517400662,647,N,Kashidhoo,Other,0,L.Kashidhoo,0,0,LD0371,0,0,0,73.25356517400662,1.919355275465533
L,Uninhabited,2.064885622573738,647,73.53671174504784,648,N,Kudarah,Other,0,L.Kudarah,0,0,LD0414,0,0,0,73.53671174504784,2.064885622573738
L,Uninhabited,1.822861786449226,648,73.39416942518542,649,N,Hulhimendhoo,Other,0,L.Hulhimendhoo,0,0,LD0538,0,0,0,73.39416942518542,1.822861786449226
L,Uninhabited,1.786664509101665,649,73.32597762645185,650,N,Bodumahigulhi,Other,0,L.Bodumahigulhi,0,0,LD0599,0,0,0,73.32597762645185,1.786664509101665
L,Uninhabited,2.017602023956776,650,73.35913914029844,651,N,Vadinolhu,Other,0,L.Vadinolhu,0,0,LD0628,0,0,0,73.35913914029844,2.017602023956776
L,Uninhabited,2.080696253436625,651,73.54139837077469,652,N,Hulhiyandhoo,Other,0,L.Hulhiyandhoo,0,0,LD0671,0,0,0,73.54139837077469,2.080696253436625
L,Uninhabited,1.967813356078915,652,73.53991679236279,653,N,Baresdhoo,Other,0,L.Baresdhoo,0,0,LD0994,0,0,0,73.53991679236279,1.967813356078915
L,Uninhabited,2.115460868576104,653,73.5412688131658,654,N,Fonagaadhoo,Agriculture,0,L.Fonagaadhoo,0,0,LD0720,0,0,0,73.5412688131658,2.115460868576104
L,Uninhabited,1.841829711201823,654,73.25754772166076,655,N,Enberahaa,Other,0,L.Enberahaa,0,0,LD0825,0,0,0,73.25754772166076,1.841829711201823
L,Uninhabited,1.785201507184217,655,73.38764147328317,656,N,Hulhisdhoo,Other,0,L.Hulhisdhoo,0,0,LD1191,0,0,0,73.38764147328317,1.785201507184217
L,Uninhabited,2.106724937092983,656,73.54034572104985,657,N,,Other,0,,0,0,LD1431,0,0,0,73.54034572104985,2.106724937092983
L,Uninhabited,1.800867654137699,657,73.29453953660294,658,N,Boduhuraa,Tourism,0,L.Boduhuraa,0,0,LD1014,0,0,0,73.29453953660294,1.800867654137699
L,Uninhabited,1.824111822673682,658,73.28185277476378,659,N,Kudaveshi,Other,0,L.Kudaveshi,0,0,LD1034,0,0,0,73.28185277476378,1.824111822673682
L,Uninhabited,1.817008678950885,659,73.40481553787212,660,N,Olhuveli,Tourism,0,L.Olhuveli,0,0,LD1118,0,0,0,73.40481553787212,1.817008678950885
L,Uninhabited,1.951373860674783,660,73.26169139210302,661,N,Hanhushi,Other,0,L.Hanhushi,0,0,LD1172,0,0,0,73.26169139210302,1.951373860674783
L,Uninhabited,1.817082210174265,661,73.27953187813087,662,N,Dhekunuvinagan'du,Other,0,L.Dhekunuvinagan'du,0,0,LD0052,0,0,0,73.27953187813087,1.817082210174265
L,Uninhabited,2.069821422768118,662,73.53632843525315,663,N,Dhonberahaa,Other,0,L.Dhonberahaa,0,0,LD0145,0,0,0,73.53632843525315,2.069821422768118
L,Uninhabited,1.828035141417701,663,73.27389434903739,664,N,Athahendhu,Other,0,L.Athahendhu,0,0,LD0167,0,0,0,73.27389434903739,1.828035141417701
L,Uninhabited,1.828914250612883,664,73.40783426730005,665,N,Veligan'dufinolhu,Other,0,L.Veligan'dufinolhu,0,0,LD0341,0,0,0,73.40783426730005,1.828914250612883
L,Uninhabited,2.064224143929225,665,73.53820080081319,666,N,Fenboahuraa,Other,0,L.Fenboahuraa,0,0,LD1470,0,0,0,73.53820080081319,2.064224143929225
L,Uninhabited,1.844429893279981,666,73.25673287655827,667,N,Kalhurahaa,Other,0,L.Kalhurahaa,0,0,LD0432,0,0,0,73.25673287655827,1.844429893279981
L,Uninhabited,1.998986074035908,667,73.53489056110955,668,N,Bokaiyfushi,Other,0,L.Bokaiyfushi,0,0,LD0472,0,0,0,73.53489056110955,1.998986074035908
L,Uninhabited,1.821827560468442,668,73.27443437758984,669,N,Hendha,Other,0,L.Hendha,0,0,LD0555,0,0,0,73.27443437758984,1.821827560468442
L,Uninhabited,1.979057013473704,669,73.53723002550723,670,N,Uvadhevifushi,Other,0,L.Uvadhevifushi,0,0,LD0566,0,0,0,73.53723002550723,1.979057013473704
L,Uninhabited,2.04608505616858,670,73.53236536837875,671,N,Kanuhuraa,Other,0,L.Kanuhuraa,0,0,LD0592,0,0,0,73.53236536837875,2.04608505616858
L,Uninhabited,1.832897731939044,671,73.27153881322357,672,N,Maaveshi,Other,0,L.Maaveshi,0,0,LD1048,0,0,0,73.27153881322357,1.832897731939044
L,Uninhabited,1.842032089349954,672,73.25855526470501,673,N,Haiythoshi,Other,0,L.Haiythoshi,0,0,LD0733,0,0,0,73.25855526470501,1.842032089349954
L,Uninhabited,2.060798137216226,673,73.53639162849466,674,N,Kandaru,Agriculture,0,L.Kandaru,0,0,LD0735,0,0,0,73.53639162849466,2.060798137216226
L,Uninhabited,2.05829772550858,674,73.53656330545493,675,N,Hikan'dhirahaa,Other,0,L.Hikan'dhirahaa,0,0,LD0757,0,0,0,73.53656330545493,2.05829772550858
L,Uninhabited,1.849109463403757,675,73.25544313886851,676,N,Bodumaabulhali,Other,0,L.Bodumaabulhali,0,0,LD0763,0,0,0,73.25544313886851,1.849109463403757
L,Uninhabited,2.054124344692766,676,73.53452699420387,677,N,Rahaa,Other,0,L.Rahaa,0,0,LD0798,0,0,0,73.53452699420387,2.054124344692766
L,Uninhabited,1.791758192380317,677,73.33414690004277,678,N,Maafushi,Other,0,L.Maafushi,0,0,LD0951,0,0,0,73.33414690004277,1.791758192380317
L,Uninhabited,1.789126984895174,678,73.33961365887123,679,N,Maakalhuveli,Other,0,L.Maakalhuveli,0,0,LD0952,0,0,0,73.33961365887123,1.789126984895174
L,Uninhabited,1.906858897154627,679,73.25471966802694,680,N,Guraidhoo,Other,0,L.Guraidhoo,0,0,LD0953,0,0,0,73.25471966802694,1.906858897154627
L,Uninhabited,1.780596092957676,680,73.35456896776134,681,N,Kuredhirehaa,Other,0,L.Kuredhirehaa,0,0,LD0971,0,0,0,73.35456896776134,1.780596092957676
L,Uninhabited,1.809373722146564,681,73.28934981916623,682,N,Kudafenrehaa,Other,0,L.Kudafenrehaa,0,0,LD1024,0,0,0,73.28934981916623,1.809373722146564
L,Uninhabited,1.788218840644777,682,73.33179422365592,683,N,Kudafushi,Agriculture,0,L.Kudafushi,0,0,LD1025,0,0,0,73.33179422365592,1.788218840644777
L,Uninhabited,2.049552955936842,683,73.53208232369911,684,N,Fushi,Other,0,L.Fushi,0,0,LD1082,0,0,0,73.53208232369911,2.049552955936842
L,Uninhabited,1.786908378869026,684,73.3815710308969,685,N,Mendhoo,Agriculture,0,L.Mendhoo,0,0,LD1096,0,0,0,73.3815710308969,1.786908378869026
L,Uninhabited,1.810190665619998,685,73.28582164754383,686,N,Fenboarahaa,Other,0,L.Fenboarahaa,0,0,LD0366,0,0,0,73.28582164754383,1.810190665619998
L,Uninhabited,1.830799603019958,686,73.26854135112507,687,N,Thathunrahaa,Other,0,L.Thathunrahaa,0,0,LD0634,0,0,0,73.26854135112507,1.830799603019958
L,Uninhabited,1.993343417367498,687,73.31405906958777,688,N,Kudamungnafushi,Other,0,L.Kudamungnafushi,0,0,LD0777,0,0,0,73.31405906958777,1.993343417367498
L,Uninhabited,2.028155872060435,688,73.37273661038967,689,N,Bodufinolhu,Other,0,L.Bodufinolhu,0,0,LD1186,0,0,0,73.37273661038967,2.028155872060435
L,Uninhabited,1.853994296445536,689,73.25487978586979,690,N,Kokurahaa,Other,0,L.Kokurahaa,0,0,LD1087,0,0,0,73.25487978586979,1.853994296445536
L,Uninhabited,1.787248015163736,690,73.32818128727872,691,N,Kudamahigulhi,Other,0,L.Kudamahigulhi,0,0,LD0902,0,0,0,73.32818128727872,1.787248015163736
L,Uninhabited,1.844236045945262,691,73.51592418394438,692,N,Boduhuraa,Other,0,L.Boduhuraa,0,0,LD0239,0,0,0,73.51592418394438,1.844236045945262
L,Uninhabited,1.81750784681577,692,73.27833072788923,693,N,Uthuruvinagan'du,Other,0,L.Uthuruvinagan'du,0,0,LD0276,0,0,0,73.27833072788923,1.81750784681577
L,Uninhabited,1.847224199932685,693,73.25276298183215,694,N,Kudamaabulhali,Other,0,L.Kudamaabulhali,0,0,LD0053,0,0,0,73.25276298183215,1.847224199932685
L,Uninhabited,1.79939801306804,694,73.3009947223667,695,N,Fares,Tourism,0,L.Fares,0,0,LD0988,0,0,0,73.3009947223667,1.79939801306804
L,Uninhabited,1.945083375144919,695,73.54044142909444,696,N,Bodufinolhu,Other,0,L.Bodufinolhu,0,0,LD1160,0,0,0,73.54044142909444,1.945083375144919
L,Uninhabited,1.958988508610866,696,73.54051233214764,697,N,Mahakanfushi,Other,0,L.Mahakanfushi,0,0,LD0703,0,0,0,73.54051233214764,1.958988508610866
L,Uninhabited,1.816494799725444,697,73.27821488581964,698,N,Medhuvinagan'du,Other,0,L.Medhuvinagan'du,0,0,LD0955,0,0,0,73.27821488581964,1.816494799725444
Lh,Uninhabited,5.321648980118266,698,73.47282551825695,699,N,Lhohi,Agriculture,0,Lh.Lhohi,0,0,LD0015,0,0,0,73.47282551825695,5.321648980118266
Lh,Uninhabited,5.474749416016224,699,73.38377268335465,700,N,Felivaru,Fisheries,0,Lh.Felivaru,0,0,LD0046,0,0,0,73.38377268335465,5.474749416016224
Lh,Uninhabited,5.553507990184837,700,73.48339252440556,701,N,Kalhumanjehuraa,Other,0,Lh.Kalhumanjehuraa,0,0,LD0116,0,0,0,73.48339252440556,5.553507990184837
Lh,Uninhabited,5.557436299270877,701,73.48134930447486,702,N,Fehigili,Other,0,Lh.Fehigili,0,0,LD0119,0,0,0,73.48134930447486,5.557436299270877
Lh,Uninhabited,5.417524817257734,702,73.35503338307016,703,N,Vavvaru,Other,0,Lh.Vavvaru,0,0,LD0124,0,0,0,73.35503338307016,5.417524817257734
Lh,Uninhabited,5.35744310173614,703,73.43044639123447,704,N,Maakoa,Other,0,Lh.Maakoa,0,0,LD0183,0,0,0,73.43044639123447,5.35744310173614
Lh,Uninhabited,5.336951171833119,704,73.65203764647937,705,N,Maabinhuraa,Tourism,0,Lh.Maabinhuraa,0,0,LD0187,0,0,0,73.65203764647937,5.336951171833119
Lh,Uninhabited,5.285054081321852,705,73.502365397697,706,N,Maduvvari,Agriculture,0,Lh.Maduvvari,0,0,LD0211,0,0,0,73.502365397697,5.285054081321852
Lh,Uninhabited,5.324394158722535,706,73.64724745970634,707,N,Dheruffinolhu,Tourism,0,Lh.Dheruffinolhu,0,0,LD0234,0,0,0,73.64724745970634,5.324394158722535
Lh,Uninhabited,5.369407183329953,707,73.40772176960168,708,N,Meedhaahuraa,Other,0,Lh.Meedhaahuraa,0,0,LD0262,0,0,0,73.40772176960168,5.369407183329953
Lh,Uninhabited,5.36324856668091,708,73.6516378128821,709,N,Hudhufushi,Other,0,Lh.Hudhufushi,0,0,LD0307,0,0,0,73.6516378128821,5.36324856668091
Lh,Uninhabited,5.549874138704495,709,73.46581345664949,710,N,Kurehdhoo,Tourism,0,Lh.Kurehdhoo,0,0,LD0310,0,0,0,73.46581345664949,5.549874138704495
Lh,Uninhabited,5.355557814075571,710,73.4268990870947,711,N,Medhafushi,Other,0,Lh.Medhafushi,0,0,LD0330,0,0,0,73.4268990870947,5.355557814075571
Lh,Uninhabited,5.532921327183788,711,73.50611234649674,712,N,Kanuhuraa,Tourism,0,Lh.Kanuhuraa,0,0,LD0333,0,0,0,73.50611234649674,5.532921327183788
Lh,Uninhabited,5.458740630633243,712,73.37024326241254,713,N,Madivaru,Other,0,Lh.Madivaru,0,0,LD0354,0,0,0,73.37024326241254,5.458740630633243
Lh,Uninhabited,5.425241621914642,713,73.36118173960175,714,N,Veyvah,Other,0,Lh.Veyvah,0,0,LD0361,0,0,0,73.36118173960175,5.425241621914642
Lh,Uninhabited,5.26999473987046,714,73.57052443837564,715,N,Bodufinolhu,Other,0,Lh.Bodufinolhu,0,0,LD0394,0,0,0,73.57052443837564,5.26999473987046
Lh,Uninhabited,5.455679823616439,715,73.58202251485578,716,N,Vihafarufinolhu,Other,0,Lh.Vihafarufinolhu,0,0,LD0464,0,0,0,73.58202251485578,5.455679823616439
Lh,Uninhabited,5.441384391524323,716,73.60813037321118,717,N,Meyyafushi,Other,0,Lh.Meyyafushi,0,0,LD0469,0,0,0,73.60813037321118,5.441384391524323
Lh,Uninhabited,5.397986929603354,717,73.64865756590889,718,N,Maidhoo,Other,0,Lh.Maidhoo,0,0,LD0678,0,0,0,73.64865756590889,5.397986929603354
Lh,Uninhabited,5.431606742037778,718,73.63047328843582,719,N,Faadhoo,Agriculture,0,Lh.Faadhoo,0,0,LD0666,0,0,0,73.63047328843582,5.431606742037778
Lh,Uninhabited,5.554836443728119,719,73.4895136798361,720,N,Dhehuraa Evvihuraa,Other,0,Lh.Dhehuraa Evvihuraa,0,0,LD0714,0,0,0,73.4895136798361,5.554836443728119
Lh,Uninhabited,5.303508391210619,720,73.48809887638434,721,N,Varihuraa,Other,0,Lh.Varihuraa,0,0,LD0730,0,0,0,73.48809887638434,5.303508391210619
Lh,Uninhabited,5.350224396488125,721,73.65384218190329,722,N,Innahuraa,Tourism,0,Lh.Innahuraa,0,0,LD0797,0,0,0,73.65384218190329,5.350224396488125
Lh,Uninhabited,5.332376068044031,722,73.65708670253325,723,N,Bodufaahuraa,Other,0,Lh.Bodufaahuraa,0,0,LD0809,0,0,0,73.65708670253325,5.332376068044031
Lh,Uninhabited,5.543846883023112,723,73.50079388954214,724,N,Masleggihuraa,Other,0,Lh.Masleggihuraa,0,0,LD0860,0,0,0,73.50079388954214,5.543846883023112
Lh,Uninhabited,5.273379405292055,724,73.58718486086345,725,N,Thilamaafushi,Tourism,0,Lh.Thilamaafushi,0,0,LD0879,0,0,0,73.58718486086345,5.273379405292055
Lh,Uninhabited,5.499469347931401,725,73.50959861242873,726,N,Boamandhipparu Huraagan'du,Other,0,Lh.Boamandhipparu Huraagan'du,0,0,LD0963,0,0,0,73.50959861242873,5.499469347931401
Lh,Uninhabited,5.521240597665885,726,73.4415313056389,727,N,Huravalhi,Tourism,0,Lh.Huravalhi,0,0,LD0980,0,0,0,73.4415313056389,5.521240597665885
Lh,Uninhabited,5.485575106074847,727,73.40340802291291,728,N,Gaaerifaru,Fisheries,0,Lh.Gaaerifaru,0,0,LD1013,0,0,0,73.40340802291291,5.485575106074847
Lh,Uninhabited,5.491277742827948,728,73.51519294203399,729,N,Fushifaru,Tourism,0,Lh.Fushifaru,0,0,LD1020,0,0,0,73.51519294203399,5.491277742827948
Lh,Uninhabited,5.422215187313453,729,73.42527871474427,730,N,Dhashugirifinolhu,Other,0,Lh.Dhashugirifinolhu,0,0,LD1028,0,0,0,73.42527871474427,5.422215187313453
Lh,Uninhabited,5.493329259574323,730,73.42422352750371,731,N,Komandoo,Tourism,0,Lh.Komandoo,0,0,LD1107,0,0,0,73.42422352750371,5.493329259574323
Lh,Uninhabited,5.376203685287327,731,73.38281827519651,732,N,Dhihdhoo,Other,0,Lh.Dhihdhoo,0,0,LD1136,0,0,0,73.38281827519651,5.376203685287327
Lh,Uninhabited,5.307849074453759,732,73.48307581918532,733,N,Lhossalafushi,Other,0,Lh.Lhossalafushi,0,0,LD1179,0,0,0,73.48307581918532,5.307849074453759
Lh,Uninhabited,5.281924485299265,733,73.622834229091,734,N,Ookolhufinolhu,Tourism,0,Lh.Ookolhufinolhu,0,0,LD1190,0,0,0,73.622834229091,5.281924485299265
Lh,Uninhabited,5.52726385697326,734,73.4382376647683,735,N,Veligan'du,Other,0,Lh.Veligan'du,0,0,LD1249,0,0,0,73.4382376647683,5.52726385697326
Lh,Uninhabited,5.436136849706339,735,73.61951458216194,736,N,Faadhoohuraagan'du,Agriculture,0,Lh.Faadhoohuraagan'du,0,0,LD1267,0,0,0,73.61951458216194,5.436136849706339
Lh,Uninhabited,5.467450721771991,736,73.56222819948277,737,N,Madhiriguraidhoo,Other,0,Lh.Madhiriguraidhoo,0,0,LD0737,0,0,0,73.56222819948277,5.467450721771991
Lh,Uninhabited,5.540953668351558,737,73.50261681429505,738,N,Medha Adihuraa,Other,0,Lh.Medha Adihuraa,0,0,LD0812,0,0,0,73.50261681429505,5.540953668351558
Lh,Uninhabited,5.502887502258993,738,73.43350261219035,739,N,Kudadhoo,Tourism,0,Lh.Kudadhoo,0,0,LD0837,0,0,0,73.43350261219035,5.502887502258993
Lh,Uninhabited,5.364469879109083,739,73.33580749678842,740,N,Kanifushi,Tourism,0,Lh.Kanifushi,0,0,LD1178,0,0,0,73.33580749678842,5.364469879109083
Lh,Uninhabited,5.415203777482219,740,73.64356330060757,741,N,Hiriyadhoo,Other,0,Lh.Hiriyadhoo,0,0,LD1111,0,0,0,73.64356330060757,5.415203777482219
Lh,Uninhabited,5.387020096540057,741,73.6495045205348,742,N,Dhiffushi,Other,0,Lh.Dhiffushi,0,0,LD0547,0,0,0,73.6495045205348,5.387020096540057
Lh,Uninhabited,5.422960952103813,742,73.63990583793476,743,N,Sehlhifushi,Other,0,Lh.Sehlhifushi,0,0,LD0626,0,0,0,73.63990583793476,5.422960952103813
Lh,Uninhabited,5.358517307291264,743,73.65780563486817,744,N,Fainuaadhanuhuraa,Other,0,Lh.Fainuaadhanuhuraa,0,0,LD0096,0,0,0,73.65780563486817,5.358517307291264
Lh,Uninhabited,5.244326999394146,744,73.51679635660597,745,N,Aligau,Agriculture,0,Lh.Aligau,0,0,LD0282,0,0,0,73.51679635660597,5.244326999394146
Lh,Uninhabited,5.343533236915268,745,73.65761496451316,746,N,,Other,0,,0,0,LD1574,0,0,0,73.65761496451316,5.343533236915268
M,Uninhabited,2.853936228142794,746,73.55092984137933,747,N,Gongalihuraa,Other,0,M.Gongalihuraa,0,0,LD0033,0,0,0,73.55092984137933,2.853936228142794
M,Uninhabited,2.818720046458712,747,73.44390871622075,748,N,Gasveli,Other,0,M.Gasveli,0,0,LD0045,0,0,0,73.44390871622075,2.818720046458712
M,Uninhabited,2.904540221079329,748,73.57893935015305,749,N,Maalhaveli,Other,0,M.Maalhaveli,0,0,LD0186,0,0,0,73.57893935015305,2.904540221079329
M,Uninhabited,2.886990296120861,749,73.57597209258348,750,N,Medhufushi,Tourism,0,M.Medhufushi,0,0,LD0206,0,0,0,73.57597209258348,2.886990296120861
M,Uninhabited,2.779342418534699,750,73.3719279931572,751,N,Gaakurali,Agriculture,0,M.Gaakurali,0,0,LD0274,0,0,0,73.3719279931572,2.779342418534699
M,Uninhabited,2.793502650282742,751,73.42826635099425,752,N,Maahuraa,Other,0,M.Maahuraa,0,0,LD0289,0,0,0,73.42826635099425,2.793502650282742
M,Uninhabited,2.798132542967534,752,73.43214651072999,753,N,Maausfushi,Other,0,M.Maausfushi,0,0,LD0827,0,0,0,73.43214651072999,2.798132542967534
M,Uninhabited,2.853975949309941,753,73.5388503959039,754,N,Hakuraahuraa,Tourism,0,M.Hakuraahuraa,0,0,LD0322,0,0,0,73.5388503959039,2.853975949309941
M,Uninhabited,3.069954982639005,754,73.64207300839297,755,N,Erruhhuraa,Other,0,M.Erruhhuraa,0,0,LD0445,0,0,0,73.64207300839297,3.069954982639005
M,Uninhabited,2.859008008767547,755,73.55573830509785,756,N,Seedheehuraa,Other,0,M.Seedheehuraa,0,0,LD0523,0,0,0,73.55573830509785,2.859008008767547
M,Uninhabited,2.925912990797516,756,73.58568419768909,757,N,Boahuraa,Other,0,M.Boahuraa,0,0,LD0554,0,0,0,73.58568419768909,2.925912990797516
M,Uninhabited,3.029744220240604,757,73.61851284606999,758,N,Uthurugaseveli,Other,0,M.Uthurugaseveli,0,0,LD0565,0,0,0,73.61851284606999,3.029744220240604
M,Uninhabited,2.830109574838622,758,73.4586350080126,759,N,Kekuraalhuveli,Other,0,M.Kekuraalhuveli,0,0,LD0659,0,0,0,73.4586350080126,2.830109574838622
M,Uninhabited,2.765758896907712,759,73.42105428492732,760,N,Dhihthun'di,Other,0,M.Dhihthun'di,0,0,LD0684,0,0,0,73.42105428492732,2.765758896907712
M,Uninhabited,2.803957934694828,760,73.43371221494994,761,N,Kudausfushi,Other,0,M.Kudausfushi,0,0,LD0711,0,0,0,73.43371221494994,2.803957934694828
M,Uninhabited,3.081042688468918,761,73.63852826105395,762,N,Madifushi,Tourism,0,M.Madifushi,0,0,LD0764,0,0,0,73.63852826105395,3.081042688468918
M,Uninhabited,2.778875849258733,762,73.41786503133643,763,N,Etherefasgan'du,Other,0,M.Etherefasgan'du,0,0,LD0830,0,0,0,73.41786503133643,2.778875849258733
M,Uninhabited,3.01894951537988,763,73.6181064007787,764,N,Hurasveli,Other,0,M.Hurasveli,0,0,LD0876,0,0,0,73.6181064007787,3.01894951537988
M,Uninhabited,3.025807830453624,764,73.61828965778024,765,N,Uthuruboduveli,Other,0,M.Uthuruboduveli,0,0,LD0986,0,0,0,73.61828965778024,3.025807830453624
M,Uninhabited,3.036366459432418,765,73.61952836791343,766,N,Hudhuveli,Other,0,M.Hudhuveli,0,0,LD1009,0,0,0,73.61952836791343,3.036366459432418
M,Uninhabited,2.898378247004961,766,73.37938746867074,767,N,Thuvaru,Agriculture and Fisheries,0,M.Thuvaru,0,0,LD1072,0,0,0,73.37938746867074,2.898378247004961
M,Uninhabited,2.82493015992503,767,73.36910013175866,768,N,Bodukan'duhuraa,Other,0,M.Bodukan'duhuraa,0,0,LD1108,0,0,0,73.36910013175866,2.82493015992503
M,Uninhabited,2.780705590571226,768,73.41038516626381,769,N,Vannanerufasgan'du,Other,0,M.Vannanerufasgan'du,0,0,LD1110,0,0,0,73.41038516626381,2.780705590571226
M,Uninhabited,2.825706519149463,769,73.45213330286876,770,N,Dhekunuboduveli,Other,0,M.Dhekunuboduveli,0,0,LD1112,0,0,0,73.45213330286876,2.825706519149463
M,Uninhabited,3.091891116500591,770,73.38875450081646,771,N,Raaban'dhihuraa,Other,0,M.Raaban'dhihuraa,0,0,LD1150,0,0,0,73.38875450081646,3.091891116500591
M,Uninhabited,2.773920858550689,771,73.37212026998729,772,N,Kuradhigan'du,Other,0,M.Kuradhigan'du,0,0,LD1199,0,0,0,73.37212026998729,2.773920858550689
M,Uninhabited,2.788142467311798,772,73.42702826999025,773,N,Fenfuraaveli,Agriculture,0,M.Fenfuraaveli,0,0,LD1471,0,0,0,73.42702826999025,2.788142467311798
M,Uninhabited,2.860301339329298,773,73.55431744627795,774,N,Seedheehuraaveligan'du,Other,0,M.Seedheehuraaveligan'du,0,0,LD0437,0,0,0,73.55431744627795,2.860301339329298
M,Uninhabited,2.946616037330691,774,73.37680961227383,775,N,Thuvaru Uthuruhuraa,Other,0,M.Thuvaru Uthuruhuraa,0,0,LD1466,0,0,0,73.37680961227383,2.946616037330691
M,Uninhabited,2.852545264428522,775,73.53491502249575,776,N,Kakaahuraa,Other,0,M.Kakaahuraa,0,0,LD0064,0,0,0,73.53491502249575,2.852545264428522
N,Uninhabited,5.805349253470097,776,73.17177656420726,777,N,Maavelavaru,Other,0,N.Maavelavaru,0,0,LD0002,0,0,0,73.17177656420726,5.805349253470097
N,Uninhabited,5.71315604096861,777,73.41458007745543,778,N,Medhufaru,Tourism,0,N.Medhufaru,0,0,LD0088,0,0,0,73.41458007745543,5.71315604096861
N,Uninhabited,5.822830428079575,778,73.38742486904468,779,N,Goan'bilivaadhoo,Other,0,N.Goan'bilivaadhoo,0,0,LD0091,0,0,0,73.38742486904468,5.822830428079575
N,Uninhabited,5.801006405616048,779,73.29363429735092,780,N,Orivarukudarah,Other,0,N.Orivarukudarah,0,0,LD0092,0,0,0,73.29363429735092,5.801006405616048
N,Uninhabited,5.754236751860567,780,73.20785726097556,781,N,Fohdhipparu,Other,0,N.Fohdhipparu,0,0,LD0123,0,0,0,73.20785726097556,5.754236751860567
N,Uninhabited,5.95258619081752,781,73.13262693110413,782,N,Kunnamalei,Other,0,N.Kunnamalei,0,0,LD0140,0,0,0,73.13262693110413,5.95258619081752
N,Uninhabited,5.831060780673397,782,73.20935748483018,783,N,Fushivelavaru,Tourism,0,N.Fushivelavaru,0,0,LD0169,0,0,0,73.20935748483018,5.831060780673397
N,Uninhabited,5.864554202414187,783,73.47527948856676,784,N,Farumuli,Other,0,N.Farumuli,0,0,LD0177,0,0,0,73.47527948856676,5.864554202414187
N,Uninhabited,5.8877664663541,784,73.31830635132445,785,N,Dheefuram,Other,0,N.Dheefuram,0,0,LD0213,0,0,0,73.31830635132445,5.8877664663541
N,Uninhabited,5.802136206168358,785,73.29771057646221,786,N,Orivaru,Tourism,0,N.Orivaru,0,0,LD0249,0,0,0,73.29771057646221,5.802136206168358
N,Uninhabited,5.79635027642907,786,73.2273634160244,787,N,Vavathi,Agriculture and Fisheries,0,N.Vavathi,0,0,LD0271,0,0,0,73.2273634160244,5.79635027642907
N,Uninhabited,5.70286183887355,787,73.41305253525232,788,N,Kudafushi,Other,0,N.Kudafushi,0,0,LD0284,0,0,0,73.41305253525232,5.70286183887355
N,Uninhabited,5.670214708482254,788,73.3870982374581,789,N,Karinmavattaru,Agriculture and Fisheries,0,N.Karinmavattaru,0,0,LD0327,0,0,0,73.3870982374581,5.670214708482254
N,Uninhabited,5.949859231279604,789,73.30684563386201,790,N,Ekulhivaru,Other,0,N.Ekulhivaru,0,0,LD0335,0,0,0,73.30684563386201,5.949859231279604
N,Uninhabited,5.852060647916344,790,73.33632022368673,791,N,Kedhivaru,Other,0,N.Kedhivaru,0,0,LD0387,0,0,0,73.33632022368673,5.852060647916344
N,Uninhabited,5.873244274772888,791,73.14372411313265,792,N,Kuramaadhoo,Agriculture,0,N.Kuramaadhoo,0,0,LD0421,0,0,0,73.14372411313265,5.873244274772888
N,Uninhabited,5.861169611523999,792,73.36615241836915,793,N,Maafunafaru,Agriculture,0,N.Maafunafaru,0,0,LD0453,0,0,0,73.36615241836915,5.861169611523999
N,Uninhabited,5.686797062758678,793,73.40459444666776,794,N,Raalhulaakolhu,Other,0,N.Raalhulaakolhu,0,0,LD0512,0,0,0,73.40459444666776,5.686797062758678
N,Uninhabited,5.81495476209247,794,73.32629329453505,795,N,Maavahdhoo,Agriculture,0,N.Maavahdhoo,0,0,LD0559,0,0,0,73.32629329453505,5.81495476209247
N,Uninhabited,5.797197984970303,795,73.34451926197485,796,N,In'guraidhoo,Other,0,N.In'guraidhoo,0,0,LD0567,0,0,0,73.34451926197485,5.797197984970303
N,Uninhabited,5.983337679548932,796,73.32361630205317,797,N,Kalaidhoo,Agriculture,0,N.Kalaidhoo,0,0,LD0616,0,0,0,73.32361630205317,5.983337679548932
N,Uninhabited,5.913093826846697,797,73.31539770965932,798,N,Huivani,Other,0,N.Huivani,0,0,LD0620,0,0,0,73.31539770965932,5.913093826846697
N,Uninhabited,5.845261015536445,798,73.4449938834145,799,N,Huvan'dhumaavattaru,Other,0,N.Huvan'dhumaavattaru,0,0,LD0639,0,0,0,73.4449938834145,5.845261015536445
N,Uninhabited,5.76850591792124,799,73.34352394187775,800,N,Minaavaru,Agriculture,0,N.Minaavaru,0,0,LD0650,0,0,0,73.34352394187775,5.76850591792124
N,Uninhabited,5.920675634399055,800,73.43644515930036,801,N,Tholhendhoo,Other,0,N.Tholhendhoo,0,0,LD0696,0,0,0,73.43644515930036,5.920675634399055
N,Uninhabited,5.698642861151487,801,73.41125487995784,802,N,Bodufushi,Other,0,N.Bodufushi,0,0,LD0713,0,0,0,73.41125487995784,5.698642861151487
N,Uninhabited,5.696671302196697,802,73.31191297077135,803,N,Maakurehdhoo,Agriculture,0,N.Maakurehdhoo,0,0,LD0734,0,0,0,73.31191297077135,5.696671302196697
N,Uninhabited,5.732856259441236,803,73.4135997014417,804,N,Thoshigan'dukolhu,Other,0,N.Thoshigan'dukolhu,0,0,LD0750,0,0,0,73.4135997014417,5.732856259441236
N,Uninhabited,5.785849895248791,804,73.27627921552784,805,N,Loafaru,Other,0,N.Loafaru,0,0,LD0767,0,0,0,73.27627921552784,5.785849895248791
N,Uninhabited,5.787310817568293,805,73.35409132764353,806,N,Kaalhugemendhoo,Other,0,N.Kaalhugemendhoo,0,0,LD0795,0,0,0,73.35409132764353,5.787310817568293
N,Uninhabited,5.972102809018747,806,73.34539004407397,807,N,Bomasdhoo,Agriculture,0,N.Bomasdhoo,0,0,LD0808,0,0,0,73.34539004407397,5.972102809018747
N,Uninhabited,5.999991960025243,807,73.30287067428733,808,N,Bodulhaimendhoo,Other,0,N.Bodulhaimendhoo,0,0,LD0823,0,0,0,73.30287067428733,5.999991960025243
N,Uninhabited,5.716585369354199,808,73.23476688938194,809,N,Than'burudhoo,Agriculture,0,N.Than'burudhoo,0,0,LD0871,0,0,0,73.23476688938194,5.716585369354199
N,Uninhabited,5.857746302477863,809,73.4801914581491,810,N,Kan'dinmaahuraa,Other,0,N.Kan'dinmaahuraa,0,0,LD0877,0,0,0,73.4801914581491,5.857746302477863
N,Uninhabited,5.815065090715594,810,73.31858800805358,811,N,Hulhuhdhoo,Other,0,N.Hulhuhdhoo,0,0,LD0906,0,0,0,73.31858800805358,5.815065090715594
N,Uninhabited,5.835626009160335,811,73.30626067943055,812,N,Felivaru,Agriculture,0,N.Felivaru,0,0,LD0944,0,0,0,73.30626067943055,5.835626009160335
N,Uninhabited,5.863152963015072,812,73.20757128738859,813,N,Orimasvaru,Other,0,N.Orimasvaru,0,0,LD0979,0,0,0,73.20757128738859,5.863152963015072
N,Uninhabited,5.884542753130725,813,73.37793512785906,814,N,Kudafunafaru,Tourism,0,N.Kudafunafaru,0,0,LD0982,0,0,0,73.37793512785906,5.884542753130725
N,Uninhabited,5.647582289997724,814,73.29876108259353,815,N,Raafushi,Other,0,N.Raafushi,0,0,LD0996,0,0,0,73.29876108259353,5.647582289997724
N,Uninhabited,5.744625066099593,815,73.3239514256354,816,N,Medhafushi,Tourism,0,N.Medhafushi,0,0,LD1036,0,0,0,73.3239514256354,5.744625066099593
N,Uninhabited,5.692019592479739,816,73.3414011512138,817,N,Randheli,Tourism,0,N.Randheli,0,0,LD1042,0,0,0,73.3414011512138,5.692019592479739
N,Uninhabited,5.732505063723759,817,73.35928830771893,818,N,Dhigurah,Tourism,0,N.Dhigurah,0,0,LD1052,0,0,0,73.35928830771893,5.732505063723759
N,Uninhabited,5.875310459452431,818,73.34329050808775,819,N,Kuredhivaru,Tourism,0,N.Kuredhivaru,0,0,LD1086,0,0,0,73.34329050808775,5.875310459452431
N,Uninhabited,5.8072549375981,819,73.45667384581358,820,N,Dhelibeyruhelhihuraa,Other,0,N.Dhelibeyruhelhihuraa,0,0,LD1083,0,0,0,73.45667384581358,5.8072549375981
N,Uninhabited,5.920144961551475,820,73.15648745943717,821,N,Dhekenanfaru,Other,0,N.Dhekenanfaru,0,0,LD1105,0,0,0,73.15648745943717,5.920144961551475
N,Uninhabited,5.708696863500556,821,73.24280779074441,822,N,Than'burudhuffushi,Other,0,N.Than'burudhuffushi,0,0,LD1125,0,0,0,73.24280779074441,5.708696863500556
N,Uninhabited,5.72777343222359,822,73.41618762451952,823,N,Maakanaafushi,Other,0,N.Maakanaafushi,0,0,LD1499,0,0,0,73.41618762451952,5.72777343222359
N,Uninhabited,5.962186679167207,823,73.38631196612523,824,N,Kafakomandoo,Other,0,N.Kafakomandoo,0,0,LD0121,0,0,0,73.38631196612523,5.962186679167207
N,Uninhabited,5.695588886853046,824,73.40841642687512,825,N,Ehdhuffarumairah,Other,0,N.Ehdhuffarumairah,0,0,LD0409,0,0,0,73.40841642687512,5.695588886853046
N,Uninhabited,5.646445340591939,825,73.32939680568764,826,N,Dhonaerikan'doodhoo,Other,0,N.Dhonaerikan'doodhoo,0,0,LD0619,0,0,0,73.32939680568764,5.646445340591939
N,Uninhabited,5.685287620330763,826,73.25750304402597,827,N,Ban'daidhihdhoo,Agriculture,0,N.Ban'daidhihdhoo,0,0,LD1145,0,0,0,73.25750304402597,5.685287620330763
N,Uninhabited,5.965499940766409,827,73.36810973055482,828,N,Burehifasdhoo,Other,0,N.Burehifasdhoo,0,0,LD0258,0,0,0,73.36810973055482,5.965499940766409
N,Uninhabited,5.698940093147104,828,73.33541691237629,829,N,,Tourism,0,,0,0,LD1526,0,0,0,73.33541691237629,5.698940093147104
N,Uninhabited,5.696915948263078,829,73.3361174102927,830,N,,Tourism,0,,0,0,LD1525,0,0,0,73.3361174102927,5.696915948263078
N,Uninhabited,5.733892987986515,830,73.36309411523587,831,N,,Tourism,0,,0,0,LD1524,0,0,0,73.36309411523587,5.733892987986515
N,Uninhabited,5.694593046358559,831,73.34468850141948,832,N,,Tourism,0,,0,0,LD1519,0,0,0,73.34468850141948,5.694593046358559
B,Uninhabited,5.3922600851077,832,72.97888037438474,833,N,Huruvalhi,Tourism,0,B.Huruvalhi,0,0,LD0585,0,0,0,72.97888037438474,5.3922600851077
Raa,Uninhabited,5.400715697024194,833,72.99105310280393,834,N,Dheburidheythereyvaadhoo,Agriculture and Fisheries,0,Raa.Dheburidheythereyvaadhoo,0,0,LD0493,0,0,0,72.99105310280393,5.400715697024194
Raa,Uninhabited,5.407550852011493,834,72.89847017509707,835,N,Kudathulhaadhoo,Agriculture,0,Raa.Kudathulhaadhoo,0,0,LD0496,0,0,0,72.89847017509707,5.407550852011493
Raa,Uninhabited,5.440542424427552,835,72.90831663310135,836,N,Furaveri,Tourism,0,Raa.Furaveri,0,0,LD0058,0,0,0,72.90831663310135,5.440542424427552
Raa,Uninhabited,5.447626702724157,836,72.94131996527875,837,N,Aarah,Tourism,0,Raa.Aarah,0,0,LD0444,0,0,0,72.94131996527875,5.447626702724157
Raa,Uninhabited,5.456004720546674,837,72.97989728694648,838,N,Meedhupparu,Tourism,0,Raa.Meedhupparu,0,0,LD0095,0,0,0,72.97989728694648,5.456004720546674
Raa,Uninhabited,5.485249981467971,838,72.97524088016098,839,N,Thaavathaa,Other,0,Raa.Thaavathaa,0,0,LD0434,0,0,0,72.97524088016098,5.485249981467971
Raa,Uninhabited,5.491839956805291,839,72.93829479006918,840,N,Filaidhoo,Tourism,0,Raa.Filaidhoo,0,0,LD0043,0,0,0,72.93829479006918,5.491839956805291
Raa,Uninhabited,5.494003071835333,840,72.99717094057935,841,N,Dhoragali,Other,0,Raa.Dhoragali,0,0,LD0218,0,0,0,72.99717094057935,5.494003071835333
Raa,Uninhabited,5.494197743428484,841,72.88157730801107,842,N,Fasmendhoo,Tourism,0,Raa.Fasmendhoo,0,0,LD0477,0,0,0,72.88157730801107,5.494197743428484
Raa,Uninhabited,5.507680662859386,842,72.96891124495019,843,N,Bodufushi,Tourism,0,Raa.Bodufushi,0,0,LD0097,0,0,0,72.96891124495019,5.507680662859386
Raa,Uninhabited,5.510654468762657,843,72.9801766749946,844,N,Kudafushi,Tourism,0,Raa.Kudafushi,0,0,LD1016,0,0,0,72.9801766749946,5.510654468762657
Raa,Uninhabited,5.513788428198938,844,72.84928548088284,845,N,Kuroshigiri,Other,0,Raa.Kuroshigiri,0,0,LD0295,0,0,0,72.84928548088284,5.513788428198938
Raa,Uninhabited,5.556463070541228,845,72.94567961884525,846,N,Angaagiri,Other,0,Raa.Angaagiri,0,0,LD0965,0,0,0,72.94567961884525,5.556463070541228
Raa,Uninhabited,5.564607643645699,846,72.92865872848775,847,N,Goyyafaru,Other,0,Raa.Goyyafaru,0,0,LD0144,0,0,0,72.92865872848775,5.564607643645699
Raa,Uninhabited,5.588278717759226,847,72.86094260971653,848,N,Giraavaru,Other,0,Raa.Giraavaru,0,0,LD0122,0,0,0,72.86094260971653,5.588278717759226
Raa,Uninhabited,5.601706623881548,848,72.91326287363117,849,N,Kudalhosgiri,Other,0,Raa.Kudalhosgiri,0,0,LD0025,0,0,0,72.91326287363117,5.601706623881548
Raa,Uninhabited,5.61121808181036,849,72.96959903395698,850,N,Boduhaiykodi,Fisheries,0,Raa.Boduhaiykodi,0,0,LD0086,0,0,0,72.96959903395698,5.61121808181036
Raa,Uninhabited,5.724190317560015,850,72.85506157685855,851,N,Fuggiri,Other,0,Raa.Fuggiri,0,0,LD0236,0,0,0,72.85506157685855,5.724190317560015
Raa,Uninhabited,5.537581894117606,851,72.94380579055776,852,N,Mahidhoo,Other,0,Raa.Mahidhoo,0,0,LD0269,0,0,0,72.94380579055776,5.537581894117606
Raa,Uninhabited,5.551723036154834,852,72.88393740013123,853,N,Goboshi,Other,0,Raa.Goboshi,0,0,LD0355,0,0,0,72.88393740013123,5.551723036154834
Raa,Uninhabited,5.572206689303722,853,72.8686184069764,854,N,Hiraveri,Other,0,Raa.Hiraveri,0,0,LD0385,0,0,0,72.8686184069764,5.572206689303722
Raa,Uninhabited,5.581105906346294,854,72.90645907428946,855,N,Orimasfushi,Other,0,Raa.Orimasfushi,0,0,LD0297,0,0,0,72.90645907428946,5.581105906346294
Raa,Uninhabited,5.608259409586351,855,72.98947151782009,856,N,Madivaafaru,Other,0,Raa.Madivaafaru,0,0,LD0319,0,0,0,72.98947151782009,5.608259409586351
Raa,Uninhabited,5.607814270397767,856,72.95233439415779,857,N,Muravandhoo,Tourism,0,Raa.Muravandhoo,0,0,LD0401,0,0,0,72.95233439415779,5.607814270397767
Raa,Uninhabited,5.612689598242702,857,72.91904486546578,858,N,Hiboodhoo,Other,0,Raa.Hiboodhoo,0,0,LD0106,0,0,0,72.91904486546578,5.612689598242702
Raa,Uninhabited,5.622277252008751,858,72.85232250164073,859,N,Ban'daveri,Other,0,Raa.Ban'daveri,0,0,LD0320,0,0,0,72.85232250164073,5.622277252008751
Raa,Uninhabited,5.625228994999658,859,72.93508264613003,860,N,Kudafenmaaen'boodhoo,Other,0,Raa.Kudafenmaaen'boodhoo,0,0,LD0478,0,0,0,72.93508264613003,5.625228994999658
Raa,Uninhabited,5.629884604963323,860,72.92335951152464,861,N,Bodufenmaaen'boodhoo,Other,0,Raa.Bodufenmaaen'boodhoo,0,0,LD0632,0,0,0,72.92335951152464,5.629884604963323
Raa,Uninhabited,5.628914740672561,861,72.86248872595355,862,N,Vaffushi,Other,0,Raa.Vaffushi,0,0,LD0231,0,0,0,72.86248872595355,5.628914740672561
Raa,Uninhabited,5.640514585240138,862,72.8943165881438,863,N,Kurehdhoo,Other,0,Raa.Kurehdhoo,0,0,LD0018,0,0,0,72.8943165881438,5.640514585240138
Raa,Uninhabited,5.64276664683081,863,72.83993847622708,864,N,Vaffushihuraa,Other,0,Raa.Vaffushihuraa,0,0,LD0113,0,0,0,72.83993847622708,5.64276664683081
Raa,Uninhabited,5.669861185668772,864,72.84579373504272,865,N,Uthurumaafaru,Tourism,0,Raa.Uthurumaafaru,0,0,LD0428,0,0,0,72.84579373504272,5.669861185668772
Raa,Uninhabited,5.738719503012804,865,73.01888435500496,866,N,Hulhudhoo,Other,0,Raa.Hulhudhoo,0,0,LD0612,0,0,0,73.01888435500496,5.738719503012804
Raa,Uninhabited,5.730764268698837,866,72.93423984986008,867,N,Lin'boakandhoo,Agriculture,0,Raa.Lin'boakandhoo,0,0,LD0580,0,0,0,72.93423984986008,5.730764268698837
Raa,Uninhabited,5.74935798351157,867,73.01576435486413,868,N,Gaaun'doodhoo,Agriculture and Fisheries,0,Raa.Gaaun'doodhoo,0,0,LD0105,0,0,0,73.01576435486413,5.74935798351157
Raa,Uninhabited,5.767960383584226,868,72.96533708235116,869,N,Faarufushi,Tourism,0,Raa.Faarufushi,0,0,LD0125,0,0,0,72.96533708235116,5.767960383584226
Raa,Uninhabited,5.588322745897861,869,72.92618312379113,870,N,Minaadhoo,Other,0,Raa.Minaadhoo,0,0,LD1212,0,0,0,72.92618312379113,5.588322745897861
Raa,Uninhabited,5.519803338006795,870,72.90727125874515,871,N,Mullaafushi,Other,0,Raa.Mullaafushi,0,0,LD0603,0,0,0,72.90727125874515,5.519803338006795
Raa,Uninhabited,5.576840558441188,871,72.95671659332243,872,N,Dhikkurehdhoo,Other,0,Raa.Dhikkurehdhoo,0,0,LD0404,0,0,0,72.95671659332243,5.576840558441188
Raa,Uninhabited,5.417419837749744,872,73.022543788136,873,N,Boduhuraa,Other,0,Raa.Boduhuraa,0,0,LD0134,0,0,0,73.022543788136,5.417419837749744
Raa,Uninhabited,5.643580775975219,873,72.98694457061646,874,N,Lun'dhufushi,Other,0,Raa.Lun'dhufushi,0,0,LD0241,0,0,0,72.98694457061646,5.643580775975219
Raa,Uninhabited,5.432136501143506,874,72.89668107612813,875,N,Dhekunumaafarufinolhu,Other,0,Raa.Dhekunumaafarufinolhu,0,0,LD0315,0,0,0,72.89668107612813,5.432136501143506
Raa,Uninhabited,5.97885751328338,875,72.9381163571809,876,N,Ehthigili,Other,0,Raa.Ehthigili,0,0,LD0643,0,0,0,72.9381163571809,5.97885751328338
Raa,Uninhabited,5.690771038947864,876,73.02641463072999,877,N,Un'gulu,Agriculture,0,Raa.Un'gulu,0,0,LD0070,0,0,0,73.02641463072999,5.690771038947864
Raa,Uninhabited,5.583884551071953,877,73.04463868499884,878,N,Kudakurathu,Tourism,0,Raa.Kudakurathu,0,0,LD0110,0,0,0,73.04463868499884,5.583884551071953
Raa,Uninhabited,5.70783792466027,878,73.02417695479954,879,N,Ifuru,Other,0,Raa.Ifuru,0,0,LD0298,0,0,0,73.02417695479954,5.70783792466027
Raa,Uninhabited,5.531680464820437,879,73.0419978261308,880,N,Vandhoo,Other,0,Raa.Vandhoo,0,0,LD0736,0,0,0,73.0419978261308,5.531680464820437
Raa,Uninhabited,5.639842872758687,880,73.04154683459771,881,N,Dhuvaafaruhuraa,Other,0,Raa.Dhuvaafaruhuraa,0,0,LD0821,0,0,0,73.04154683459771,5.639842872758687
Raa,Uninhabited,5.492522056559358,881,73.03881592401079,882,N,Neyo,Agriculture,0,Raa.Neyo,0,0,LD0840,0,0,0,73.03881592401079,5.492522056559358
Raa,Uninhabited,5.660371708597703,882,72.95747395944404,883,N,Arilundhoo,Other,0,Raa.Arilundhoo,0,0,LD0917,0,0,0,72.95747395944404,5.660371708597703
Raa,Uninhabited,5.766766349574568,883,72.89331784194218,884,N,Veyvah,Other,0,Raa.Veyvah,0,0,LD1063,0,0,0,72.89331784194218,5.766766349574568
Raa,Uninhabited,5.509999651225942,884,73.04125581417064,885,N,Kottefaru,Tourism,0,Raa.Kottefaru,0,0,LD1127,0,0,0,73.04125581417064,5.509999651225942
Raa,Uninhabited,5.537815344694914,885,72.98403717797152,886,N,Gemana,Other,0,Raa.Gemana,0,0,LD1151,0,0,0,72.98403717797152,5.537815344694914
Raa,Uninhabited,5.553043020437949,886,72.87661629568878,887,N,Lhaan'bugali,Other,0,Raa.Lhaan'bugali,0,0,LD0667,0,0,0,72.87661629568878,5.553043020437949
Raa,Uninhabited,5.51402587859319,887,72.82687987641158,888,N,Maashigiri,Other,0,Raa.Maashigiri,0,0,LD0679,0,0,0,72.82687987641158,5.51402587859319
Raa,Uninhabited,5.529037077835289,888,72.80645802489553,889,N,Bodufarufinolhu,Other,0,Raa.Bodufarufinolhu,0,0,LD0739,0,0,0,72.80645802489553,5.529037077835289
Raa,Uninhabited,5.525176407020485,889,72.84287510500975,890,N,Kothaifaru,Tourism,0,Raa.Kothaifaru,0,0,LD0822,0,0,0,72.84287510500975,5.525176407020485
Raa,Uninhabited,5.588963201706109,890,72.8335033410717,891,N,Dhinnaafushi,Other,0,Raa.Dhinnaafushi,0,0,LD1055,0,0,0,72.8335033410717,5.588963201706109
Raa,Uninhabited,5.750978495560359,891,72.96114690158791,892,N,Maanenfushi,Other,0,Raa.Maanenfushi,0,0,LD0961,0,0,0,72.96114690158791,5.750978495560359
Raa,Uninhabited,5.382424496458728,892,72.90259050999329,893,N,Fenfushi,Other,0,Raa.Fenfushi,0,0,LD1120,0,0,0,72.90259050999329,5.382424496458728
Raa,Uninhabited,5.472973815757108,893,72.84385746038667,894,N,Kukulhudhuffaru,Other,0,Raa.Kukulhudhuffaru,0,0,LD1238,0,0,0,72.84385746038667,5.472973815757108
Raa,Uninhabited,5.461486198785362,894,72.88518533075889,895,N,Lhohi,Agriculture,0,Raa.Lhohi,0,0,LD0872,0,0,0,72.88518533075889,5.461486198785362
Raa,Uninhabited,5.376995007138825,895,72.95515690510538,896,N,Vilin'gili,Other,0,Raa.Vilin'gili,0,0,LD0661,0,0,0,72.95515690510538,5.376995007138825
Raa,Uninhabited,5.369799432711281,896,72.87690655541051,897,N,Maamunagaufinolhu,Other,0,Raa.Maamunagaufinolhu,0,0,LD0779,0,0,0,72.87690655541051,5.369799432711281
Raa,Uninhabited,5.464324435729358,897,72.91331238646188,898,N,Ufulandhoo,Other,0,Raa.Ufulandhoo,0,0,LD0163,0,0,0,72.91331238646188,5.464324435729358
Raa,Uninhabited,5.6509766188624,898,72.8845554465817,899,N,Maamin'gili,Tourism,0,Raa.Maamin'gili,0,0,LD0746,0,0,0,72.8845554465817,5.6509766188624
Raa,Uninhabited,5.618665842204219,899,72.85514413470379,900,N,Kan'dholhudhoo,Other,0,Raa.Kan'dholhudhoo,0,0,LD0800,0,0,0,72.85514413470379,5.618665842204219
Raa,Uninhabited,5.475129053847254,900,72.953766669878,901,N,Dhigali,Tourism,0,Raa.Dhigali,0,0,LD0918,0,0,0,72.953766669878,5.475129053847254
Raa,Uninhabited,5.630030433343298,901,72.88760302939437,902,N,Goiymaru,Other,0,Raa.Goiymaru,0,0,LD1022,0,0,0,72.88760302939437,5.630030433343298
Raa,Uninhabited,5.360061256041971,902,72.91915665023919,903,N,Maamunagau,Tourism,0,Raa.Maamunagau,0,0,LD0675,0,0,0,72.91915665023919,5.360061256041971
Raa,Uninhabited,5.459235659098727,903,72.87114056307938,904,N,Kukulhudhoo,Other,0,Raa.Kukulhudhoo,0,0,LD1122,0,0,0,72.87114056307938,5.459235659098727
Raa,Uninhabited,5.780892713537292,904,72.87612855079935,905,N,Kan'doogan'du,Other,0,Raa.Kan'doogan'du,0,0,LD0914,0,0,0,72.87612855079935,5.780892713537292
Raa,Uninhabited,5.768937892857877,905,72.96775184204921,906,N,,Tourism,0,,0,0,LD1540,0,0,0,72.96775184204921,5.768937892857877
Raa,Uninhabited,5.769897063988432,906,72.96716492136603,907,N,,Tourism,0,,0,0,LD1539,0,0,0,72.96716492136603,5.769897063988432
S,Uninhabited,-0.576947673953184,907,73.20750833978462,908,N,Kedevaahera,Other,0,S.Kedevaahera,0,0,LD0992,0,0,0,73.20750833978462,-0.576947673953184
S,Uninhabited,-0.579823426755168,908,73.22171109473817,909,N,Hikahera,Other,0,S.Hikahera,0,0,LD0707,0,0,0,73.22171109473817,-0.579823426755168
S,Uninhabited,-0.580330665918765,909,73.22332628325483,910,N,Kudhehera,Other,0,S.Kudhehera,0,0,LD1469,0,0,0,73.22332628325483,-0.580330665918765
S,Uninhabited,-0.62377045087216,910,73.22583739603006,911,N,Herethere,Tourism,0,S.Herethere,0,0,LD0990,0,0,0,73.22583739603006,-0.62377045087216
S,Uninhabited,-0.646095934956811,911,73.22134531181783,912,N,Geskalhuheraa,Other,0,S.Geskalhuheraa,0,0,LD0722,0,0,0,73.22134531181783,-0.646095934956811
S,Uninhabited,-0.659072526577628,912,73.21674191193637,913,N,Mulikede,Other,0,S.Mulikede,0,0,LD0384,0,0,0,73.21674191193637,-0.659072526577628
S,Uninhabited,-0.65528457466049,913,73.11082769146752,914,N,Hankede,Other,0,S.Hankede,0,0,LD0219,0,0,0,73.11082769146752,-0.65528457466049
S,Uninhabited,-0.589401809327518,914,73.08729748121934,915,N,Bedhey Aurah,Other,0,S.Bedhey Aurah,0,0,LD0057,0,0,0,73.08729748121934,-0.589401809327518
S,Uninhabited,-0.594825252034634,915,73.08726056265711,916,N,Dheeron'di,Other,0,S.Dheeron'di,0,0,LD0378,0,0,0,73.08726056265711,-0.594825252034634
S,Uninhabited,-0.595308856755579,916,73.09006104672856,917,N,Maahera,Other,0,S.Maahera,0,0,LD0702,0,0,0,73.09006104672856,-0.595308856755579
S,Uninhabited,-0.598423523511214,917,73.08897166807405,918,N,Kudamaahera,Other,0,S.Kudamaahera,0,0,LD0515,0,0,0,73.08897166807405,-0.598423523511214
S,Uninhabited,-0.602106829469647,918,73.10046645652878,919,N,,Other,0,,0,0,LD0895,0,0,0,73.10046645652878,-0.602106829469647
S,Uninhabited,-0.615035747295548,919,73.1423641470161,920,N,Kan'diheragan'du,Other,0,S.Kan'diheragan'du,0,0,LD0506,0,0,0,73.1423641470161,-0.615035747295548
S,Uninhabited,-0.578431219061953,920,73.21538659930764,921,N,Ismehelaahera,Tourism,0,S.Ismehelaahera,0,0,LD1472,0,0,0,73.21538659930764,-0.578431219061953
S,Uninhabited,-0.676742358019583,921,73.19461294438428,922,N,Vilin'gili,Other,0,S.Vilin'gili,0,0,LD0035,0,0,0,73.19461294438428,-0.676742358019583
S,Uninhabited,-0.692076504375978,922,73.18293218211296,923,N,Gomahera,Other,0,S.Gomahera,0,0,LD0817,0,0,0,73.18293218211296,-0.692076504375978
S,Uninhabited,-0.690633586311732,923,73.18255900843918,924,N,,Other,0,,0,0,LD1452,0,0,0,73.18255900843918,-0.690633586311732
S,Uninhabited,-0.680864142818023,924,73.12616290789732,925,N,Savaaheli,Other,0,S.Savaaheli,0,0,LD0899,0,0,0,73.12616290789732,-0.680864142818023
S,Uninhabited,-0.677357314196743,925,73.12363311982881,926,N,Boduhajaraa,Other,0,S.Boduhajaraa,0,0,LD0569,0,0,0,73.12363311982881,-0.677357314196743
S,Uninhabited,-0.612034078979697,926,73.14856314566252,927,N,Fathikedeheragan'du,Other,0,S.Fathikedeheragan'du,0,0,LD1140,0,0,0,73.14856314566252,-0.612034078979697
S,Uninhabited,-0.590906844737892,927,73.08859023194279,928,N,Kaohera,Other,0,S.Kaohera,0,0,LD0855,0,0,0,73.08859023194279,-0.590906844737892
Sh,Uninhabited,6.070715254876362,928,73.28450292997333,929,N,Ekasdhoo,Agriculture,0,Sh.Ekasdhoo,0,0,LD0155,0,0,0,73.28450292997333,6.070715254876362
Sh,Uninhabited,6.19701802301955,929,73.03014658368599,930,N,Medhukun'burudhoo,Agriculture,0,Sh.Medhukun'burudhoo,0,0,LD0074,0,0,0,73.03014658368599,6.19701802301955
Sh,Uninhabited,6.234757237831484,930,73.26734436147927,931,N,Maakan'doodhoo,Other,0,Sh.Maakan'doodhoo,0,0,LD0141,0,0,0,73.26734436147927,6.234757237831484
Sh,Uninhabited,6.279296375435117,931,73.19575744998899,932,N,Narurin'budhoo,Other,0,Sh.Narurin'budhoo,0,0,LD0090,0,0,0,73.19575744998899,6.279296375435117
Sh,Uninhabited,5.979645044550884,932,73.11079924501388,933,N,Bolissafaru,Other,0,Sh.Bolissafaru,0,0,LD0193,0,0,0,73.11079924501388,5.979645044550884
Sh,Uninhabited,6.191844029872726,933,73.29854514397033,934,N,Farukolhu,Other,0,Sh.Farukolhu,0,0,LD0374,0,0,0,73.29854514397033,6.191844029872726
Sh,Uninhabited,6.155114254056389,934,73.29252126160854,935,N,Bis Alhaahuraa,Other,0,Sh.Bis Alhaahuraa,0,0,LD0285,0,0,0,73.29252126160854,6.155114254056389
Sh,Uninhabited,6.228746253222329,935,73.24136313905358,936,N,Migoodhoo,Other,0,Sh.Migoodhoo,0,0,LD0465,0,0,0,73.24136313905358,6.228746253222329
Sh,Uninhabited,6.187920167867481,936,73.24542652077339,937,N,Hirubadhoo,Other,0,Sh.Hirubadhoo,0,0,LD0480,0,0,0,73.24542652077339,6.187920167867481
Sh,Uninhabited,5.995842671654119,937,73.21300976752171,938,N,Dholhiyadhoo,Other,0,Sh.Dholhiyadhoo,0,0,LD0562,0,0,0,73.21300976752171,5.995842671654119
Sh,Uninhabited,6.395719097152693,938,72.92582714855939,939,N,Fushifaru,Other,0,Sh.Fushifaru,0,0,LD0629,0,0,0,72.92582714855939,6.395719097152693
Sh,Uninhabited,6.089266830223576,939,73.2039000550778,940,N,Van'garu,Tourism,0,Sh.Van'garu,0,0,LD0674,0,0,0,73.2039000550778,6.089266830223576
Sh,Uninhabited,6.32064985240604,940,73.23031109643746,941,N,Nalandhoo,Other,0,Sh.Nalandhoo,0,0,LD0744,0,0,0,73.23031109643746,6.32064985240604
Sh,Uninhabited,5.969044176017657,941,73.12445571378427,942,N,Gallaidhoo,Other,0,Sh.Gallaidhoo,0,0,LD0854,0,0,0,73.12445571378427,5.969044176017657
Sh,Uninhabited,6.450208392591477,942,73.05972074852379,943,N,Neyo,Other,0,Sh.Neyo,0,0,LD1169,0,0,0,73.05972074852379,6.450208392591477
Sh,Uninhabited,6.203600577894367,943,72.99836072147234,944,N,Naainfarufinolhu,Other,0,Sh.Naainfarufinolhu,0,0,LD1170,0,0,0,72.99836072147234,6.203600577894367
Sh,Uninhabited,6.284386101213567,944,73.15096028699816,945,N,Madikuredhdhoo,Agriculture and Fisheries,0,Sh.Madikuredhdhoo,0,0,LD0210,0,0,0,73.15096028699816,6.284386101213567
Sh,Uninhabited,6.30257909699223,945,73.10890647610012,946,N,Madidhoo,Agriculture,0,Sh.Madidhoo,0,0,LD0248,0,0,0,73.10890647610012,6.30257909699223
Sh,Uninhabited,6.478089960634382,946,72.90225823466999,947,N,Kakaaeriyadhoo,Other,0,Sh.Kakaaeriyadhoo,0,0,LD0266,0,0,0,72.90225823466999,6.478089960634382
Sh,Uninhabited,6.015793833489196,947,73.29636287246976,948,N,Kudalhaimendhoo,Other,0,Sh.Kudalhaimendhoo,0,0,LD0304,0,0,0,73.29636287246976,6.015793833489196
Sh,Uninhabited,6.01945722454871,948,73.08775287829476,949,N,Dhiguvelidhoomairah,Other,0,Sh.Dhiguvelidhoomairah,0,0,LD0485,0,0,0,73.08775287829476,6.01945722454871
Sh,Uninhabited,6.103314683123331,949,73.28865305839686,950,N,Eriadhoo,Fisheries,0,Sh.Eriadhoo,0,0,LD0491,0,0,0,73.28865305839686,6.103314683123331
Sh,Uninhabited,6.43595993362971,950,72.9075203945361,951,N,Kudadhoo,Other,0,Sh.Kudadhoo,0,0,LD0818,0,0,0,72.9075203945361,6.43595993362971
Sh,Uninhabited,6.022763015823717,951,73.07992007921783,952,N,Medhurah,Other,0,Sh.Medhurah,0,0,LD0655,0,0,0,73.07992007921783,6.022763015823717
Sh,Uninhabited,6.029892898973233,952,73.06792116796824,953,N,Dhigurah,Other,0,Sh.Dhigurah,0,0,LD0317,0,0,0,73.06792116796824,6.029892898973233
Sh,Uninhabited,6.184084149566081,953,73.29845714670479,954,N,Dhonvelihuraa,Other,0,Sh.Dhonvelihuraa,0,0,LD0279,0,0,0,73.29845714670479,6.184084149566081
Sh,Uninhabited,6.127871168939756,954,73.03598115269867,955,N,Naalaahuraa,Other,0,Sh.Naalaahuraa,0,0,LD0131,0,0,0,73.03598115269867,6.127871168939756
Sh,Uninhabited,6.114340771330628,955,73.2276236388883,956,N,Firun'baidhoo,Agriculture,0,Sh.Firun'baidhoo,0,0,LD0049,0,0,0,73.2276236388883,6.114340771330628
Sh,Uninhabited,6.007248765502905,956,73.11204869400214,957,N,Keekimini,Fisheries,0,Sh.Keekimini,0,0,LD0306,0,0,0,73.11204869400214,6.007248765502905
Sh,Uninhabited,6.057024017825012,957,73.04615277057161,958,N,Mathikomandoo,Other,0,Sh.Mathikomandoo,0,0,LD0402,0,0,0,73.04615277057161,6.057024017825012
Sh,Uninhabited,6.123263643050381,958,73.25446248357983,959,N,Kan'baalifaru,Other,0,Sh.Kan'baalifaru,0,0,LD0424,0,0,0,73.25446248357983,6.123263643050381
Sh,Uninhabited,6.111936492407334,959,73.0383141515577,960,N,Raggan'duhuraa,Other,0,Sh.Raggan'duhuraa,0,0,LD0463,0,0,0,73.0383141515577,6.111936492407334
Sh,Uninhabited,6.0717703002442,960,73.04368985426119,961,N,Boduhuraa,Other,0,Sh.Boduhuraa,0,0,LD0647,0,0,0,73.04368985426119,6.0717703002442
Sh,Uninhabited,6.286398616382852,961,73.01225280640371,962,N,Gaakoshibi,Tourism,0,Sh.Gaakoshibi,0,0,LD0927,0,0,0,73.01225280640371,6.286398616382852
Sh,Uninhabited,6.140257366205467,962,73.03624040174823,963,N,Hurasfaru,Other,0,Sh.Hurasfaru,0,0,LD0921,0,0,0,73.03624040174823,6.140257366205467
Sh,Uninhabited,6.064378185045702,963,73.04437285656094,964,N,Kudafarufinolhu,Other,0,Sh.Kudafarufinolhu,0,0,LD1159,0,0,0,73.04437285656094,6.064378185045702
Th,Uninhabited,2.308984141600939,964,72.95171296015864,965,N,Kudadhoo,Other,0,Th.Kudadhoo,0,0,LD0848,0,0,0,72.95171296015864,2.308984141600939
Th,Uninhabited,2.315541207505892,965,72.94413659710413,966,N,Kakolhas,Agriculture,0,Th.Kakolhas,0,0,LD0644,0,0,0,72.94413659710413,2.315541207505892
Th,Uninhabited,2.326560292536793,966,72.96188907655464,967,N,Kafidhoo,Other,0,Th.Kafidhoo,0,0,LD0041,0,0,0,72.96188907655464,2.326560292536793
Th,Uninhabited,2.314432253717345,967,72.98239323423796,968,N,Fondhoo,Other,0,Th.Fondhoo,0,0,LD0143,0,0,0,72.98239323423796,2.314432253717345
Th,Uninhabited,2.365394376057257,968,72.90827218669696,969,N,Olhufushi,Other,0,Th.Olhufushi,0,0,LD0939,0,0,0,72.90827218669696,2.365394376057257
Th,Uninhabited,2.37201310180625,969,72.90815159408689,970,N,Olhufushifinolhu,Other,0,Th.Olhufushifinolhu,0,0,LD1103,0,0,0,72.90815159408689,2.37201310180625
Th,Uninhabited,2.531367429935932,970,72.98719045923251,971,N,Kan'dufushi,Other,0,Th.Kan'dufushi,0,0,LD0118,0,0,0,72.98719045923251,2.531367429935932
Th,Uninhabited,2.547193845225961,971,73.15432644258537,972,N,Gaalee,Other,0,Th.Gaalee,0,0,LD0998,0,0,0,73.15432644258537,2.547193845225961
Th,Uninhabited,2.539321066134523,972,73.17613252374582,973,N,Kuran'dhuvaru,Other,0,Th.Kuran'dhuvaru,0,0,LD1162,0,0,0,73.17613252374582,2.539321066134523
Th,Uninhabited,2.54904322730318,973,73.15698229165544,974,N,,Other,0,,0,0,LD1073,0,0,0,73.15698229165544,2.54904322730318
Th,Uninhabited,2.53848859383765,974,73.17956237385297,975,N,Maagulhi,Other,0,Th.Maagulhi,0,0,LD0184,0,0,0,73.17956237385297,2.53848859383765
Th,Uninhabited,2.514539738144408,975,73.2325080226101,976,N,Dhiffushi,Other,0,Th.Dhiffushi,0,0,LD0829,0,0,0,73.2325080226101,2.514539738144408
Th,Uninhabited,2.505845258147342,976,73.2556153329631,977,N,Olhugiri,Other,0,Th.Olhugiri,0,0,LD0240,0,0,0,73.2556153329631,2.505845258147342
Th,Uninhabited,2.49517904305224,977,73.31258001896947,978,N,Hon'delifushi,Other,0,Th.Hon'delifushi,0,0,LD0386,0,0,0,73.31258001896947,2.49517904305224
Th,Uninhabited,2.490198488232939,978,73.31498944654051,979,N,Dhonanfushi,Other,0,Th.Dhonanfushi,0,0,LD0539,0,0,0,73.31498944654051,2.490198488232939
Th,Uninhabited,2.427826066904636,979,73.35618631572903,980,N,Kalhufahalafushi,Other,0,Th.Kalhufahalafushi,0,0,LD0034,0,0,0,73.35618631572903,2.427826066904636
Th,Uninhabited,2.364811177714307,980,73.36331857722902,981,N,Kolhufushi,Other,0,Th.Kolhufushi,0,0,LD0905,0,0,0,73.36331857722902,2.364811177714307
Th,Uninhabited,2.1927982113806,981,72.9690509140537,982,N,Fushi,Other,0,Th.Fushi,0,0,LD0471,0,0,0,72.9690509140537,2.1927982113806
Th,Uninhabited,2.189848728851855,982,72.9736598128419,983,N,Kani,Other,0,Th.Kani,0,0,LD0759,0,0,0,72.9736598128419,2.189848728851855
Th,Uninhabited,2.186747283526946,983,72.97637429037603,984,N,Vanbadhi,Other,0,Th.Vanbadhi,0,0,LD0460,0,0,0,72.97637429037603,2.186747283526946
Th,Uninhabited,2.168784545569328,984,73.012090283377,985,N,Dhururehaa,Agriculture,0,Th.Dhururehaa,0,0,LD0161,0,0,0,73.012090283377,2.168784545569328
Th,Uninhabited,2.16985754769215,985,73.01389781166472,986,N,,Other,0,,0,0,LD0005,0,0,0,73.01389781166472,2.16985754769215
Th,Uninhabited,2.170077668716983,986,73.01550021098791,987,N,Gaathurehaa,Other,0,Th.Gaathurehaa,0,0,LD0614,0,0,0,73.01550021098791,2.170077668716983
Th,Uninhabited,2.167287785791504,987,73.03323854620075,988,N,Kuredhifushi,Other,0,Th.Kuredhifushi,0,0,LD0138,0,0,0,73.03323854620075,2.167287785791504
Th,Uninhabited,2.168276126407621,988,73.0527853578672,989,N,Ruhthibirah,Other,0,Th.Ruhthibirah,0,0,LD0709,0,0,0,73.0527853578672,2.168276126407621
Th,Uninhabited,2.164425456853774,989,73.0630421108028,990,N,Kudakin'bidhoo,Other,0,Th.Kudakin'bidhoo,0,0,LD0449,0,0,0,73.0630421108028,2.164425456853774
Th,Uninhabited,2.171293674968304,990,73.07980442256121,991,N,Elaa,Other,0,Th.Elaa,0,0,LD1078,0,0,0,73.07980442256121,2.171293674968304
Th,Uninhabited,2.195274251099013,991,73.11154909544953,992,N,Kanimeedhoo,Other,0,Th.Kanimeedhoo,0,0,LD1123,0,0,0,73.11154909544953,2.195274251099013
Th,Uninhabited,2.198165127721729,992,73.1289187623696,993,N,Funaddu,Fisheries,0,Th.Funaddu,0,0,LD0293,0,0,0,73.1289187623696,2.198165127721729
Th,Uninhabited,2.246194161667339,993,73.20473162218582,994,N,Usfushi,Other,0,Th.Usfushi,0,0,LD0898,0,0,0,73.20473162218582,2.246194161667339
Th,Uninhabited,2.258680844522797,994,73.21825375012362,995,N,Hulhiyanfushi,Other,0,Th.Hulhiyanfushi,0,0,LD0796,0,0,0,73.21825375012362,2.258680844522797
Th,Uninhabited,2.263795734482493,995,73.22365383178028,996,N,Kolafushi,Other,0,Th.Kolafushi,0,0,LD1011,0,0,0,73.22365383178028,2.263795734482493
Th,Uninhabited,2.265777710354542,996,73.2263482508521,997,N,Ekuruffushi,Other,0,Th.Ekuruffushi,0,0,LD1001,0,0,0,73.2263482508521,2.265777710354542
Th,Uninhabited,2.267702735714061,997,73.22912395619609,998,N,Bodurehaa,Other,0,Th.Bodurehaa,0,0,LD1202,0,0,0,73.22912395619609,2.267702735714061
Th,Uninhabited,2.270337476451527,998,73.2332753591021,999,N,Fenmeerufushi,Other,0,Th.Fenmeerufushi,0,0,LD0351,0,0,0,73.2332753591021,2.270337476451527
Th,Uninhabited,2.272205980470821,999,73.23588512967501,1000,N,Olhudhiyafushi,Other,0,Th.Olhudhiyafushi,0,0,LD1035,0,0,0,73.23588512967501,2.272205980470821
Th,Uninhabited,2.281798698232355,1000,73.25458951034065,1001,N,Kaaddoo,Other,0,Th.Kaaddoo,0,0,LD0533,0,0,0,73.25458951034065,2.281798698232355
Th,Uninhabited,2.281528803391886,1001,73.25557788943128,1002,N,,Other,0,,0,0,LD1419,0,0,0,73.25557788943128,2.281528803391886
Th,Uninhabited,2.284872451649073,1002,73.25854601363459,1003,N,Kudakaaddoo,Other,0,Th.Kudakaaddoo,0,0,LD0622,0,0,0,73.25854601363459,2.284872451649073
Th,Uninhabited,2.287139521272906,1003,73.26300468117195,1004,N,Hathifushi,Other,0,Th.Hathifushi,0,0,LD0190,0,0,0,73.26300468117195,2.287139521272906
Th,Uninhabited,2.289299831364974,1004,73.26641995704267,1005,N,Rihaamaafushi,Other,0,Th.Rihaamaafushi,0,0,LD0956,0,0,0,73.26641995704267,2.289299831364974
Th,Uninhabited,2.29143118813046,1005,73.26983016467496,1006,N,Fenfushi,Other,0,Th.Fenfushi,0,0,LD0108,0,0,0,73.26983016467496,2.29143118813046
Th,Uninhabited,2.294937205519264,1006,73.27637150560889,1007,N,Kalhudheyfushi,Other,0,Th.Kalhudheyfushi,0,0,LD1173,0,0,0,73.27637150560889,2.294937205519264
Th,Uninhabited,2.300781385823431,1007,73.28490411545536,1008,N,Fonidhaani,Other,0,Th.Fonidhaani,0,0,LD0912,0,0,0,73.28490411545536,2.300781385823431
Th,Uninhabited,2.305682285496689,1008,73.29141046617062,1009,N,Lhavaddoo,Other,0,Th.Lhavaddoo,0,0,LD0029,0,0,0,73.29141046617062,2.305682285496689
Th,Uninhabited,2.310752831868915,1009,73.29826524767954,1010,N,Maalefushi,Tourism,0,Th.Maalefushi,0,0,LD0556,0,0,0,73.29826524767954,2.310752831868915
Th,Uninhabited,2.312705571305204,1010,73.29712412848447,1011,N,,Tourism,0,,0,0,LD1656,0,0,0,73.29712412848447,2.312705571305204
Th,Uninhabited,2.315803352846519,1011,73.30544943093201,1012,N,Bodufinolhu,Other,0,Th.Bodufinolhu,0,0,LD0596,0,0,0,73.30544943093201,2.315803352846519
Th,Uninhabited,2.343379336339471,1012,73.34093082099544,1013,N,Medhafushi,Other,0,Th.Medhafushi,0,0,LD0850,0,0,0,73.34093082099544,2.343379336339471
Th,Uninhabited,2.346220127944558,1013,73.34274874419386,1014,N,Mathidhoo,Other,0,Th.Mathidhoo,0,0,LD0849,0,0,0,73.34274874419386,2.346220127944558
Th,Uninhabited,2.361269404467217,1014,73.3615801607775,1015,N,Ufuriyaa,Other,0,Th.Ufuriyaa,0,0,LD1130,0,0,0,73.3615801607775,2.361269404467217
Th,Uninhabited,2.520453163624665,1015,73.22657139450381,1016,N,Hikan'dhilhohi,Other,0,Th.Hikan'dhilhohi,0,0,LD0040,0,0,0,73.22657139450381,2.520453163624665
V,Uninhabited,3.636633201062817,1016,73.36516421279192,1017,N,Kunaaveshi,Tourism,0,V.Kunaaveshi,0,0,LD1148,0,0,0,73.36516421279192,3.636633201062817
V,Uninhabited,3.630478103245812,1017,73.37742004451796,1018,N,Vashugiri,Tourism,0,V.Vashugiri,0,0,LD1026,0,0,0,73.37742004451796,3.630478103245812
V,Uninhabited,3.493298888339881,1018,73.53275888832624,1019,N,Hulhidhoo,Agriculture,0,V.Hulhidhoo,0,0,LD0117,0,0,0,73.53275888832624,3.493298888339881
V,Uninhabited,3.593720590516261,1019,73.49809362889444,1020,N,Alimathaa,Tourism,0,V.Alimathaa,0,0,LD0148,0,0,0,73.49809362889444,3.593720590516261
V,Uninhabited,3.426805261183672,1020,73.4250404189674,1021,N,Kuda Anbaraa,Other,0,V.Kuda Anbaraa,0,0,LD0604,0,0,0,73.4250404189674,3.426805261183672
V,Uninhabited,3.454007610043018,1021,73.75862924388439,1022,N,Fohtheyobodufushi,Other,0,V.Fohtheyobodufushi,0,0,LD0935,0,0,0,73.75862924388439,3.454007610043018
V,Uninhabited,3.3723613769015,1022,73.43967691956964,1023,N,Anbaraa,Other,0,V.Anbaraa,0,0,LD1043,0,0,0,73.43967691956964,3.3723613769015
V,Uninhabited,3.342645682650458,1023,73.50620703789053,1024,N,Thun'duhuraa,Other,0,V.Thun'duhuraa,0,0,LD0079,0,0,0,73.50620703789053,3.342645682650458
V,Uninhabited,3.34316792894677,1024,73.52216407205277,1025,N,Bodumohoraa,Other,0,V.Bodumohoraa,0,0,LD0813,0,0,0,73.52216407205277,3.34316792894677
V,Uninhabited,3.22143264329845,1025,73.42639247456698,1026,N,Vattaru,Other,0,V.Vattaru,0,0,LD1099,0,0,0,73.42639247456698,3.22143264329845
V,Uninhabited,3.644991293114087,1026,73.48740177909585,1027,N,,Tourism,0,,0,0,LD0267,0,0,0,73.48740177909585,3.644991293114087
V,Uninhabited,3.498830334234623,1027,73.52986659436826,1028,N,Aarah,Tourism,0,V.Aarah,0,0,LD0051,0,0,0,73.52986659436826,3.498830334234623
K,Uninhabited,4.958754827074309,1028,73.45144307019072,1029,N,,Other,0,,0,0,LD0721,0,0,0,73.45144307019072,4.958754827074309
K,Uninhabited,4.677183036204279,1029,73.50102978308854,1030,N,Kagi,Tourism,0,K.Kagi,0,0,LD0843,0,0,0,73.50102978308854,4.677183036204279
K,Uninhabited,4.671938605334098,1030,73.53236308546083,1031,N,,Other,0,,0,0,LD1303,0,0,0,73.53236308546083,4.671938605334098
K,Uninhabited,4.634325972519403,1031,73.56345150422754,1032,N,Helen'geli,Tourism,0,K.Helen'geli,0,0,LD0036,0,0,0,73.56345150422754,4.634325972519403
K,Uninhabited,4.630128488971587,1032,73.57043607825847,1033,N,Maifalhuhuraa,Other,0,K.Maifalhuhuraa,0,0,LD0753,0,0,0,73.57043607825847,4.630128488971587
K,Uninhabited,4.626618624310552,1033,73.57187455467452,1034,N,,Tourism,0,,0,0,LD0691,0,0,0,73.57187455467452,4.626618624310552
K,Uninhabited,4.614790318878584,1034,73.5701567151539,1035,N,,Other,0,,0,0,LD1730,0,0,0,73.5701567151539,4.614790318878584
K,Uninhabited,4.602134703279969,1035,73.58197300448805,1036,N,,Tourism,0,,0,0,LD1705,0,0,0,73.58197300448805,4.602134703279969
K,Uninhabited,4.590317162313678,1036,73.59155784751682,1037,N,Thun'bafushi,Agriculture and Fisheries,0,K.Thun'bafushi,0,0,LD0259,0,0,0,73.59155784751682,4.590317162313678
K,Uninhabited,4.579740494691189,1037,73.57837902790182,1038,N,,Other,0,,0,0,LD0853,0,0,0,73.57837902790182,4.579740494691189
K,Uninhabited,4.466243095225194,1038,73.66145737453931,1039,N,Asdhoo,Other,0,K.Asdhoo,0,0,LD0536,0,0,0,73.66145737453931,4.466243095225194
K,Uninhabited,4.454165920011627,1039,73.71692087141517,1040,N,Meerufenfushi,Tourism,0,K.Meerufenfushi,0,0,LD1071,0,0,0,73.71692087141517,4.454165920011627
K,Uninhabited,4.403399400070511,1040,73.68801292629331,1041,N,,Other,0,,0,0,LD1709,0,0,0,73.68801292629331,4.403399400070511
K,Uninhabited,4.387311121095357,1041,73.67757269808111,1042,N,,Other,0,,0,0,LD1710,0,0,0,73.67757269808111,4.387311121095357
K,Uninhabited,4.37656531711471,1042,73.66241842820905,1043,N,Vilin'gilimathidhahuraa,Tourism,0,K.Vilin'gilimathidhahuraa,0,0,LD0215,0,0,0,73.66241842820905,4.37656531711471
K,Uninhabited,4.350537389925947,1043,73.61797488235665,1044,N,Lhohifushi,Tourism,0,K.Lhohifushi,0,0,LD0473,0,0,0,73.61797488235665,4.350537389925947
K,Uninhabited,4.343343698574071,1044,73.61126371667329,1045,N,,Tourism,0,,0,0,LD0468,0,0,0,73.61126371667329,4.343343698574071
K,Uninhabited,4.343561616692296,1045,73.60822478962997,1046,N,Kanifinolhu,Tourism,0,K.Kanifinolhu,0,0,LD0960,0,0,0,73.60822478962997,4.343561616692296
K,Uninhabited,4.330829045767699,1046,73.5969537372819,1047,N,,Tourism,0,,0,0,LD1317,0,0,0,73.5969537372819,4.330829045767699
K,Uninhabited,4.328213805175373,1047,73.59757585466157,1048,N,Kudahuraa,Tourism,0,K.Kudahuraa,0,0,LD1114,0,0,0,73.59757585466157,4.328213805175373
K,Uninhabited,4.319013896694565,1048,73.5911013634609,1049,N,Kanuoiyhuraa,Tourism,0,K.Kanuoiyhuraa,0,0,LD0157,0,0,0,73.5911013634609,4.319013896694565
K,Uninhabited,4.315315665584305,1049,73.58431845087668,1050,N,Than'burudhoo,Other,0,K.Than'burudhoo,0,0,LD0159,0,0,0,73.58431845087668,4.315315665584305
K,Uninhabited,4.320545615534372,1050,73.58276693319141,1051,N,,Other,0,,0,0,LD0127,0,0,0,73.58276693319141,4.320545615534372
K,Uninhabited,4.318543918278813,1051,73.57844204007202,1052,N,Girifushi,Other,0,K.Girifushi,0,0,LD0359,0,0,0,73.57844204007202,4.318543918278813
K,Uninhabited,4.294930154199726,1052,73.55830207221817,1053,N,Lankanfushi,Tourism,0,K.Lankanfushi,0,0,LD0886,0,0,0,73.55830207221817,4.294930154199726
K,Uninhabited,4.218703085899089,1053,73.39679484007425,1054,N,,Other,0,,0,0,LD1711,0,0,0,73.39679484007425,4.218703085899089
K,Uninhabited,4.259697655434116,1054,73.37990131562549,1055,N,Kohdhipparu,Tourism,0,K.Kohdhipparu,0,0,LD0283,0,0,0,73.37990131562549,4.259697655434116
K,Uninhabited,4.342578677627215,1055,73.38675729302011,1056,N,Nakahchaahuraa,Other,0,K.Nakahchaahuraa,0,0,LD1313,0,0,0,73.38675729302011,4.342578677627215
K,Uninhabited,4.370470795182753,1056,73.4108952142178,1057,N,,Other,0,,0,0,LD1295,0,0,0,73.4108952142178,4.370470795182753
K,Uninhabited,4.39537630682032,1057,73.35187876095146,1058,N,Rasfari,Other,0,K.Rasfari,0,0,LD0785,0,0,0,73.35187876095146,4.39537630682032
K,Uninhabited,4.417209504781662,1058,73.38028571082772,1059,N,Kudahithi,Other,0,K.Kudahithi,0,0,LD0492,0,0,0,73.38028571082772,4.417209504781662
K,Uninhabited,4.430016810510529,1059,73.38482168937935,1060,N,Boduhithi,Tourism,0,K.Boduhithi,0,0,LD0305,0,0,0,73.38482168937935,4.430016810510529
K,Uninhabited,4.456426802836423,1060,73.40742071074915,1061,N,,Other,0,,0,0,LD1296,0,0,0,73.40742071074915,4.456426802836423
K,Uninhabited,4.481653229585319,1061,73.39330180019493,1062,N,Hen'badhoo,Tourism,0,K.Hen'badhoo,0,0,LD0331,0,0,0,73.39330180019493,4.481653229585319
K,Uninhabited,4.500828145431498,1062,73.36844346726605,1063,N,Madivaru,Tourism,0,K.Madivaru,0,0,LD0436,0,0,0,73.36844346726605,4.500828145431498
K,Uninhabited,4.53314002101504,1063,73.37251773498575,1064,N,Ziyaaraiyfushi,Tourism,0,K.Ziyaaraiyfushi,0,0,LD0399,0,0,0,73.37251773498575,4.53314002101504
K,Uninhabited,4.542725244760259,1064,73.40560664585755,1065,N,Makunudhoo,Tourism,0,K.Makunudhoo,0,0,LD1142,0,0,0,73.40560664585755,4.542725244760259
K,Uninhabited,4.590024855534446,1065,73.41463137272062,1066,N,Eriadhoo,Tourism,0,K.Eriadhoo,0,0,LD0648,0,0,0,73.41463137272062,4.590024855534446
K,Uninhabited,4.60907489375824,1066,73.40797675092696,1067,N,Dhonfushi,Other,0,K.Dhonfushi,0,0,LD1300,0,0,0,73.40797675092696,4.60907489375824
K,Uninhabited,4.693753971560811,1067,73.51240985112159,1068,N,,Other,0,,0,0,LD1713,0,0,0,73.51240985112159,4.693753971560811
K,Uninhabited,4.30968991552483,1068,73.42410297531735,1069,N,Vabbinfaru,Tourism,0,K.Vabbinfaru,0,0,LD0311,0,0,0,73.42410297531735,4.30968991552483
K,Uninhabited,4.306739738634755,1069,73.41620831065194,1070,N,Ihuru,Tourism,0,K.Ihuru,0,0,LD0154,0,0,0,73.41620831065194,4.306739738634755
K,Uninhabited,4.284773121605999,1070,73.42720006783725,1071,N,Baros,Tourism,0,K.Baros,0,0,LD0142,0,0,0,73.42720006783725,4.284773121605999
K,Uninhabited,4.097386504638682,1071,73.39980186021835,1072,N,Bolifushi,Tourism,0,K.Bolifushi,0,0,LD0597,0,0,0,73.39980186021835,4.097386504638682
K,Uninhabited,4.05620886551939,1072,73.38840766020938,1073,N,,Other,0,,0,0,LD1724,0,0,0,73.38840766020938,4.05620886551939
K,Uninhabited,4.055583616367329,1073,73.41119551204946,1074,N,Maniyafushi,Other,0,K.Maniyafushi,0,0,LD0073,0,0,0,73.41119551204946,4.055583616367329
K,Uninhabited,4.000368673399678,1074,73.39163973368223,1075,N,Ithaafinolhu,Other,0,K.Ithaafinolhu,0,0,LD1323,0,0,0,73.39163973368223,4.000368673399678
K,Uninhabited,4.009882250628143,1075,73.37212011583937,1076,N,Kalhuhuraa,Other,0,K.Kalhuhuraa,0,0,LD0642,0,0,0,73.37212011583937,4.009882250628143
K,Uninhabited,3.948441534427377,1076,73.35528795510909,1077,N,Vaagali,Other,0,K.Vaagali,0,0,LD0098,0,0,0,73.35528795510909,3.948441534427377
K,Uninhabited,3.903393028209523,1077,73.35764582408022,1078,N,Rannaalhi,Tourism,0,K.Rannaalhi,0,0,LD0196,0,0,0,73.35764582408022,3.903393028209523
K,Uninhabited,3.877206406491413,1078,73.3670822013655,1079,N,Fihaalhohi,Tourism,0,K.Fihaalhohi,0,0,LD0516,0,0,0,73.3670822013655,3.877206406491413
K,Uninhabited,3.840557657803125,1079,73.3764898025854,1080,N,,Other,0,,0,0,LD1327,0,0,0,73.3764898025854,3.840557657803125
K,Uninhabited,3.824820011445744,1080,73.37534102703633,1081,N,Tholhimaraahuraa,Agriculture,0,K.Tholhimaraahuraa,0,0,LD1329,0,0,0,73.37534102703633,3.824820011445744
K,Uninhabited,3.812332937889839,1081,73.41129700812273,1082,N,Mahaanaelhihuraa,Tourism,0,K.Mahaanaelhihuraa,0,0,LD0633,0,0,0,73.41129700812273,3.812332937889839
K,Uninhabited,3.814780007247041,1082,73.41595254091102,1083,N,Erruhhuraa,Other,0,K.Erruhhuraa,0,0,LD0624,0,0,0,73.41595254091102,3.814780007247041
K,Uninhabited,3.811891533127874,1083,73.4177274915426,1084,N,Olhigan'dufinolhu,Other,0,K.Olhigan'dufinolhu,0,0,LD0415,0,0,0,73.4177274915426,3.811891533127874
K,Uninhabited,3.856951979636078,1084,73.45679943896148,1085,N,Bodufinolhu,Tourism,0,K.Bodufinolhu,0,0,LD1194,0,0,0,73.45679943896148,3.856951979636078
K,Uninhabited,3.86515880232399,1085,73.45861981120082,1086,N,Kudafinolhu,Other,0,K.Kudafinolhu,0,0,LD0324,0,0,0,73.45861981120082,3.86515880232399
K,Uninhabited,3.872177508772646,1086,73.45884949565828,1087,N,Maadhoo,Tourism,0,K.Maadhoo,0,0,LD0128,0,0,0,73.45884949565828,3.872177508772646
K,Uninhabited,3.897172677715727,1087,73.46972916818875,1088,N,Lhosfushi,Other,0,K.Lhosfushi,0,0,LD0842,0,0,0,73.46972916818875,3.897172677715727
K,Uninhabited,3.914490939775621,1088,73.45551888901652,1089,N,Villivaru,Other,0,K.Villivaru,0,0,LD1165,0,0,0,73.45551888901652,3.914490939775621
K,Uninhabited,3.922107241057616,1089,73.45638014948017,1090,N,Biyaadhoo,Tourism,0,K.Biyaadhoo,0,0,LD0160,0,0,0,73.45638014948017,3.922107241057616
K,Uninhabited,3.948913045080635,1090,73.49614391341191,1091,N,Vammaafushi,Other,0,K.Vammaafushi,0,0,LD0149,0,0,0,73.49614391341191,3.948913045080635
K,Uninhabited,3.96889074626738,1091,73.50310555480043,1092,N,Noofinolhu,Tourism,0,K.Noofinolhu,0,0,LD1335,0,0,0,73.50310555480043,3.96889074626738
K,Uninhabited,3.971716671742322,1092,73.50647277808808,1093,N,Veligan'duhuraa,Tourism,0,K.Veligan'duhuraa,0,0,LD1134,0,0,0,73.50647277808808,3.971716671742322
K,Uninhabited,3.972324339661054,1093,73.50229639731464,1094,N,Dhigufinolhu,Tourism,0,K.Dhigufinolhu,0,0,LD0321,0,0,0,73.50229639731464,3.972324339661054
K,Uninhabited,3.976393571843654,1094,73.50485388144985,1095,N,Funfinolhu,Tourism,0,K.Funfinolhu,0,0,LD1334,0,0,0,73.50485388144985,3.976393571843654
K,Uninhabited,4.08402949158051,1095,73.51223351183964,1096,N,En'boodhoo,Tourism,0,K.En'boodhoo,0,0,LD0816,0,0,0,73.51223351183964,4.08402949158051
K,Uninhabited,4.104842950569824,1096,73.52475969519767,1097,N,En'boodhoofinolhu,Tourism,0,K.En'boodhoofinolhu,0,0,LD0524,0,0,0,73.52475969519767,4.104842950569824
K,Uninhabited,4.307237015699083,1097,73.50104735859041,1098,N,Aanugan'duhuraa,Tourism,0,K.Aanugan'duhuraa,0,0,LD1714,0,0,0,73.50104735859041,4.307237015699083
K,Uninhabited,4.265504701061525,1098,73.42339675084371,1099,N,,Other,0,,0,0,LD1720,0,0,0,73.42339675084371,4.265504701061525
K,Uninhabited,3.965403751107921,1099,73.44749438057826,1100,N,,Other,0,,0,0,LD1736,0,0,0,73.44749438057826,3.965403751107921
K,Uninhabited,4.090025180485445,1100,73.52370573643378,1101,N,,Other,0,,0,0,LD1732,0,0,0,73.52370573643378,4.090025180485445
K,Uninhabited,4.118024945826133,1101,73.52652535018854,1102,N,,Other,0,,0,0,LD1733,0,0,0,73.52652535018854,4.118024945826133
K,Uninhabited,4.120912266917547,1102,73.51517234259751,1103,N,,Other,0,,0,0,LD1734,0,0,0,73.51517234259751,4.120912266917547
K,Uninhabited,4.269448806391742,1103,73.49143387935771,1104,N,Boduban'dos,Tourism,0,K.Boduban'dos,0,0,LD0026,0,0,0,73.49143387935771,4.269448806391742
K,Uninhabited,3.967366395276601,1104,73.50540021506265,1105,N,Boduhuraa,Tourism,0,K.Boduhuraa,0,0,LD0137,0,0,0,73.50540021506265,3.967366395276601
K,Uninhabited,3.917872258674761,1105,73.47021419613382,1106,N,Makunufushi,Tourism,0,K.Makunufushi,0,0,LD0202,0,0,0,73.47021419613382,3.917872258674761
K,Uninhabited,4.263848426804313,1106,73.49974541692848,1107,N,Kudaban'dos,Tourism,0,K.Kudaban'dos,0,0,LD0230,0,0,0,73.49974541692848,4.263848426804313
K,Uninhabited,4.690241288417092,1107,73.45096665624507,1108,N,Olhuhali,Tourism,0,K.Olhuhali,0,0,LD0482,0,0,0,73.45096665624507,4.690241288417092
K,Uninhabited,4.183781932074218,1108,73.51800423770352,1109,N,Funadhoo,Other,0,K.Funadhoo,0,0,LD0483,0,0,0,73.51800423770352,4.183781932074218
K,Uninhabited,4.249508254504316,1109,73.53705277058278,1110,N,Gaagan'du,Other,0,K.Gaagan'du,0,0,LD0495,0,0,0,73.53705277058278,4.249508254504316
K,Uninhabited,3.976593726917234,1110,73.50702869972052,1111,N,Gulhigaathuhuraa,Tourism,0,K.Gulhigaathuhuraa,0,0,LD0558,0,0,0,73.50702869972052,3.976593726917234
K,Uninhabited,4.257926552678187,1111,73.54059069882071,1112,N,Kan'duoiygiri,Fisheries,0,K.Kan'duoiygiri,0,0,LD0656,0,0,0,73.54059069882071,4.257926552678187
K,Uninhabited,4.200450994690088,1112,73.41283449143093,1113,N,Giraavaru,Tourism,0,K.Giraavaru,0,0,LD0689,0,0,0,73.41283449143093,4.200450994690088
K,Uninhabited,4.368183147216731,1113,73.36981629790812,1114,N,Nakaiychaafushi,Tourism,0,K.Nakaiychaafushi,0,0,LD0765,0,0,0,73.36981629790812,4.368183147216731
K,Uninhabited,4.361364443623148,1114,73.62631293336013,1115,N,Gasfinolhu,Tourism,0,K.Gasfinolhu,0,0,LD0803,0,0,0,73.62631293336013,4.361364443623148
K,Uninhabited,4.124145203563292,1115,73.45726776958699,1116,N,Vaadhoo,Tourism,0,K.Vaadhoo,0,0,LD0903,0,0,0,73.45726776958699,4.124145203563292
K,Uninhabited,4.311612236527267,1116,73.48741289895052,1117,N,Thulhaagiri,Tourism,0,K.Thulhaagiri,0,0,LD0929,0,0,0,73.48741289895052,4.311612236527267
K,Uninhabited,4.1213884342805,1117,73.4370251384191,1118,N,Velassaru,Tourism,0,K.Velassaru,0,0,LD0954,0,0,0,73.4370251384191,4.1213884342805
K,Uninhabited,4.306335174671917,1118,73.50566672056942,1119,N,Aanugan'dufinolhu,Tourism,0,K.Aanugan'dufinolhu,0,0,LD1293,0,0,0,73.50566672056942,4.306335174671917
K,Uninhabited,4.12421772891383,1119,73.46290561498424,1120,N,Ehmafushi,Tourism,0,K.Ehmafushi,0,0,LD1501,0,0,0,73.46290561498424,4.12421772891383
K,Uninhabited,4.123686924182571,1120,73.47245692872357,1121,N,Akasdhoo,Tourism,0,K.Akasdhoo,0,0,LD1502,0,0,0,73.47245692872357,4.123686924182571
K,Uninhabited,4.31933788235118,1121,73.59634190605823,1122,N,Vabboahuraa,Tourism,0,K.Vabboahuraa,0,0,LD0078,0,0,0,73.59634190605823,4.31933788235118
K,Uninhabited,4.511052025158826,1122,73.36972455458562,1123,N,Medhufinolhu,Tourism,0,K.Medhufinolhu,0,0,LD0527,0,0,0,73.36972455458562,4.511052025158826
K,Uninhabited,4.606617308322101,1123,73.57973006552143,1124,N,,Tourism,0,,0,0,LD1738,0,0,0,73.57973006552143,4.606617308322101
K,Uninhabited,4.60431061445772,1124,73.5805551499261,1125,N,,Tourism,0,,0,0,LD1704,0,0,0,73.5805551499261,4.60431061445772
K,Uninhabited,4.620745679065225,1125,73.39567609985181,1126,N,Kan'baashaa,Other,0,K.Kan'baashaa,0,0,LD1508,0,0,0,73.39567609985181,4.620745679065225
K,Uninhabited,4.609437451047113,1126,73.41992570551527,1127,N,Maaranfushi,Tourism,0,K.Maaranfushi,0,0,LD1500,0,0,0,73.41992570551527,4.609437451047113
K,Uninhabited,4.624319835829775,1127,73.40769360424748,1128,N,Nashvilu,Other,0,K.Nashvilu,0,0,LD1706,0,0,0,73.40769360424748,4.624319835829775
K,Uninhabited,4.62200145291931,1128,73.41534527551872,1129,N,Hastheem,Other,0,K.Hastheem,0,0,LD1707,0,0,0,73.41534527551872,4.62200145291931
K,Uninhabited,4.249865445177531,1129,73.54562563098474,1130,N,Furanafushi,Tourism,0,K.Furanafushi,0,0,LD1177,0,0,0,73.54562563098474,4.249865445177531
K,Uninhabited,3.903226246701032,1130,73.47357663211925,1131,N,Kan'doomaafushi,Tourism,0,K.Kan'doomaafushi,0,0,LD0377,0,0,0,73.47357663211925,3.903226246701032
K,Uninhabited,3.906158155737948,1131,73.47252330873823,1132,N,,Tourism,0,,0,0,LD1739,0,0,0,73.47252330873823,3.906158155737948
K,Uninhabited,3.979904982665982,1132,73.50134784248802,1133,N,Bulhifushi,Tourism,0,K.Bulhifushi,0,0,LD0712,0,0,0,73.50134784248802,3.979904982665982
K,Uninhabited,3.847632533464286,1133,73.46005567416198,1134,N,,Tourism,0,,0,0,LD1740,0,0,0,73.46005567416198,3.847632533464286
K,Uninhabited,4.285639872341077,1134,73.55406767886643,1135,N,Lankanfinolhu,Tourism,0,K.Lankanfinolhu,0,0,LD0972,0,0,0,73.55406767886643,4.285639872341077
K,Uninhabited,4.637749890554876,1135,73.40164725681784,1136,N,Akirifushi,Tourism,0,K.Akirifushi,0,0,LD0981,0,0,0,73.40164725681784,4.637749890554876
K,Uninhabited,4.248041585282079,1136,73.54308525216256,1137,N,,Tourism,0,,0,0,LD1745,0,0,0,73.54308525216256,4.248041585282079
K,Uninhabited,4.248121073938361,1137,73.54371127881144,1138,N,,Tourism,0,,0,0,LD1744,0,0,0,73.54371127881144,4.248121073938361
K,Uninhabited,4.248394562805549,1138,73.54528117524508,1139,N,,Tourism,0,,0,0,LD1742,0,0,0,73.54528117524508,4.248394562805549
K,Uninhabited,4.248569472098352,1139,73.54596368024215,1140,N,,Tourism,0,,0,0,LD1741,0,0,0,73.54596368024215,4.248569472098352
K,Uninhabited,4.008864273801967,1140,73.40347833127211,1141,N,,Tourism,0,,0,0,LD1752,0,0,0,73.40347833127211,4.008864273801967
K,Uninhabited,4.011194193864328,1141,73.39230038741267,1142,N,,Tourism,0,,0,0,LD1751,0,0,0,73.39230038741267,4.011194193864328
K,Uninhabited,4.012673906515885,1142,73.38249947590452,1143,N,Ithaafushi,Tourism,0,K.Ithaafushi,0,0,LD1507,0,0,0,73.38249947590452,4.012673906515885
K,Uninhabited,4.014397968672754,1143,73.39013597548157,1144,N,,Tourism,0,,0,0,LD1749,0,0,0,73.39013597548157,4.014397968672754
K,Uninhabited,4.014530295599089,1144,73.39431571036603,1145,N,,Tourism,0,,0,0,LD1750,0,0,0,73.39431571036603,4.014530295599089
K,Uninhabited,4.015192889903163,1145,73.38705196770957,1146,N,,Tourism,0,,0,0,LD1748,0,0,0,73.38705196770957,4.015192889903163
K,Uninhabited,4.014573383402306,1146,73.3831775345727,1147,N,,Tourism,0,,0,0,LD1747,0,0,0,73.3831775345727,4.014573383402306
K,Uninhabited,4.663295421618493,1147,73.5470580538851,1148,N,,Other,0,,0,0,LD1702,0,0,0,73.5470580538851,4.663295421618493
K,Uninhabited,4.595036613626983,1148,73.58524268091286,1149,N,,Tourism,0,,0,0,LD1703,0,0,0,73.58524268091286,4.595036613626983
K,Uninhabited,4.123589576627779,1149,73.48390494430943,1150,N,,Other,0,,0,0,LD1721,0,0,0,73.48390494430943,4.123589576627779
K,Uninhabited,4.123574130465221,1150,73.48119024544161,1151,N,,Tourism,0,,0,0,LD1756,0,0,0,73.48119024544161,4.123574130465221
K,Uninhabited,4.085410330767664,1151,73.3876766527983,1152,N,,Other,0,,0,0,LD1758,0,0,0,73.3876766527983,4.085410330767664
K,Uninhabited,4.061856303213985,1152,73.38002732898633,1153,N,,Other,0,,0,0,LD1723,0,0,0,73.38002732898633,4.061856303213985
K,Uninhabited,3.822775962917714,1153,73.43376747231032,1154,N,,Other,0,,0,0,LD1728,0,0,0,73.43376747231032,3.822775962917714
K,Uninhabited,4.250027211588727,1154,73.36676110977965,1155,N,,Tourism,0,,0,0,LD1761,0,0,0,73.36676110977965,4.250027211588727
K,,4.518987403947167,1155,73.66121760139013,1156,,,Tourism,0,,0,0,LD1762,0,0,0,73.66121760139013,4.518987403947167
K,Uninhabited,4.376790566286278,1156,73.66758261566349,1157,N,,Tourism,0,,0,0,LD1763,0,0,0,73.66758261566349,4.376790566286278
K,Uninhabited,4.37615098114073,1157,73.66069059020552,1158,N,,Tourism,0,,0,0,LD1764,0,0,0,73.66069059020552,4.37615098114073
K,Uninhabited,4.376059957754323,1158,73.66579594031194,1159,N,,Tourism,0,,0,0,LD1765,0,0,0,73.66579594031194,4.376059957754323
K,Uninhabited,3.851032479281093,1159,73.45558787981386,1160,N,Olhuveli,Tourism,0,K.Olhuveli,0,0,LD0756,0,0,0,73.45558787981386,3.851032479281093
K,Uninhabited,3.852203675708532,1160,73.46039301666366,1161,N,,Tourism,0,,0,0,LD1767,0,0,0,73.46039301666366,3.852203675708532
ADh,Uninhabited,3.738954560374956,1161,72.73180783642525,1162,N,Bulhalhohi,Other,0,ADh.Bulhalhohi,0,0,LD0583,0,0,0,72.73180783642525,3.738954560374956
GDh,Uninhabited,0.271474673564465,1162,73.08114959574148,1163,N,Kudhemaadhoo,Other,0,GDh.Kudhemaadhoo,0,0,LD1768,0,0,0,73.08114959574148,0.271474673564465
GDh,Uninhabited,0.266084987892798,1163,73.09204408088577,1164,N,Kavvahuttaa,Other,0,GDh.Kavvahuttaa,0,0,LD1769,0,0,0,73.09204408088577,0.266084987892798
GDh,Uninhabited,0.198482954573125,1164,73.18604839139743,1165,N,,Other,0,,0,0,LD0063,0,0,0,73.18604839139743,0.198482954573125
S,,-0.60519682310236,1165,73.10377001096583,1166,,Dhondheeni Hera,,0,S.Dhondheeni Hera,0,0,,0,0,0,73.10377001096583,-0.60519682310236
S,,-0.610760845669598,1166,73.1105400532353,1167,,Bolihera,,0,S.Bolihera,0,0,,0,0,0,73.1105400532353,-0.610760845669598
S,,-0.585761943176933,1167,73.19680590981196,1168,,Dhonhera Fenna,,0,S.Dhonhera Fenna,0,0,,0,0,0,73.19680590981196,-0.585761943176933
K,,4.297382123589834,1168,73.35412693053864,1169,,,,0,,0,0,,0,0,0,73.35412693053864,4.297382123589834
K,,4.309817667746649,1169,73.35894790789222,1170,,,,0,,0,0,,0,0,0,73.35894790789222,4.309817667746649
K,,4.311635019925299,1170,73.34755745553277,1171,,,,0,,0,0,,0,0,0,73.34755745553277,4.311635019925299
K,,4.316129917971245,1171,73.34800421740252,1172,,,,0,,0,0,,0,0,0,73.34800421740252,4.316129917971245
K,,4.256999062926523,1172,73.35973090095953,1173,,,,0,,0,0,,0,0,0,73.35973090095953,4.256999062926523
K,,4.278355877811364,1173,73.35168066769305,1174,,,,0,,0,0,,0,0,0,73.35168066769305,4.278355877811364
K,,4.28595388130184,1174,73.34903725663372,1175,,,,0,,0,0,,0,0,0,73.34903725663372,4.28595388130184
K,,4.28346437049047,1175,73.362646283933,1176,,,,0,,0,0,,0,0,0,73.362646283933,4.28346437049047
K,,4.284344273788865,1176,73.36334815044303,1177,,,,0,,0,0,,0,0,0,73.36334815044303,4.284344273788865
K,,3.9068825397851,1177,73.46136828291192,1178,,,,0,,0,0,,0,0,0,73.46136828291192,3.9068825397851
Lh,,5.364854181555698,1178,73.41375454139742,1179,,Maafilaafushi,,0,Lh.Maafilaafushi,0,0,,0,0,0,73.41375454139742,5.364854181555698
N,,5.906037676999812,1179,73.4540176829223,1180,,,,0,,0,0,,0,0,0,73.4540176829223,5.906037676999812
ADh,,3.755450966047359,1180,72.76969390977051,1181,,,,0,,0,0,,0,0,0,72.76969390977051,3.755450966047359
ADh,,3.546691766499084,1181,72.72092532367624,1182,,,,0,,0,0,,0,0,0,72.72092532367624,3.546691766499084
Maale City,Inhabited,4.23235865663541,1182,73.54562922908158,1183,N,Hulhumaale,Inhabited,0,Maale City.Hulhumaale,12932,37620,LD0591,28586,53274,66206,73.54562922908158,4.23235865663541
N,,5.751253001674852,1183,73.24947533027411,1184,,,,0,,0,0,,0,0,0,73.24947533027411,5.751253001674852
Dh,Uninhabited,2.930982647814229,1184,72.9583742828967,1185,N,Aluvifushi,Tourism,0,Dh.Aluvifushi,0,0,LD0623,0,0,0,72.9583742828967,2.930982647814229
K,Uninhabited,4.122676519572829,1185,73.490391428066,1186,N,,Other,0,,0,0,LD1734,0,0,0,73.490391428066,4.122676519572829
ADh,Uninhabited,3.479638771112339,1186,72.87149383708531,1187,N,,Other,0,,0,0,LD1102,0,0,0,72.87149383708531,3.479638771112339
